{
"type": "FeatureCollection",
"name": "geo_06_認知症対応型通所介護",
"crs": { "type": "name", "properties": { "name": "urn:ogc:def:crs:OGC:1.3:CRS84" } },
"features": [
{ "type": "Feature", "properties": { "内容": "オークランドホーム南原町木洩れ陽【認知症対応型通所介護】山形県山形市南原町三丁目11-1", "url": "https://www.kaigokensaku.mhlw.go.jp/06/index.php?action_kouhyou_detail_004_kani=true&JigyosyoCd=0670101674-00&ServiceCd=720&Type=search", "url2": "http://www.oakland.co.jp/kaigo/" }, "geometry": { "type": "Point", "coordinates": [ 140.3439826, 38.2332163 ] } },
{ "type": "Feature", "properties": { "内容": "オレアもとき　認知症対応型通所介護【認知症対応型通所介護】山形県山形市元木二丁目９番３９号", "url": "https://www.kaigokensaku.mhlw.go.jp/06/index.php?action_kouhyou_detail_004_kani=true&JigyosyoCd=0690100995-00&ServiceCd=720&Type=search", "url2": "https://www.olea-iwaki.com/" }, "geometry": { "type": "Point", "coordinates": [ 140.3200568, 38.2236021 ] } },
{ "type": "Feature", "properties": { "内容": "あかねヶ丘ケアセンター【認知症対応型通所介護】山形県山形市あかねヶ丘3丁目15-7", "url": "https://www.kaigokensaku.mhlw.go.jp/06/index.php?action_kouhyou_detail_004_kani=true&JigyosyoCd=0670101500-00&ServiceCd=720&Type=search", "url2": "http://rakusei-kai.or.jp" }, "geometry": { "type": "Point", "coordinates": [ 140.311249399999951, 38.2410201 ] } },
{ "type": "Feature", "properties": { "内容": "デイサービス　けやきの森【認知症対応型通所介護】山形市大字漆山字念仏段1903-1", "url": "https://www.kaigokensaku.mhlw.go.jp/06/index.php?action_kouhyou_detail_004_kani=true&JigyosyoCd=0690100243-00&ServiceCd=720&Type=search", "url2": "http://www.keyakinomori.co.jp" }, "geometry": { "type": "Point", "coordinates": [ 140.356849706568141, 38.31237744707672 ] } },
{ "type": "Feature", "properties": { "内容": "認知症デイサービスセンターわが家【認知症対応型通所介護】山形県山形市荒楯町二丁目9番7号", "url": "https://www.kaigokensaku.mhlw.go.jp/06/index.php?action_kouhyou_detail_004_kani=true&JigyosyoCd=0690100722-00&ServiceCd=720&Type=search", "url2": "http://wagaya-yamagata.jp/" }, "geometry": { "type": "Point", "coordinates": [ 140.333947399999943, 38.2320216 ] } },
{ "type": "Feature", "properties": { "内容": "オークランドホーム荒楯町さくら苑【認知症対応型通所介護】山形県山形市荒楯町二丁目18-7", "url": "https://www.kaigokensaku.mhlw.go.jp/06/index.php?action_kouhyou_detail_004_kani=true&JigyosyoCd=0670101179-00&ServiceCd=720&Type=search", "url2": "http://oakland-kaigo.com" }, "geometry": { "type": "Point", "coordinates": [ 140.336647200000016, 38.2309905 ] } },
{ "type": "Feature", "properties": { "内容": "指定通所介護事業所「デイサービスセンターであい」【認知症対応型通所介護】山形県鶴岡市熊出字東村１５７－２", "url": "https://www.kaigokensaku.mhlw.go.jp/06/index.php?action_kouhyou_detail_004_kani=true&JigyosyoCd=0673000253-00&ServiceCd=720&Type=search", "url2": "httｂ：//care-net.biz/06/bunanoki/" }, "geometry": { "type": "Point", "coordinates": [ 139.85006020000003, 38.6339028 ] } },
{ "type": "Feature", "properties": { "内容": "デイサービス「いろ花」【認知症対応型通所介護】鶴岡市下山添字中通40番-1", "url": "https://www.kaigokensaku.mhlw.go.jp/06/index.php?action_kouhyou_detail_004_kani=true&JigyosyoCd=0690700158-00&ServiceCd=720&Type=search", "url2": "http://www.lifenet-syonai.co.jp" }, "geometry": { "type": "Point", "coordinates": [ 139.839602900000045, 38.6928233 ] } },
{ "type": "Feature", "properties": { "内容": "グループホームひだまりの家【認知症対応型通所介護】山形県鶴岡市茅原町27-1", "url": "https://www.kaigokensaku.mhlw.go.jp/06/index.php?action_kouhyou_detail_004_kani=true&JigyosyoCd=0670700426-00&ServiceCd=720&Type=search", "url2": "http://www.mituwakai.com" }, "geometry": { "type": "Point", "coordinates": [ 139.842156299999942, 38.7537248 ] } },
{ "type": "Feature", "properties": { "内容": "グループホーム　なでしこ【認知症対応型通所介護】鶴岡市齋藤川原字間々下35", "url": "https://www.kaigokensaku.mhlw.go.jp/06/index.php?action_kouhyou_detail_004_kani=true&JigyosyoCd=0670700574-00&ServiceCd=720&Type=search", "url2": "http://kisuke7778.co.jp/" }, "geometry": { "type": "Point", "coordinates": [ 139.845831963792818, 38.707718982579955 ] } },
{ "type": "Feature", "properties": { "内容": "グループホームなずな【認知症対応型通所介護】鶴岡市神明町15-15", "url": "https://www.kaigokensaku.mhlw.go.jp/06/index.php?action_kouhyou_detail_004_kani=true&JigyosyoCd=0670700525-00&ServiceCd=720&Type=search", "url2": "http://kisuke7778.co.jp/" }, "geometry": { "type": "Point", "coordinates": [ 139.835988104957437, 38.720491996730466 ] } },
{ "type": "Feature", "properties": { "内容": "グループホームなな草【認知症対応型通所介護】山形県鶴岡市外内島字石名田82-23", "url": "https://www.kaigokensaku.mhlw.go.jp/06/index.php?action_kouhyou_detail_004_kani=true&JigyosyoCd=0690700133-00&ServiceCd=720&Type=search", "url2": "http://kisuke7778.co.jp/" }, "geometry": { "type": "Point", "coordinates": [ 139.832254657055046, 38.70598455274321 ] } },
{ "type": "Feature", "properties": { "内容": "デイサービスセンターなえづ【認知症対応型通所介護】山形県鶴岡市ほなみ町3番1号", "url": "https://www.kaigokensaku.mhlw.go.jp/06/index.php?action_kouhyou_detail_004_kani=true&JigyosyoCd=0670700186-00&ServiceCd=720&Type=search", "url2": "http://www.shk01.jp/" }, "geometry": { "type": "Point", "coordinates": [ 139.8440266, 38.718365 ] } },
{ "type": "Feature", "properties": { "内容": "デイサービスセンターふれあい【認知症対応型通所介護】山形県鶴岡市西新斎町１４番２６号", "url": "https://www.kaigokensaku.mhlw.go.jp/06/index.php?action_kouhyou_detail_004_kani=true&JigyosyoCd=0670700517-00&ServiceCd=720&Type=search", "url2": "http://www.shk01.jp/" }, "geometry": { "type": "Point", "coordinates": [ 139.814420400000017, 38.7378404 ] } },
{ "type": "Feature", "properties": { "内容": "デイサービスセンターたかだて【認知症対応型通所介護】山形県鶴岡市友江町23番14号", "url": "https://www.kaigokensaku.mhlw.go.jp/06/index.php?action_kouhyou_detail_004_kani=true&JigyosyoCd=0670700178-00&ServiceCd=720&Type=search", "url2": "http://www/.biz.biglobe.ne.jp/~t-shakyo." }, "geometry": { "type": "Point", "coordinates": [ 139.769782299999946, 38.7499209 ] } },
{ "type": "Feature", "properties": { "内容": "認知症高齢者グループホームなごみ【認知症対応型通所介護】山形県鶴岡市羽黒町赤川字熊坂47番３", "url": "https://www.kaigokensaku.mhlw.go.jp/06/index.php?action_kouhyou_detail_004_kani=true&JigyosyoCd=0673000642-00&ServiceCd=720&Type=search", "url2": "http://www7.plala.or.jp/npo-daichi/" }, "geometry": { "type": "Point", "coordinates": [ 139.862074799999959, 38.7256895 ] } },
{ "type": "Feature", "properties": { "内容": "グループホームなごみ２号館【認知症対応型通所介護】山形県鶴岡市羽黒町三ツ橋字向田46番３", "url": "https://www.kaigokensaku.mhlw.go.jp/06/index.php?action_kouhyou_detail_004_kani=true&JigyosyoCd=0690700224-00&ServiceCd=720&Type=search", "url2": "http://www7.plala.or.jp/npo-daichi/" }, "geometry": { "type": "Point", "coordinates": [ 139.862814549633413, 38.728075278821166 ] } },
{ "type": "Feature", "properties": { "内容": "認知症対応型通所介護施設　楽楽【認知症対応型通所介護】酒田市中町3丁目2－21", "url": "https://www.kaigokensaku.mhlw.go.jp/06/index.php?action_kouhyou_detail_004_kani=true&JigyosyoCd=0690800016-00&ServiceCd=720&Type=search", "url2": "http://www.kenyukai-sakata.jp" }, "geometry": { "type": "Point", "coordinates": [ 139.833764252114861, 38.91890585660871 ] } },
{ "type": "Feature", "properties": { "内容": "デイサービスセンターサン・シティII【認知症対応型通所介護】山形県酒田市曙町二丁目２８番地の５", "url": "https://www.kaigokensaku.mhlw.go.jp/06/index.php?action_kouhyou_detail_004_kani=true&JigyosyoCd=0690800214-00&ServiceCd=720&Type=search", "url2": "www.fuku-yuwakai.jp" }, "geometry": { "type": "Point", "coordinates": [ 139.863063199999942, 38.9189807 ] } },
{ "type": "Feature", "properties": { "内容": "こもれびの郷指定認知症対応型通所介護事業所【認知症対応型通所介護】酒田市黒森字境山６１６番１", "url": "https://www.kaigokensaku.mhlw.go.jp/06/index.php?action_kouhyou_detail_004_kani=true&JigyosyoCd=0670800986-00&ServiceCd=720&Type=search", "url2": "http://syokaku-lc.com/" }, "geometry": { "type": "Point", "coordinates": [ 139.817210546203569, 38.851273319107158 ] } },
{ "type": "Feature", "properties": { "内容": "認知症対応型通所介護　みゆきの園【認知症対応型通所介護】山形県上山市弁天二丁目2番11号", "url": "https://www.kaigokensaku.mhlw.go.jp/06/index.php?action_kouhyou_detail_004_kani=true&JigyosyoCd=0691300016-00&ServiceCd=720&Type=search", "url2": "https://www.miyuki.or.jp" }, "geometry": { "type": "Point", "coordinates": [ 140.292603900000017, 38.1699242 ] } },
{ "type": "Feature", "properties": { "内容": "ケアステージおれんじ新丁【認知症対応型通所介護】山形県上山市新丁1-9", "url": "https://www.kaigokensaku.mhlw.go.jp/06/index.php?action_kouhyou_detail_004_kani=true&JigyosyoCd=0691300081-00&ServiceCd=720&Type=search", "url2": "http://www.tokoshie.net/" }, "geometry": { "type": "Point", "coordinates": [ 140.280263900000023, 38.1587696 ] } },
{ "type": "Feature", "properties": { "内容": "デイサービスセンターまる指定通所介護事業所【認知症対応型通所介護】山形県上山市牧野字清水21-1", "url": "https://www.kaigokensaku.mhlw.go.jp/06/index.php?action_kouhyou_detail_004_kani=true&JigyosyoCd=0671300184-00&ServiceCd=720&Type=search", "url2": "https://miyuki-fukushi.jp" }, "geometry": { "type": "Point", "coordinates": [ 140.300603700000011, 38.1153335 ] } },
{ "type": "Feature", "properties": { "内容": "指定認知症対応型通所介護事業所ふもと【認知症対応型通所介護】山形県村山市大字湯野沢956番地の3", "url": "https://www.kaigokensaku.mhlw.go.jp/06/index.php?action_kouhyou_detail_004_kani=true&JigyosyoCd=0671400059-00&ServiceCd=720&Type=search", "url2": "http://murayama-hikari-kouseikai.jp/" }, "geometry": { "type": "Point", "coordinates": [ 140.307155200000011, 38.4621504 ] } },
{ "type": "Feature", "properties": { "内容": "ケアステージおれんじあやめ通り【認知症対応型通所介護】山形県長井市緑町12-50-1", "url": "https://www.kaigokensaku.mhlw.go.jp/06/index.php?action_kouhyou_detail_004_kani=true&JigyosyoCd=0691500086-00&ServiceCd=720&Type=search", "url2": "http://www.tokoshie.net" }, "geometry": { "type": "Point", "coordinates": [ 140.04050929999994, 38.1172954 ] } },
{ "type": "Feature", "properties": { "内容": "リバーヒルデイサービスセンター輝ら凛【認知症対応型通所介護】山形県長井市館町南9番74号", "url": "https://www.kaigokensaku.mhlw.go.jp/06/index.php?action_kouhyou_detail_004_kani=true&JigyosyoCd=0691500078-00&ServiceCd=720&Type=search", "url2": "http://www.riverhill.jp" }, "geometry": { "type": "Point", "coordinates": [ 140.041876534577568, 38.093458678395507 ] } },
{ "type": "Feature", "properties": { "内容": "社会福祉法人みらい　認知症対応型デイサービス　きらめきの里【認知症対応型通所介護】山形県天童市大字山口4540-1", "url": "https://www.kaigokensaku.mhlw.go.jp/06/index.php?action_kouhyou_detail_004_kani=true&JigyosyoCd=0691600100-00&ServiceCd=720&Type=search", "url2": "http://www.mirai-welfare.jp/" }, "geometry": { "type": "Point", "coordinates": [ 140.408921299999946, 38.386404400000025 ] } },
{ "type": "Feature", "properties": { "内容": "明幸園デイサービスセンター【認知症対応型通所介護】山形県天童市大字矢野目150番地", "url": "https://www.kaigokensaku.mhlw.go.jp/06/index.php?action_kouhyou_detail_004_kani=true&JigyosyoCd=0671600187-00&ServiceCd=720&Type=search", "url2": "http://www.meikouen.or.jp" }, "geometry": { "type": "Point", "coordinates": [ 140.350452, 38.3531371 ] } },
{ "type": "Feature", "properties": { "内容": "デイサービスセンター第二白水荘【認知症対応型通所介護】東根市大字蟹沢897-1", "url": "https://www.kaigokensaku.mhlw.go.jp/06/index.php?action_kouhyou_detail_004_kani=true&JigyosyoCd=0671700169-00&ServiceCd=720&Type=search", "url2": "http://www.higashine-fukushikai.org" }, "geometry": { "type": "Point", "coordinates": [ 140.3693611, 38.4442363 ] } },
{ "type": "Feature", "properties": { "内容": "デイサービスセンター白水荘【認知症対応型通所介護】山形県東根市大字野川2074番地の99", "url": "https://www.kaigokensaku.mhlw.go.jp/06/index.php?action_kouhyou_detail_004_kani=true&JigyosyoCd=0691700108-00&ServiceCd=720&Type=search", "url2": "http://www.higashine-fukushikai.org" }, "geometry": { "type": "Point", "coordinates": [ 140.431599300000016, 38.4087471 ] } },
{ "type": "Feature", "properties": { "内容": "認知症対応型デイサービスつばさノ杜【認知症対応型通所介護】山形県南陽市若狭郷屋811-1", "url": "https://www.kaigokensaku.mhlw.go.jp/06/index.php?action_kouhyou_detail_004_kani=true&JigyosyoCd=0691900112-00&ServiceCd=720&Type=search", "url2": "https://www.izumi-no-mori.jp/" }, "geometry": { "type": "Point", "coordinates": [ 140.14613940000001, 38.0522869 ] } },
{ "type": "Feature", "properties": { "内容": "ケアステージおれんじ二色根【認知症対応型通所介護】山形県南陽市二色根７４番地１１", "url": "https://www.kaigokensaku.mhlw.go.jp/06/index.php?action_kouhyou_detail_004_kani=true&JigyosyoCd=0691900088-00&ServiceCd=720&Type=search", "url2": "http://www.tokoshie.net" }, "geometry": { "type": "Point", "coordinates": [ 140.160266, 38.0508917 ] } },
{ "type": "Feature", "properties": { "内容": "認知症対応型通所介護事業所ひいな【認知症対応型通所介護】山形県西村山郡河北町谷地字月山堂1217-5", "url": "https://www.kaigokensaku.mhlw.go.jp/06/index.php?action_kouhyou_detail_004_kani=true&JigyosyoCd=0692300015-00&ServiceCd=720&Type=search", "url2": "https://miyuki-fukushi.jp/" }, "geometry": { "type": "Point", "coordinates": [ 140.308585, 38.4126332 ] } },
{ "type": "Feature", "properties": { "内容": "指定通所介護事業所「ちょうよう」【認知症対応型通所介護】山形県西村山郡河北町谷地字東704番地1", "url": "https://www.kaigokensaku.mhlw.go.jp/06/index.php?action_kouhyou_detail_004_kani=true&JigyosyoCd=0672300209-00&ServiceCd=720&Type=search", "url2": "http://www.tyoyoen.jp" }, "geometry": { "type": "Point", "coordinates": [ 140.323196222090104, 38.425419356165264 ] } },
{ "type": "Feature", "properties": { "内容": "グループホーム紅芭【認知症対応型通所介護】山形県最上郡戸沢村大字津谷字鞭打野2096-1", "url": "https://www.kaigokensaku.mhlw.go.jp/06/index.php?action_kouhyou_detail_004_kani=true&JigyosyoCd=0692500077-00&ServiceCd=720&Type=search", "url2": "https://clelia.co.jp" }, "geometry": { "type": "Point", "coordinates": [ 140.192129599999987, 38.7363933 ] } },
{ "type": "Feature", "properties": { "内容": "デイサービスセンターかがやき【認知症対応型通所介護】山形県東置賜郡川西町大字下奥田字穴澤平３７９６番地２０号", "url": "https://www.kaigokensaku.mhlw.go.jp/06/index.php?action_kouhyou_detail_004_kani=true&JigyosyoCd=0692600059-00&ServiceCd=720&Type=search", "url2": "http://www.ryokuaikai.com" }, "geometry": { "type": "Point", "coordinates": [ 140.042326499999945, 37.9896588 ] } },
{ "type": "Feature", "properties": { "内容": "グループホーム　ひまわりの丘【認知症対応型通所介護】山形県東田川郡庄内町松陽１－１－６", "url": "https://www.kaigokensaku.mhlw.go.jp/06/index.php?action_kouhyou_detail_004_kani=true&JigyosyoCd=0673000477-00&ServiceCd=720&Type=search", "url2": null }, "geometry": { "type": "Point", "coordinates": [ 139.894881599999962, 38.8516948 ] } },
{ "type": "Feature", "properties": { "内容": "グループホームやまゆりデイサービス【認知症対応型通所介護】山形県東田川郡庄内町狩川字小縄３-３", "url": "https://www.kaigokensaku.mhlw.go.jp/06/index.php?action_kouhyou_detail_004_kani=true&JigyosyoCd=0673000659-00&ServiceCd=720&Type=search", "url2": "http：//g-yamayuri.com/" }, "geometry": { "type": "Point", "coordinates": [ 139.96761390000006, 38.7946197 ] } }
]
}
