{
"type": "FeatureCollection",
"name": "geo_06_大学",
"crs": { "type": "name", "properties": { "name": "urn:ogc:def:crs:EPSG::6668" } },
"features": [
{ "type": "Feature", "properties": { "P29_001": "06201", "P29_002": "F106110101176", "P29_003": "16007", "P29_004": "山形大学", "P29_005": "山形県山形市小白川町1-4-12", "P29_006": "1", "P29_007": "0", "P29_008": "01", "P29_009": "小白川キャンパス" }, "geometry": { "type": "Point", "coordinates": [ 140.349235571432416, 38.246935623681097 ] } },
{ "type": "Feature", "properties": { "P29_001": "06201", "P29_002": "F106210101183", "P29_003": "16007", "P29_004": "山形県立保健医療大学", "P29_005": "山形県山形市上柳260", "P29_006": "2", "P29_007": "0", "P29_008": "00", "P29_009": null }, "geometry": { "type": "Point", "coordinates": [ 140.346138105838378, 38.296975733581178 ] } },
{ "type": "Feature", "properties": { "P29_001": "06202", "P29_002": "F106210101192", "P29_003": "16007", "P29_004": "山形県立米沢栄養大学", "P29_005": "山形県米沢市通町6-15-1", "P29_006": "2", "P29_007": "0", "P29_008": "00", "P29_009": null }, "geometry": { "type": "Point", "coordinates": [ 140.122685404629379, 37.890155856964768 ] } },
{ "type": "Feature", "properties": { "P29_001": "06201", "P29_002": "F106310101207", "P29_003": "16007", "P29_004": "東北芸術工科大学", "P29_005": "山形県山形市上桜田3-4-5", "P29_006": "4", "P29_007": "0", "P29_008": "00", "P29_009": null }, "geometry": { "type": "Point", "coordinates": [ 140.345500905422284, 38.218515883119927 ] } },
{ "type": "Feature", "properties": { "P29_001": "06204", "P29_002": "F106310101216", "P29_003": "16007", "P29_004": "東北公益文科大学", "P29_005": "山形県酒田市飯森山3-5-1", "P29_006": "4", "P29_007": "0", "P29_008": "00", "P29_009": null }, "geometry": { "type": "Point", "coordinates": [ 139.819515232590788, 38.893291728485238 ] } },
{ "type": "Feature", "properties": { "P29_001": "06201", "P29_002": "F106310101225", "P29_003": "16007", "P29_004": "東北文教大学", "P29_005": "山形県山形市片谷地515", "P29_006": "4", "P29_007": "0", "P29_008": "00", "P29_009": null }, "geometry": { "type": "Point", "coordinates": [ 140.30232806967561, 38.209429876954964 ] } },
{ "type": "Feature", "properties": { "P29_001": "06403", "P29_002": "F106310101234", "P29_003": "16007", "P29_004": "電動モビリティシステム専門職大学", "P29_005": "山形県西置賜郡飯豊町萩生1725-2", "P29_006": "4", "P29_007": "0", "P29_008": "00", "P29_009": null }, "geometry": { "type": "Point", "coordinates": [ 139.988212818523266, 38.067514149435283 ] } },
{ "type": "Feature", "properties": { "P29_001": "06201", "P29_002": "F106110101176", "P29_003": "16007", "P29_004": "山形大学", "P29_005": "山形県山形市飯田西2-2-2", "P29_006": "1", "P29_007": "0", "P29_008": "02", "P29_009": "飯田キャンパス" }, "geometry": { "type": "Point", "coordinates": [ 140.31786750238291, 38.215262008781693 ] } },
{ "type": "Feature", "properties": { "P29_001": "06202", "P29_002": "F106110101176", "P29_003": "16007", "P29_004": "山形大学", "P29_005": "山形県米沢市城南4-3-16", "P29_006": "1", "P29_007": "0", "P29_008": "03", "P29_009": "米沢キャンパス" }, "geometry": { "type": "Point", "coordinates": [ 140.104247084878295, 37.899854772812461 ] } },
{ "type": "Feature", "properties": { "P29_001": "06203", "P29_002": "F106110101176", "P29_003": "16007", "P29_004": "山形大学", "P29_005": "山形県鶴岡市若葉町1-23", "P29_006": "1", "P29_007": "0", "P29_008": "04", "P29_009": "鶴岡キャンパス" }, "geometry": { "type": "Point", "coordinates": [ 139.827762897105941, 38.735020746741071 ] } }
]
}
