{
"type": "FeatureCollection",
"name": "geo_06_短期入所療養介護（介護老人保健施設）",
"crs": { "type": "name", "properties": { "name": "urn:ogc:def:crs:OGC:1.3:CRS84" } },
"features": [
{ "type": "Feature", "properties": { "内容": "介護老人保健施設さくらパレス【短期入所療養介護（介護老人保健施設）】山形市桜田西４丁目3-26", "url2": "https://www.kaigokensaku.mhlw.go.jp/06/index.php?action_kouhyou_detail_004_kani=true&JigyosyoCd=0650180011-00&ServiceCd=220&Type=search" }, "geometry": { "type": "Point", "coordinates": [ 140.318615899999941, 38.2181835 ] } },
{ "type": "Feature", "properties": { "内容": "介護老人保健施設サニーヒル菅沢【短期入所療養介護（介護老人保健施設）】山形市すげさわの丘727番地20", "url2": "https://www.kaigokensaku.mhlw.go.jp/06/index.php?action_kouhyou_detail_004_kani=true&JigyosyoCd=0650180003-00&ServiceCd=220&Type=search" }, "geometry": { "type": "Point", "coordinates": [ 140.267887299999984, 38.223354 ] } },
{ "type": "Feature", "properties": { "内容": "介護老人保健施設サニーヒル山寺【短期入所療養介護（介護老人保健施設）】山形県山形市大字山寺1973-335", "url2": "https://www.kaigokensaku.mhlw.go.jp/06/index.php?action_kouhyou_detail_004_kani=true&JigyosyoCd=0650180037-00&ServiceCd=220&Type=search" }, "geometry": { "type": "Point", "coordinates": [ 140.412541199999964, 38.3119766 ] } },
{ "type": "Feature", "properties": { "内容": "介護老人保健施設フローラさいせい【短期入所療養介護（介護老人保健施設）】山形県山形市沖町７９番地の１山形済生病院　南館４階、５階", "url2": "https://www.kaigokensaku.mhlw.go.jp/06/index.php?action_kouhyou_detail_004_kani=true&JigyosyoCd=0650180029-00&ServiceCd=220&Type=search" }, "geometry": { "type": "Point", "coordinates": [ 140.334870758283245, 38.284945529772877 ] } },
{ "type": "Feature", "properties": { "内容": "介護老人保健施設「サンファミリア米沢」【短期入所療養介護（介護老人保健施設）】山形県米沢市塩井町塩野520", "url2": "https://www.kaigokensaku.mhlw.go.jp/06/index.php?action_kouhyou_detail_004_kani=true&JigyosyoCd=0650480023-00&ServiceCd=220&Type=search" }, "geometry": { "type": "Point", "coordinates": [ 140.110578128836096, 37.927860928087235 ] } },
{ "type": "Feature", "properties": { "内容": "介護老人保健施設サンプラザ米沢【短期入所療養介護（介護老人保健施設）】山形県米沢市大字簗沢３０４６", "url2": "https://www.kaigokensaku.mhlw.go.jp/06/index.php?action_kouhyou_detail_004_kani=true&JigyosyoCd=0650480007-00&ServiceCd=220&Type=search" }, "geometry": { "type": "Point", "coordinates": [ 140.051581199999987, 37.8877224 ] } },
{ "type": "Feature", "properties": { "内容": "介護老人保健施設　あづま【短期入所療養介護（介護老人保健施設）】米沢市大字李山８１３２－１１", "url2": "https://www.kaigokensaku.mhlw.go.jp/06/index.php?action_kouhyou_detail_004_kani=true&JigyosyoCd=0650480015-00&ServiceCd=220&Type=search" }, "geometry": { "type": "Point", "coordinates": [ 140.098095, 37.8611905 ] } },
{ "type": "Feature", "properties": { "内容": "介護療養型老人保健施設せせらぎ【短期入所療養介護（介護老人保健施設）】山形県鶴岡市文園町9-34", "url2": "https://www.kaigokensaku.mhlw.go.jp/06/index.php?action_kouhyou_detail_004_kani=true&JigyosyoCd=0650780059-00&ServiceCd=220&Type=search" }, "geometry": { "type": "Point", "coordinates": [ 139.8282865, 38.7144706 ] } },
{ "type": "Feature", "properties": { "内容": "介護老人保健施設ケアホームみやはら【短期入所療養介護（介護老人保健施設）】鶴岡市三和町１番53号", "url2": "https://www.kaigokensaku.mhlw.go.jp/06/index.php?action_kouhyou_detail_004_kani=true&JigyosyoCd=0650780034-00&ServiceCd=220&Type=search" }, "geometry": { "type": "Point", "coordinates": [ 139.829580599999986, 38.7213755 ] } },
{ "type": "Feature", "properties": { "内容": "老人保健施設のぞみの園【短期入所療養介護（介護老人保健施設）】山形県鶴岡市茅原町26番23号", "url2": "https://www.kaigokensaku.mhlw.go.jp/06/index.php?action_kouhyou_detail_004_kani=true&JigyosyoCd=0650780000-00&ServiceCd=220&Type=search" }, "geometry": { "type": "Point", "coordinates": [ 139.841217499999971, 38.753822 ] } },
{ "type": "Feature", "properties": { "内容": "サテライト老健ちわら【短期入所療養介護（介護老人保健施設）】山形県鶴岡市北茅原5番10号", "url2": "https://www.kaigokensaku.mhlw.go.jp/06/index.php?action_kouhyou_detail_004_kani=true&JigyosyoCd=0650780067-00&ServiceCd=220&Type=search" }, "geometry": { "type": "Point", "coordinates": [ 139.841005133729567, 38.754797871302287 ] } },
{ "type": "Feature", "properties": { "内容": "サテライト老健のぞみ【短期入所療養介護（介護老人保健施設）】山形県鶴岡市日枝字小真木原116-8サテライト老健のぞみ", "url2": "https://www.kaigokensaku.mhlw.go.jp/06/index.php?action_kouhyou_detail_004_kani=true&JigyosyoCd=0650780042-00&ServiceCd=220&Type=search" }, "geometry": { "type": "Point", "coordinates": [ 139.812540196552959, 38.711608557761743 ] } },
{ "type": "Feature", "properties": { "内容": "介護老人保健施設かけはし【短期入所療養介護（介護老人保健施設）】鶴岡市民田字代家田１００－１", "url2": "https://www.kaigokensaku.mhlw.go.jp/06/index.php?action_kouhyou_detail_004_kani=true&JigyosyoCd=0650780018-00&ServiceCd=220&Type=search" }, "geometry": { "type": "Point", "coordinates": [ 139.8265814, 38.7047771 ] } },
{ "type": "Feature", "properties": { "内容": "介護老人保健施設　みずばしょう【短期入所療養介護（介護老人保健施設）】鶴岡市羽黒町後田字谷地田191-4", "url2": "https://www.kaigokensaku.mhlw.go.jp/06/index.php?action_kouhyou_detail_004_kani=true&JigyosyoCd=0653080044-00&ServiceCd=220&Type=search" }, "geometry": { "type": "Point", "coordinates": [ 139.880340599999954, 38.7147469 ] } },
{ "type": "Feature", "properties": { "内容": "介護老人保健施設シェ・モワ【短期入所療養介護（介護老人保健施設）】酒田市緑町13-37", "url2": "https://www.kaigokensaku.mhlw.go.jp/06/index.php?action_kouhyou_detail_004_kani=true&JigyosyoCd=0650880008-00&ServiceCd=220&Type=search" }, "geometry": { "type": "Point", "coordinates": [ 139.852522799999946, 38.9106422 ] } },
{ "type": "Feature", "properties": { "内容": "介護老人保健施設　ひだまり【短期入所療養介護（介護老人保健施設）】酒田市中町３丁目５－２３", "url2": "https://www.kaigokensaku.mhlw.go.jp/06/index.php?action_kouhyou_detail_004_kani=true&JigyosyoCd=0650880032-00&ServiceCd=220&Type=search" }, "geometry": { "type": "Point", "coordinates": [ 139.834332, 38.9168828 ] } },
{ "type": "Feature", "properties": { "内容": "医療法人　徳洲会　介護老人保健施設　徳田山【短期入所療養介護（介護老人保健施設）】山形県酒田市相沢字道脇7番地", "url2": "https://www.kaigokensaku.mhlw.go.jp/06/index.php?action_kouhyou_detail_004_kani=true&JigyosyoCd=0653280008-00&ServiceCd=220&Type=search" }, "geometry": { "type": "Point", "coordinates": [ 139.939465199999972, 38.8763348 ] } },
{ "type": "Feature", "properties": { "内容": "老人保健施設　明日葉【短期入所療養介護（介護老人保健施設）】山形県酒田市曙町２－１８－６", "url2": "https://www.kaigokensaku.mhlw.go.jp/06/index.php?action_kouhyou_detail_004_kani=true&JigyosyoCd=0650880016-00&ServiceCd=220&Type=search" }, "geometry": { "type": "Point", "coordinates": [ 139.864415799999961, 38.9199279 ] } },
{ "type": "Feature", "properties": { "内容": "介護老人保健施設　新庄薬師園【短期入所療養介護（介護老人保健施設）】山形県新庄市金沢字西ノ山3027-4", "url2": "https://www.kaigokensaku.mhlw.go.jp/06/index.php?action_kouhyou_detail_004_kani=true&JigyosyoCd=0651180010-00&ServiceCd=220&Type=search" }, "geometry": { "type": "Point", "coordinates": [ 140.337402699999984, 38.7729627 ] } },
{ "type": "Feature", "properties": { "内容": "医療法人社団清明会　介護老人保健施設　エーデルワイス【短期入所療養介護（介護老人保健施設）】山形県新庄市大字本合海字福田界1802番地3", "url2": "https://www.kaigokensaku.mhlw.go.jp/06/index.php?action_kouhyou_detail_004_kani=true&JigyosyoCd=0651180002-00&ServiceCd=220&Type=search" }, "geometry": { "type": "Point", "coordinates": [ 140.229392599999983, 38.7285178 ] } },
{ "type": "Feature", "properties": { "内容": "介護老人保健施設寒河江やすらぎの里【短期入所療養介護（介護老人保健施設）】山形県寒河江市本楯二丁目24番地1", "url2": "https://www.kaigokensaku.mhlw.go.jp/06/index.php?action_kouhyou_detail_004_kani=true&JigyosyoCd=0651280000-00&ServiceCd=220&Type=search" }, "geometry": { "type": "Point", "coordinates": [ 140.292274, 38.3637076 ] } },
{ "type": "Feature", "properties": { "内容": "介護老人保健施設みゆきの丘【短期入所療養介護（介護老人保健施設）】山形県上山市弁天二丁目2番11号", "url2": "https://www.kaigokensaku.mhlw.go.jp/06/index.php?action_kouhyou_detail_004_kani=true&JigyosyoCd=0651380008-00&ServiceCd=220&Type=search" }, "geometry": { "type": "Point", "coordinates": [ 140.292603900000017, 38.1699242 ] } },
{ "type": "Feature", "properties": { "内容": "介護老人保健施設　かなやの里【短期入所療養介護（介護老人保健施設）】山形県上山市金谷字下河原　1370二本松会　かみのやま病院　かなやの里", "url2": "https://www.kaigokensaku.mhlw.go.jp/06/index.php?action_kouhyou_detail_004_kani=true&JigyosyoCd=0671300580-00&ServiceCd=220&Type=search" }, "geometry": { "type": "Point", "coordinates": [ 140.301118857672122, 38.172308446767822 ] } },
{ "type": "Feature", "properties": { "内容": "介護老人保健施設ローズむらやま【短期入所療養介護（介護老人保健施設）】山形県村山市大字本飯田字柳堤2486-65", "url2": "https://www.kaigokensaku.mhlw.go.jp/06/index.php?action_kouhyou_detail_004_kani=true&JigyosyoCd=0651480014-00&ServiceCd=220&Type=search" }, "geometry": { "type": "Point", "coordinates": [ 140.4029826, 38.5260132 ] } },
{ "type": "Feature", "properties": { "内容": "介護老人保健施設リバーヒル長井【短期入所療養介護（介護老人保健施設）】山形県長井市寺泉３５２５－１", "url2": "https://www.kaigokensaku.mhlw.go.jp/06/index.php?action_kouhyou_detail_004_kani=true&JigyosyoCd=0651580003-00&ServiceCd=220&Type=search" }, "geometry": { "type": "Point", "coordinates": [ 140.000894099999982, 38.1057177 ] } },
{ "type": "Feature", "properties": { "内容": "介護老人保健施設あこがれ【短期入所療養介護（介護老人保健施設）】山形県天童市大字荒谷　1973-884", "url2": "https://www.kaigokensaku.mhlw.go.jp/06/index.php?action_kouhyou_detail_004_kani=true&JigyosyoCd=0651680019-00&ServiceCd=220&Type=search" }, "geometry": { "type": "Point", "coordinates": [ 140.387688600000047, 38.3270324 ] } },
{ "type": "Feature", "properties": { "内容": "介護老人保健施設ラ・フォーレ天童【短期入所療養介護（介護老人保健施設）】山形県天童市大字道満１９３－１", "url2": "https://www.kaigokensaku.mhlw.go.jp/06/index.php?action_kouhyou_detail_004_kani=true&JigyosyoCd=0651680001-00&ServiceCd=220&Type=search" }, "geometry": { "type": "Point", "coordinates": [ 140.3885924, 38.3916062 ] } },
{ "type": "Feature", "properties": { "内容": "介護老人保健施設ナーシングホームさくらんぼ【短期入所療養介護（介護老人保健施設）】東根市大字野田1921", "url2": "https://www.kaigokensaku.mhlw.go.jp/06/index.php?action_kouhyou_detail_004_kani=true&JigyosyoCd=0651780009-00&ServiceCd=220&Type=search" }, "geometry": { "type": "Point", "coordinates": [ 140.357942, 38.4334734 ] } },
{ "type": "Feature", "properties": { "内容": "介護老人保健施設ハイマート福原【短期入所療養介護（介護老人保健施設）】山形県尾花沢市大字野黒沢５５４番地２９", "url2": "https://www.kaigokensaku.mhlw.go.jp/06/index.php?action_kouhyou_detail_004_kani=true&JigyosyoCd=0651880007-00&ServiceCd=220&Type=search" }, "geometry": { "type": "Point", "coordinates": [ 140.383541199999968, 38.6287092 ] } },
{ "type": "Feature", "properties": { "内容": "介護老人保健施設ドミール南陽【短期入所療養介護（介護老人保健施設）】山形県南陽市椚塚940", "url2": "https://www.kaigokensaku.mhlw.go.jp/06/index.php?action_kouhyou_detail_004_kani=true&JigyosyoCd=0651980005-00&ServiceCd=220&Type=search" }, "geometry": { "type": "Point", "coordinates": [ 140.173082099999988, 38.0434232 ] } },
{ "type": "Feature", "properties": { "内容": "介護老人保健施設ほなみ荘【短期入所療養介護（介護老人保健施設）】山形県南陽市宮内３７５０－１", "url2": "https://www.kaigokensaku.mhlw.go.jp/06/index.php?action_kouhyou_detail_004_kani=true&JigyosyoCd=0651980013-00&ServiceCd=220&Type=search" }, "geometry": { "type": "Point", "coordinates": [ 140.13526939999997, 38.0771997 ] } },
{ "type": "Feature", "properties": { "内容": "介護老人保健施設メルヘン【短期入所療養介護（介護老人保健施設）】山形県東村山郡山辺町大字大寺1152番1", "url2": "https://www.kaigokensaku.mhlw.go.jp/06/index.php?action_kouhyou_detail_004_kani=true&JigyosyoCd=0652280009-00&ServiceCd=220&Type=search" }, "geometry": { "type": "Point", "coordinates": [ 140.2650774, 38.3069517 ] } },
{ "type": "Feature", "properties": { "内容": "介護老人保健施設　紅寿の里【短期入所療養介護（介護老人保健施設）】山形県西村山郡河北町大字溝延字本丸８－１", "url2": "https://www.kaigokensaku.mhlw.go.jp/06/index.php?action_kouhyou_detail_004_kani=true&JigyosyoCd=0652380023-00&ServiceCd=220&Type=search" }, "geometry": { "type": "Point", "coordinates": [ 140.311771300000032, 38.3958821 ] } },
{ "type": "Feature", "properties": { "内容": "介護老人保健施設　景雲荘【短期入所療養介護（介護老人保健施設）】山形県西村山郡大江町大字左沢1187", "url2": "https://www.kaigokensaku.mhlw.go.jp/06/index.php?action_kouhyou_detail_004_kani=true&JigyosyoCd=0652380007-00&ServiceCd=220&Type=search" }, "geometry": { "type": "Point", "coordinates": [ 140.204779199999962, 38.3845362 ] } },
{ "type": "Feature", "properties": { "内容": "最上町介護老人保健施設やすらぎ【短期入所療養介護（介護老人保健施設）】山形県最上郡最上町大字向町64-3", "url2": "https://www.kaigokensaku.mhlw.go.jp/06/index.php?action_kouhyou_detail_004_kani=true&JigyosyoCd=0652580002-00&ServiceCd=220&Type=search" }, "geometry": { "type": "Point", "coordinates": [ 140.516093899999987, 38.7532277 ] } },
{ "type": "Feature", "properties": { "内容": "医療法人徳洲会　介護老人保健施設　舟形徳洲苑【短期入所療養介護（介護老人保健施設）】山形県最上郡舟形町富田字富田135-1", "url2": "https://www.kaigokensaku.mhlw.go.jp/06/index.php?action_kouhyou_detail_004_kani=true&JigyosyoCd=0652580010-00&ServiceCd=220&Type=search" }, "geometry": { "type": "Point", "coordinates": [ 140.274732534362784, 38.669885077645091 ] } },
{ "type": "Feature", "properties": { "内容": "医療法人徳洲会　介護老人保健施設　梅花苑【短期入所療養介護（介護老人保健施設）】山形県最上郡真室川大字木ノ下字片渕山1125-286", "url2": "https://www.kaigokensaku.mhlw.go.jp/06/index.php?action_kouhyou_detail_004_kani=true&JigyosyoCd=0652580036-00&ServiceCd=220&Type=search" }, "geometry": { "type": "Point", "coordinates": [ 140.236215499999958, 38.8526911 ] } },
{ "type": "Feature", "properties": { "内容": "介護老人保健施設かがやきの丘【短期入所療養介護（介護老人保健施設）】山形県東置賜郡川西町大字下奥田字穴澤平３７９６番地２０号", "url2": "https://www.kaigokensaku.mhlw.go.jp/06/index.php?action_kouhyou_detail_004_kani=true&JigyosyoCd=0652680000-00&ServiceCd=220&Type=search" }, "geometry": { "type": "Point", "coordinates": [ 140.042326499999945, 37.9896588 ] } },
{ "type": "Feature", "properties": { "内容": "介護老人保健施設　白鷹あゆみの園【短期入所療養介護（介護老人保健施設）】山形県西置賜郡白鷹町大字十王5087番地1", "url2": "https://www.kaigokensaku.mhlw.go.jp/06/index.php?action_kouhyou_detail_004_kani=true&JigyosyoCd=0652780016-00&ServiceCd=220&Type=search" }, "geometry": { "type": "Point", "coordinates": [ 140.1230157, 38.1926504 ] } },
{ "type": "Feature", "properties": { "内容": "医療法人徳洲会　介護老人保健施設ほのか【短期入所療養介護（介護老人保健施設）】山形県東田川郡三川町大字押切新田字深田1番地", "url2": "https://www.kaigokensaku.mhlw.go.jp/06/index.php?action_kouhyou_detail_004_kani=true&JigyosyoCd=0653080051-00&ServiceCd=220&Type=search" }, "geometry": { "type": "Point", "coordinates": [ 139.855734799999937, 38.8072045 ] } },
{ "type": "Feature", "properties": { "内容": "医療法人徳洲会介護老人保健施設余目徳洲苑【短期入所療養介護（介護老人保健施設）】山形県東田川郡庄内町松陽1丁目1-6", "url2": "https://www.kaigokensaku.mhlw.go.jp/06/index.php?action_kouhyou_detail_004_kani=true&JigyosyoCd=0653080010-00&ServiceCd=220&Type=search" }, "geometry": { "type": "Point", "coordinates": [ 139.894881599999962, 38.8516948 ] } },
{ "type": "Feature", "properties": { "内容": "医療法人　徳洲会　介護老人保健施設　あかね【短期入所療養介護（介護老人保健施設）】山形県東田川郡庄内町添津字家の下97", "url2": "https://www.kaigokensaku.mhlw.go.jp/06/index.php?action_kouhyou_detail_004_kani=true&JigyosyoCd=0653080002-00&ServiceCd=220&Type=search" }, "geometry": { "type": "Point", "coordinates": [ 139.955959500000063, 38.7683723 ] } }
]
}
