{
"type": "FeatureCollection",
"name": "geo_06_定期巡回・随時対応型訪問介護看護",
"crs": { "type": "name", "properties": { "name": "urn:ogc:def:crs:OGC:1.3:CRS84" } },
"features": [
{ "type": "Feature", "properties": { "内容": "ヘルパーステーション　樫の木【定期巡回・随時対応型訪問介護看護】山形市上町４丁目６ー２４", "url": "https://www.kaigokensaku.mhlw.go.jp/06/index.php?action_kouhyou_detail_004_kani=true&JigyosyoCd=0690100417-00&ServiceCd=760&Type=search", "url2": "http://daiwa-med.co.jp/" }, "geometry": { "type": "Point", "coordinates": [ 140.313329599999946, 38.2444227 ] } },
{ "type": "Feature", "properties": { "内容": "２４時間在宅ケアステーション敬寿園【定期巡回・随時対応型訪問介護看護】山形市大字妙見寺500-1", "url": "https://www.kaigokensaku.mhlw.go.jp/06/index.php?action_kouhyou_detail_004_kani=true&JigyosyoCd=0690100953-00&ServiceCd=760&Type=search", "url2": "http://keijuen.or.jp/" }, "geometry": { "type": "Point", "coordinates": [ 140.377844399999987, 38.2369486 ] } },
{ "type": "Feature", "properties": { "内容": "定期巡回・随時対応型訪問介護看護　YONEKIプレミアム365【定期巡回・随時対応型訪問介護看護】山形県山形市あかねヶ丘２丁目１番４号", "url": "https://www.kaigokensaku.mhlw.go.jp/06/index.php?action_kouhyou_detail_004_kani=true&JigyosyoCd=0690100961-00&ServiceCd=760&Type=search", "url2": "http://yonekiya.com/" }, "geometry": { "type": "Point", "coordinates": [ 140.308457, 38.247553 ] } },
{ "type": "Feature", "properties": { "内容": "三友堂定期巡回・随時対応型訪問介護看護ステーション【定期巡回・随時対応型訪問介護看護】山形県米沢市大字塩野2755番地の3サービス付き高齢者向け住宅おたかぽっぽ1階事務所内", "url": "https://www.kaigokensaku.mhlw.go.jp/06/index.php?action_kouhyou_detail_004_kani=true&JigyosyoCd=0690400171-00&ServiceCd=760&Type=search", "url2": "ｈｔｔｐｓ：//rehacare.sanyudo.or.jp" }, "geometry": { "type": "Point", "coordinates": [ 140.091796879484491, 37.923933214776177 ] } },
{ "type": "Feature", "properties": { "内容": "定期巡回ステーションさんゆう【定期巡回・随時対応型訪問介護看護】山形県米沢市西大通2丁目2-30", "url": "https://www.kaigokensaku.mhlw.go.jp/06/index.php?action_kouhyou_detail_004_kani=true&JigyosyoCd=0690400288-00&ServiceCd=760&Type=search", "url2": "http://www.santhy-sanyou.com/" }, "geometry": { "type": "Point", "coordinates": [ 140.0986438, 37.9162678 ] } },
{ "type": "Feature", "properties": { "内容": "ケアセンターなごみ【定期巡回・随時対応型訪問介護看護】山形県米沢市泉町二丁目１番６号", "url": "https://www.kaigokensaku.mhlw.go.jp/06/index.php?action_kouhyou_detail_004_kani=true&JigyosyoCd=0690400197-00&ServiceCd=760&Type=search", "url2": "https://nagomi-calm.com" }, "geometry": { "type": "Point", "coordinates": [ 140.103660245045603, 37.895682073443162 ] } },
{ "type": "Feature", "properties": { "内容": "定期巡回事業所タカラ【定期巡回・随時対応型訪問介護看護】山形県鶴岡市切添町5番8号", "url": "https://www.kaigokensaku.mhlw.go.jp/06/index.php?action_kouhyou_detail_004_kani=true&JigyosyoCd=0690700331-00&ServiceCd=760&Type=search", "url2": null }, "geometry": { "type": "Point", "coordinates": [ 139.844518133296219, 38.734215577597602 ] } },
{ "type": "Feature", "properties": { "内容": "定期巡回随時対応型訪問介護看護澄花【定期巡回・随時対応型訪問介護看護】山形県鶴岡市大山字堤下2番31号", "url": "https://www.kaigokensaku.mhlw.go.jp/06/index.php?action_kouhyou_detail_004_kani=true&JigyosyoCd=0690700406-00&ServiceCd=760&Type=search", "url2": "http://third-stage.net" }, "geometry": { "type": "Point", "coordinates": [ 139.757250758367292, 38.747773180372207 ] } },
{ "type": "Feature", "properties": { "内容": "定期巡回随時対応型訪問介護看護安らぎケアちわら【定期巡回・随時対応型訪問介護看護】山形県鶴岡市北茅原町5-10", "url": "https://www.kaigokensaku.mhlw.go.jp/06/index.php?action_kouhyou_detail_004_kani=true&JigyosyoCd=0690700265-00&ServiceCd=760&Type=search", "url2": null }, "geometry": { "type": "Point", "coordinates": [ 139.842513216532893, 38.755162233447457 ] } },
{ "type": "Feature", "properties": { "内容": "瑞穂の郷　24時間巡回型訪問介護【定期巡回・随時対応型訪問介護看護】山形県鶴岡市羽黒町細谷字北田１２８－１", "url": "https://www.kaigokensaku.mhlw.go.jp/06/index.php?action_kouhyou_detail_004_kani=true&JigyosyoCd=0690700141-00&ServiceCd=760&Type=search", "url2": "http://www.hcp-net.co.jp" }, "geometry": { "type": "Point", "coordinates": [ 139.861452399999962, 38.7373519 ] } },
{ "type": "Feature", "properties": { "内容": "訪問介護事業所眺海【定期巡回・随時対応型訪問介護看護】山形県酒田市山寺字宅地159番地", "url": "https://www.kaigokensaku.mhlw.go.jp/06/index.php?action_kouhyou_detail_004_kani=true&JigyosyoCd=0690800412-00&ServiceCd=760&Type=search", "url2": "http://www.kashink.jp" }, "geometry": { "type": "Point", "coordinates": [ 139.961501, 38.8480376 ] } },
{ "type": "Feature", "properties": { "内容": "コンフォート樫の木【定期巡回・随時対応型訪問介護看護】山形県酒田市こあら２丁目４番地の６", "url": "https://www.kaigokensaku.mhlw.go.jp/06/index.php?action_kouhyou_detail_004_kani=true&JigyosyoCd=0690800321-00&ServiceCd=760&Type=search", "url2": "http://www.kashink.jp" }, "geometry": { "type": "Point", "coordinates": [ 139.862472852253745, 38.914895078963006 ] } },
{ "type": "Feature", "properties": { "内容": "定期巡回・随時対応型訪問介護看護つつじ【定期巡回・随時対応型訪問介護看護】山形県寒河江市寒河江塩水6-1", "url": "https://www.kaigokensaku.mhlw.go.jp/06/index.php?action_kouhyou_detail_004_kani=true&JigyosyoCd=0691200117-00&ServiceCd=760&Type=search", "url2": "http://www.npo-ajisai.jp/" }, "geometry": { "type": "Point", "coordinates": [ 140.260879400000022, 38.379066 ] } },
{ "type": "Feature", "properties": { "内容": "24時間巡回介護えがお【定期巡回・随時対応型訪問介護看護】山形県長井市台町23番23号", "url": "https://www.kaigokensaku.mhlw.go.jp/06/index.php?action_kouhyou_detail_004_kani=true&JigyosyoCd=0691500110-00&ServiceCd=760&Type=search", "url2": "https://takeda-carehome.jp/" }, "geometry": { "type": "Point", "coordinates": [ 140.030152260188316, 38.097772819518525 ] } }
]
}
