{
"type": "FeatureCollection",
"name": "geo_06_幼保連携型認定こども園",
"crs": { "type": "name", "properties": { "name": "urn:ogc:def:crs:EPSG::6668" } },
"features": [
{ "type": "Feature", "properties": { "P29_001": "06208", "P29_002": "A206220810013", "P29_003": "16013", "P29_004": "村山市はやま認定こども園", "P29_005": "山形県村山市大字長善寺1636-1", "P29_006": "3", "P29_007": "0", "P29_008": "00", "P29_009": null }, "geometry": { "type": "Point", "coordinates": [ 140.329403411694102, 38.495350467412251 ] } },
{ "type": "Feature", "properties": { "P29_001": "06362", "P29_002": "A206236210015", "P29_003": "16013", "P29_004": "最上町立あたごこども園", "P29_005": "山形県最上郡最上町大字向町680-2", "P29_006": "3", "P29_007": "0", "P29_008": "00", "P29_009": null }, "geometry": { "type": "Point", "coordinates": [ 140.517733983732342, 38.75891079567932 ] } },
{ "type": "Feature", "properties": { "P29_001": "06403", "P29_002": "A206240310016", "P29_003": "16013", "P29_004": "飯豊わくわくこども園", "P29_005": "山形県西置賜郡飯豊町大字萩生3592", "P29_006": "3", "P29_007": "0", "P29_008": "00", "P29_009": null }, "geometry": { "type": "Point", "coordinates": [ 139.994563268242501, 38.061929059470145 ] } },
{ "type": "Feature", "properties": { "P29_001": "06403", "P29_002": "A206240310025", "P29_003": "16013", "P29_004": "飯豊すくすくこども園", "P29_005": "山形県西置賜郡飯豊町大字椿3628-22", "P29_006": "3", "P29_007": "0", "P29_008": "00", "P29_009": null }, "geometry": { "type": "Point", "coordinates": [ 139.993579104578004, 38.044359631037011 ] } },
{ "type": "Feature", "properties": { "P29_001": "06201", "P29_002": "A206320111017", "P29_003": "16013", "P29_004": "べにばなこども園", "P29_005": "山形県山形市伊達城2-9-7", "P29_006": "4", "P29_007": "0", "P29_008": "00", "P29_009": null }, "geometry": { "type": "Point", "coordinates": [ 140.357420703334043, 38.308560243445129 ] } },
{ "type": "Feature", "properties": { "P29_001": "06201", "P29_002": "A206320111026", "P29_003": "16013", "P29_004": "諏訪幼稚園・諏訪の杜保育園", "P29_005": "山形県山形市諏訪町1-1-13", "P29_006": "4", "P29_007": "0", "P29_008": "00", "P29_009": null }, "geometry": { "type": "Point", "coordinates": [ 140.340126495126697, 38.245050968145932 ] } },
{ "type": "Feature", "properties": { "P29_001": "06201", "P29_002": "A206320111035", "P29_003": "16013", "P29_004": "幼保連携型認定こども園ひまわりこども園", "P29_005": "山形県山形市大字片谷地59", "P29_006": "4", "P29_007": "0", "P29_008": "00", "P29_009": null }, "geometry": { "type": "Point", "coordinates": [ 140.30931231291018, 38.214414767246964 ] } },
{ "type": "Feature", "properties": { "P29_001": "06201", "P29_002": "A206320111044", "P29_003": "16013", "P29_004": "羽陽学園短期大学附属鈴川第二幼稚園・このみ保育園", "P29_005": "山形県山形市花楯2-46-1", "P29_006": "4", "P29_007": "0", "P29_008": "00", "P29_009": null }, "geometry": { "type": "Point", "coordinates": [ 140.352317349894662, 38.278210255603717 ] } },
{ "type": "Feature", "properties": { "P29_001": "06201", "P29_002": "A206320111053", "P29_003": "16013", "P29_004": "認定こども園金井こども園", "P29_005": "山形県山形市陣場3-12-60", "P29_006": "4", "P29_007": "0", "P29_008": "00", "P29_009": null }, "geometry": { "type": "Point", "coordinates": [ 140.304828707420512, 38.280109881402936 ] } },
{ "type": "Feature", "properties": { "P29_001": "06201", "P29_002": "A206320111062", "P29_003": "16013", "P29_004": "千歳認定こども園", "P29_005": "山形県山形市緑町1-4-20", "P29_006": "4", "P29_007": "0", "P29_008": "00", "P29_009": null }, "geometry": { "type": "Point", "coordinates": [ 140.346816911391727, 38.255171795764944 ] } },
{ "type": "Feature", "properties": { "P29_001": "06201", "P29_002": "A206320111071", "P29_003": "16013", "P29_004": "認定こども園杉の子", "P29_005": "山形県山形市瀬波1-2-7", "P29_006": "4", "P29_007": "0", "P29_008": "00", "P29_009": null }, "geometry": { "type": "Point", "coordinates": [ 140.311358859186782, 38.27897482425022 ] } },
{ "type": "Feature", "properties": { "P29_001": "06201", "P29_002": "A206320111080", "P29_003": "16013", "P29_004": "認定こども園山形聖マリアこども園", "P29_005": "山形県山形市香澄町2-11-15", "P29_006": "4", "P29_007": "0", "P29_008": "00", "P29_009": null }, "geometry": { "type": "Point", "coordinates": [ 140.331849308339542, 38.249868548202784 ] } },
{ "type": "Feature", "properties": { "P29_001": "06201", "P29_002": "A206320111099", "P29_003": "16013", "P29_004": "こども芸術大学認定こども園", "P29_005": "山形県山形市上桜田3-4-5", "P29_006": "4", "P29_007": "0", "P29_008": "00", "P29_009": null }, "geometry": { "type": "Point", "coordinates": [ 140.343555997676788, 38.217899926639369 ] } },
{ "type": "Feature", "properties": { "P29_001": "06201", "P29_002": "A206320111106", "P29_003": "16013", "P29_004": "南沼原ひまわり幼保園", "P29_005": "山形県山形市高堂1-7-3", "P29_006": "4", "P29_007": "0", "P29_008": "00", "P29_009": null }, "geometry": { "type": "Point", "coordinates": [ 140.308911933510046, 38.238734051324471 ] } },
{ "type": "Feature", "properties": { "P29_001": "06201", "P29_002": "A206320111115", "P29_003": "16013", "P29_004": "キンダーこども園", "P29_005": "山形県山形市宮町2-4-13", "P29_006": "4", "P29_007": "0", "P29_008": "00", "P29_009": null }, "geometry": { "type": "Point", "coordinates": [ 140.336926636576976, 38.268198483102154 ] } },
{ "type": "Feature", "properties": { "P29_001": "06201", "P29_002": "A206320111124", "P29_003": "16013", "P29_004": "キンダー南館こども園", "P29_005": "山形県山形市南館5-7-50", "P29_006": "4", "P29_007": "0", "P29_008": "00", "P29_009": null }, "geometry": { "type": "Point", "coordinates": [ 140.30789776206575, 38.235622557483488 ] } },
{ "type": "Feature", "properties": { "P29_001": "06201", "P29_002": "A206320111133", "P29_003": "16013", "P29_004": "出羽こども園", "P29_005": "山形県山形市大字千手堂字沢田203-5", "P29_006": "4", "P29_007": "0", "P29_008": "00", "P29_009": null }, "geometry": { "type": "Point", "coordinates": [ 140.334071850570581, 38.308461852670142 ] } },
{ "type": "Feature", "properties": { "P29_001": "06201", "P29_002": "A206320111142", "P29_003": "16013", "P29_004": "こども園ちとせ", "P29_005": "山形県山形市落合町柿壇386-4", "P29_006": "4", "P29_007": "0", "P29_008": "00", "P29_009": null }, "geometry": { "type": "Point", "coordinates": [ 140.353321000416912, 38.283764003692887 ] } },
{ "type": "Feature", "properties": { "P29_001": "06201", "P29_002": "A206320111151", "P29_003": "16013", "P29_004": "こども園ののはな", "P29_005": "山形県山形市花楯2-12-2", "P29_006": "4", "P29_007": "0", "P29_008": "00", "P29_009": null }, "geometry": { "type": "Point", "coordinates": [ 140.349625239273195, 38.274876760694227 ] } },
{ "type": "Feature", "properties": { "P29_001": "06201", "P29_002": "A206320111160", "P29_003": "16013", "P29_004": "木の実こども園", "P29_005": "山形県山形市木の実町14-15", "P29_006": "4", "P29_007": "0", "P29_008": "00", "P29_009": null }, "geometry": { "type": "Point", "coordinates": [ 140.335012451456919, 38.253361962912983 ] } },
{ "type": "Feature", "properties": { "P29_001": "06201", "P29_002": "A206320111179", "P29_003": "16013", "P29_004": "木の実北こども園", "P29_005": "山形県山形市旅籠町1-9-5", "P29_006": "4", "P29_007": "0", "P29_008": "00", "P29_009": null }, "geometry": { "type": "Point", "coordinates": [ 140.335227135478334, 38.255998871000543 ] } },
{ "type": "Feature", "properties": { "P29_001": "06201", "P29_002": "A206320111188", "P29_003": "16013", "P29_004": "木の実西部こども園", "P29_005": "山形県山形市南石関30-1", "P29_006": "4", "P29_007": "0", "P29_008": "00", "P29_009": null }, "geometry": { "type": "Point", "coordinates": [ 140.306860572862149, 38.249221297807729 ] } },
{ "type": "Feature", "properties": { "P29_001": "06201", "P29_002": "A206320111197", "P29_003": "16013", "P29_004": "認定こども園南光幼稚園", "P29_005": "山形県山形市八日町2-3-45", "P29_006": "4", "P29_007": "0", "P29_008": "00", "P29_009": null }, "geometry": { "type": "Point", "coordinates": [ 140.327954160128684, 38.240964143424726 ] } },
{ "type": "Feature", "properties": { "P29_001": "06201", "P29_002": "A206320111204", "P29_003": "16013", "P29_004": "蔵王めぐみこども園", "P29_005": "山形県山形市蔵王南成沢62-1", "P29_006": "4", "P29_007": "0", "P29_008": "00", "P29_009": null }, "geometry": { "type": "Point", "coordinates": [ 140.316192862936191, 38.19781527826941 ] } },
{ "type": "Feature", "properties": { "P29_001": "06201", "P29_002": "A206320111213", "P29_003": "16013", "P29_004": "認定こども園東原幼稚園", "P29_005": "山形県山形市東原町2-3-26", "P29_006": "4", "P29_007": "0", "P29_008": "00", "P29_009": null }, "geometry": { "type": "Point", "coordinates": [ 140.344949783626646, 38.243181843585504 ] } },
{ "type": "Feature", "properties": { "P29_001": "06201", "P29_002": "A206320111222", "P29_003": "16013", "P29_004": "認定こども園松波大谷幼稚園", "P29_005": "山形県山形市松波3-4-20", "P29_006": "4", "P29_007": "0", "P29_008": "00", "P29_009": null }, "geometry": { "type": "Point", "coordinates": [ 140.367789758182823, 38.242270681630607 ] } },
{ "type": "Feature", "properties": { "P29_001": "06202", "P29_002": "A206320211016", "P29_003": "16013", "P29_004": "幼保連携型認定こども園ひばりが丘幼稚園", "P29_005": "山形県米沢市大字三沢字白旗壱26090", "P29_006": "4", "P29_007": "0", "P29_008": "00", "P29_009": null }, "geometry": { "type": "Point", "coordinates": [ 140.139492495957455, 37.886090831836711 ] } },
{ "type": "Feature", "properties": { "P29_001": "06202", "P29_002": "A206320211025", "P29_003": "16013", "P29_004": "米沢西部こども園", "P29_005": "山形県米沢市御廟2-3-8", "P29_006": "4", "P29_007": "0", "P29_008": "00", "P29_009": null }, "geometry": { "type": "Point", "coordinates": [ 140.092423058678264, 37.908793198879728 ] } },
{ "type": "Feature", "properties": { "P29_001": "06202", "P29_002": "A206320211034", "P29_003": "16013", "P29_004": "戸塚山こども園", "P29_005": "山形県米沢市大字上新田字松原台2008", "P29_006": "4", "P29_007": "0", "P29_008": "00", "P29_009": null }, "geometry": { "type": "Point", "coordinates": [ 140.140922942592709, 37.950207894937066 ] } },
{ "type": "Feature", "properties": { "P29_001": "06202", "P29_002": "A206320211043", "P29_003": "16013", "P29_004": "興道こども園どんぐり", "P29_005": "山形県米沢市直江町4-100", "P29_006": "4", "P29_007": "0", "P29_008": "00", "P29_009": null }, "geometry": { "type": "Point", "coordinates": [ 140.085848296815669, 37.917136963448556 ] } },
{ "type": "Feature", "properties": { "P29_001": "06202", "P29_002": "A206320211052", "P29_003": "16013", "P29_004": "米沢こども園", "P29_005": "山形県米沢市中央3-6-45", "P29_006": "4", "P29_007": "0", "P29_008": "00", "P29_009": null }, "geometry": { "type": "Point", "coordinates": [ 140.111779721606581, 37.917093609518332 ] } },
{ "type": "Feature", "properties": { "P29_001": "06203", "P29_002": "A206320311015", "P29_003": "16013", "P29_004": "城南幼保園", "P29_005": "山形県鶴岡市のぞみ町6-20", "P29_006": "4", "P29_007": "0", "P29_008": "00", "P29_009": null }, "geometry": { "type": "Point", "coordinates": [ 139.8335764799738, 38.714836189267551 ] } },
{ "type": "Feature", "properties": { "P29_001": "06203", "P29_002": "A206320311024", "P29_003": "16013", "P29_004": "りっしょう子ども園", "P29_005": "山形県鶴岡市加茂字岩倉179-1", "P29_006": "4", "P29_007": "0", "P29_008": "00", "P29_009": null }, "geometry": { "type": "Point", "coordinates": [ 139.814719191127267, 38.734717993266912 ] } },
{ "type": "Feature", "properties": { "P29_001": "06203", "P29_002": "A206320311033", "P29_003": "16013", "P29_004": "美咲こども園", "P29_005": "山形県鶴岡市美咲町32-8", "P29_006": "4", "P29_007": "0", "P29_008": "00", "P29_009": null }, "geometry": { "type": "Point", "coordinates": [ 139.796797507049831, 38.736278050195402 ] } },
{ "type": "Feature", "properties": { "P29_001": "06203", "P29_002": "A206320311042", "P29_003": "16013", "P29_004": "幼保連携型認定こども園大宝幼稚園", "P29_005": "山形県鶴岡市大宝寺町14-10", "P29_006": "4", "P29_007": "0", "P29_008": "00", "P29_009": null }, "geometry": { "type": "Point", "coordinates": [ 139.843442717233472, 38.739165412988207 ] } },
{ "type": "Feature", "properties": { "P29_001": "06203", "P29_002": "A206320311051", "P29_003": "16013", "P29_004": "ちわら菜の花こども園", "P29_005": "山形県鶴岡市茅原字西茅原129-1", "P29_006": "4", "P29_007": "0", "P29_008": "00", "P29_009": null }, "geometry": { "type": "Point", "coordinates": [ 139.834473339045388, 38.753591468455106 ] } },
{ "type": "Feature", "properties": { "P29_001": "06203", "P29_002": "A206320311060", "P29_003": "16013", "P29_004": "ちとせはぐくみ園", "P29_005": "山形県鶴岡市稲生1-14-1", "P29_006": "4", "P29_007": "0", "P29_008": "00", "P29_009": null }, "geometry": { "type": "Point", "coordinates": [ 139.812739301793556, 38.7168842204333 ] } },
{ "type": "Feature", "properties": { "P29_001": "06203", "P29_002": "A206320311079", "P29_003": "16013", "P29_004": "幼保連携型認定こども園三瀬保育園", "P29_005": "山形県鶴岡市三瀬字殿田233-1", "P29_006": "4", "P29_007": "0", "P29_008": "00", "P29_009": null }, "geometry": { "type": "Point", "coordinates": [ 139.667423711899062, 38.701226609301884 ] } },
{ "type": "Feature", "properties": { "P29_001": "06203", "P29_002": "A206320311088", "P29_003": "16013", "P29_004": "認定こども園マリア幼稚園", "P29_005": "山形県鶴岡市馬場町7-19", "P29_006": "4", "P29_007": "0", "P29_008": "00", "P29_009": null }, "geometry": { "type": "Point", "coordinates": [ 139.82888033895938, 38.727175575159912 ] } },
{ "type": "Feature", "properties": { "P29_001": "06203", "P29_002": "A206320311097", "P29_003": "16013", "P29_004": "認定こども園若葉幼稚園", "P29_005": "山形県鶴岡市若葉町24-35", "P29_006": "4", "P29_007": "0", "P29_008": "00", "P29_009": null }, "geometry": { "type": "Point", "coordinates": [ 139.826945676709698, 38.731030349001685 ] } },
{ "type": "Feature", "properties": { "P29_001": "06203", "P29_002": "A206320311104", "P29_003": "16013", "P29_004": "新形こども園", "P29_005": "山形県鶴岡市新形町2-35", "P29_006": "4", "P29_007": "0", "P29_008": "00", "P29_009": null }, "geometry": { "type": "Point", "coordinates": [ 139.826468979194431, 38.737441000432334 ] } },
{ "type": "Feature", "properties": { "P29_001": "06204", "P29_002": "A206320411014", "P29_003": "16013", "P29_004": "酒田ふたば園", "P29_005": "山形県酒田市日吉町1-1-7", "P29_006": "4", "P29_007": "0", "P29_008": "00", "P29_009": null }, "geometry": { "type": "Point", "coordinates": [ 139.834483614764252, 38.92184255107842 ] } },
{ "type": "Feature", "properties": { "P29_001": "06204", "P29_002": "A206320411023", "P29_003": "16013", "P29_004": "木の実こども園", "P29_005": "山形県酒田市あきほ町661-9", "P29_006": "4", "P29_007": "0", "P29_008": "00", "P29_009": null }, "geometry": { "type": "Point", "coordinates": [ 139.850170149249976, 38.888553766609235 ] } },
{ "type": "Feature", "properties": { "P29_001": "06204", "P29_002": "A206320411032", "P29_003": "16013", "P29_004": "幼保連携型認定こども園広野保育園", "P29_005": "山形県酒田市広野字中通40-3", "P29_006": "4", "P29_007": "0", "P29_008": "00", "P29_009": null }, "geometry": { "type": "Point", "coordinates": [ 139.849850320920723, 38.846237896312708 ] } },
{ "type": "Feature", "properties": { "P29_001": "06204", "P29_002": "A206320411041", "P29_003": "16013", "P29_004": "アテネ認定こども園", "P29_005": "山形県酒田市若原町1-44", "P29_006": "4", "P29_007": "0", "P29_008": "00", "P29_009": null }, "geometry": { "type": "Point", "coordinates": [ 139.840016833475914, 38.90051520649579 ] } },
{ "type": "Feature", "properties": { "P29_001": "06204", "P29_002": "A206320411050", "P29_003": "16013", "P29_004": "認定こども園若草幼稚園・若草ベビールーム", "P29_005": "山形県酒田市日吉町1-4-34", "P29_006": "4", "P29_007": "0", "P29_008": "00", "P29_009": null }, "geometry": { "type": "Point", "coordinates": [ 139.833368467673267, 38.921389630711275 ] } },
{ "type": "Feature", "properties": { "P29_001": "06204", "P29_002": "A206320411069", "P29_003": "16013", "P29_004": "認定こども園浄徳幼稚園・じょうとく保育園", "P29_005": "山形県酒田市みずほ2-2-4", "P29_006": "4", "P29_007": "0", "P29_008": "00", "P29_009": null }, "geometry": { "type": "Point", "coordinates": [ 139.853031624245062, 38.904522184018965 ] } },
{ "type": "Feature", "properties": { "P29_001": "06204", "P29_002": "A206320411078", "P29_003": "16013", "P29_004": "幼保連携型認定こども園十坂こども園", "P29_005": "山形県酒田市十里塚字村東山112-2", "P29_006": "4", "P29_007": "0", "P29_008": "00", "P29_009": null }, "geometry": { "type": "Point", "coordinates": [ 139.817109115907726, 38.878159894771166 ] } },
{ "type": "Feature", "properties": { "P29_001": "06204", "P29_002": "A206320411087", "P29_003": "16013", "P29_004": "幼保連携型認定こども園うえだこども園", "P29_005": "山形県酒田市上野曽根字上中割49", "P29_006": "4", "P29_007": "0", "P29_008": "00", "P29_009": null }, "geometry": { "type": "Point", "coordinates": [ 139.888954745923769, 38.944101898668926 ] } },
{ "type": "Feature", "properties": { "P29_001": "06206", "P29_002": "A206320611012", "P29_003": "16013", "P29_004": "認定こども園寒河江第二幼稚園", "P29_005": "山形県寒河江市大字高屋字西浦19", "P29_006": "4", "P29_007": "0", "P29_008": "00", "P29_009": null }, "geometry": { "type": "Point", "coordinates": [ 140.281912286500273, 38.356779773940275 ] } },
{ "type": "Feature", "properties": { "P29_001": "06207", "P29_002": "A206320711011", "P29_003": "16013", "P29_004": "かしのき幼稚園お日さま", "P29_005": "山形県上山市泉川字東河原360", "P29_006": "4", "P29_007": "0", "P29_008": "00", "P29_009": null }, "geometry": { "type": "Point", "coordinates": [ 140.288484860870312, 38.16147469977313 ] } },
{ "type": "Feature", "properties": { "P29_001": "06207", "P29_002": "A206320711020", "P29_003": "16013", "P29_004": "幼保連携型認定こども園上山幼稚園・アイキッズ", "P29_005": "山形県上山市旭町3-1-23", "P29_006": "4", "P29_007": "0", "P29_008": "00", "P29_009": null }, "geometry": { "type": "Point", "coordinates": [ 140.290480188795328, 38.166116374041955 ] } },
{ "type": "Feature", "properties": { "P29_001": "06208", "P29_002": "A206320811010", "P29_003": "16013", "P29_004": "輝認定こども園", "P29_005": "山形県村山市楯岡新町1-17-20", "P29_006": "4", "P29_007": "0", "P29_008": "00", "P29_009": null }, "geometry": { "type": "Point", "coordinates": [ 140.387304216373764, 38.472364507862423 ] } },
{ "type": "Feature", "properties": { "P29_001": "06209", "P29_002": "A206320911019", "P29_003": "16013", "P29_004": "長井めぐみ幼稚園", "P29_005": "山形県長井市屋城町6-58", "P29_006": "4", "P29_007": "0", "P29_008": "00", "P29_009": null }, "geometry": { "type": "Point", "coordinates": [ 140.044276109218458, 38.109011632172233 ] } },
{ "type": "Feature", "properties": { "P29_001": "06209", "P29_002": "A206320911028", "P29_003": "16013", "P29_004": "幼保連携型認定こども園白山こども園", "P29_005": "山形県長井市館町南16-18", "P29_006": "4", "P29_007": "0", "P29_008": "00", "P29_009": null }, "geometry": { "type": "Point", "coordinates": [ 140.038917479693936, 38.094958038571868 ] } },
{ "type": "Feature", "properties": { "P29_001": "06210", "P29_002": "A206321011016", "P29_003": "16013", "P29_004": "あけぼの幼稚園", "P29_005": "山形県天童市北久野本5-11-31", "P29_006": "4", "P29_007": "0", "P29_008": "00", "P29_009": null }, "geometry": { "type": "Point", "coordinates": [ 140.381555258963289, 38.381125577893421 ] } },
{ "type": "Feature", "properties": { "P29_001": "06210", "P29_002": "A206321011025", "P29_003": "16013", "P29_004": "キンダー水木こども園", "P29_005": "山形県天童市大字成生930", "P29_006": "4", "P29_007": "0", "P29_008": "00", "P29_009": null }, "geometry": { "type": "Point", "coordinates": [ 140.360430829203523, 38.378956287675933 ] } },
{ "type": "Feature", "properties": { "P29_001": "06210", "P29_002": "A206321011034", "P29_003": "16013", "P29_004": "天童しぜん幼稚園", "P29_005": "山形県天童市大字干布724", "P29_006": "4", "P29_007": "0", "P29_008": "00", "P29_009": null }, "geometry": { "type": "Point", "coordinates": [ 140.398910337419039, 38.335066020765858 ] } },
{ "type": "Feature", "properties": { "P29_001": "06210", "P29_002": "A206321011043", "P29_003": "16013", "P29_004": "幼保連携型認定こども園つばさのもり愛宕こども園", "P29_005": "山形県天童市天童中3-1-32", "P29_006": "4", "P29_007": "0", "P29_008": "00", "P29_009": null }, "geometry": { "type": "Point", "coordinates": [ 140.381337406277225, 38.354916849146981 ] } },
{ "type": "Feature", "properties": { "P29_001": "06210", "P29_002": "A206321011052", "P29_003": "16013", "P29_004": "天童なでしここども園", "P29_005": "山形県天童市大字山口1917-1", "P29_006": "4", "P29_007": "0", "P29_008": "00", "P29_009": null }, "geometry": { "type": "Point", "coordinates": [ 140.407644195201328, 38.387467836528309 ] } },
{ "type": "Feature", "properties": { "P29_001": "06211", "P29_002": "A206321111015", "P29_003": "16013", "P29_004": "あおぞらこども園", "P29_005": "山形県東根市神町西4", "P29_006": "4", "P29_007": "0", "P29_008": "00", "P29_009": null }, "geometry": { "type": "Point", "coordinates": [ 140.3744289985504, 38.405202002167442 ] } },
{ "type": "Feature", "properties": { "P29_001": "06212", "P29_002": "A206321211014", "P29_003": "16013", "P29_004": "幼保連携型認定こども園尾花沢幼稚園", "P29_005": "山形県尾花沢市上町4-1894-4", "P29_006": "4", "P29_007": "0", "P29_008": "00", "P29_009": null }, "geometry": { "type": "Point", "coordinates": [ 140.399027504085893, 38.599502993635028 ] } },
{ "type": "Feature", "properties": { "P29_001": "06212", "P29_002": "A206321211023", "P29_003": "16013", "P29_004": "社会福祉法人ひまわり愛育会認定こども園よつばこども園", "P29_005": "山形県尾花沢市萩袋1287-17", "P29_006": "4", "P29_007": "0", "P29_008": "00", "P29_009": null }, "geometry": { "type": "Point", "coordinates": [ 140.382400629238361, 38.626102822195186 ] } },
{ "type": "Feature", "properties": { "P29_001": "06213", "P29_002": "A206321311013", "P29_003": "16013", "P29_004": "宮内認定こども園", "P29_005": "山形県南陽市宮内3106", "P29_006": "4", "P29_007": "0", "P29_008": "00", "P29_009": null }, "geometry": { "type": "Point", "coordinates": [ 140.133375406600038, 38.075011762942097 ] } },
{ "type": "Feature", "properties": { "P29_001": "06213", "P29_002": "A206321311022", "P29_003": "16013", "P29_004": "認定こども園つばめ幼稚園", "P29_005": "山形県南陽市郡山70-1", "P29_006": "4", "P29_007": "0", "P29_008": "00", "P29_009": null }, "geometry": { "type": "Point", "coordinates": [ 140.149696723025698, 38.04076128949805 ] } },
{ "type": "Feature", "properties": { "P29_001": "06301", "P29_002": "A206330111016", "P29_003": "16013", "P29_004": "認定こども園ゆりかご幼稚園", "P29_005": "山形県東村山郡山辺町大字山辺5160", "P29_006": "4", "P29_007": "0", "P29_008": "00", "P29_009": null }, "geometry": { "type": "Point", "coordinates": [ 140.274025087895211, 38.288271952488209 ] } },
{ "type": "Feature", "properties": { "P29_001": "06321", "P29_002": "A206332111012", "P29_003": "16013", "P29_004": "かほくあいこども園", "P29_005": "山形県西村山郡河北町谷地字霊堂399-1", "P29_006": "4", "P29_007": "0", "P29_008": "00", "P29_009": null }, "geometry": { "type": "Point", "coordinates": [ 140.310504683383328, 38.43242624762641 ] } },
{ "type": "Feature", "properties": { "P29_001": "06321", "P29_002": "A206332111021", "P29_003": "16013", "P29_004": "認定こども園ひなのこども園", "P29_005": "山形県西村山郡河北町谷地字月山堂1344", "P29_006": "4", "P29_007": "0", "P29_008": "00", "P29_009": null }, "geometry": { "type": "Point", "coordinates": [ 140.308432975488302, 38.411285645567496 ] } },
{ "type": "Feature", "properties": { "P29_001": "06361", "P29_002": "A206336111013", "P29_003": "16013", "P29_004": "認定こども園めごたま", "P29_005": "山形県最上郡金山町大字金山2277", "P29_006": "4", "P29_007": "0", "P29_008": "00", "P29_009": null }, "geometry": { "type": "Point", "coordinates": [ 140.325953905539222, 38.878298005085192 ] } },
{ "type": "Feature", "properties": { "P29_001": "06364", "P29_002": "A206336411010", "P29_003": "16013", "P29_004": "たんぽぽこども園", "P29_005": "山形県最上郡真室川町大字新町376-2", "P29_006": "4", "P29_007": "0", "P29_008": "00", "P29_009": null }, "geometry": { "type": "Point", "coordinates": [ 140.248333991228293, 38.853806489396334 ] } },
{ "type": "Feature", "properties": { "P29_001": "06381", "P29_002": "A206338111019", "P29_003": "16013", "P29_004": "たかはたこども園", "P29_005": "山形県東置賜郡高畠町大字高畠1077-1", "P29_006": "4", "P29_007": "0", "P29_008": "00", "P29_009": null }, "geometry": { "type": "Point", "coordinates": [ 140.199222995545142, 38.00035299718531 ] } },
{ "type": "Feature", "properties": { "P29_001": "06381", "P29_002": "A206338111028", "P29_003": "16013", "P29_004": "なかよしこども園", "P29_005": "山形県東置賜郡高畠町大字亀岡2920-1", "P29_006": "4", "P29_007": "0", "P29_008": "00", "P29_009": null }, "geometry": { "type": "Point", "coordinates": [ 140.173572405882311, 37.978755143164157 ] } },
{ "type": "Feature", "properties": { "P29_001": "06381", "P29_002": "A206338111037", "P29_003": "16013", "P29_004": "なごみこども園", "P29_005": "山形県東置賜郡高畠町大字元和田1337", "P29_006": "4", "P29_007": "0", "P29_008": "00", "P29_009": null }, "geometry": { "type": "Point", "coordinates": [ 140.184299438513648, 37.96397581676532 ] } },
{ "type": "Feature", "properties": { "P29_001": "06381", "P29_002": "A206338111046", "P29_003": "16013", "P29_004": "にじいろこども園", "P29_005": "山形県東置賜郡高畠町大字二井宿2802-1", "P29_006": "4", "P29_007": "0", "P29_008": "00", "P29_009": null }, "geometry": { "type": "Point", "coordinates": [ 140.257451897778196, 38.019917459637554 ] } },
{ "type": "Feature", "properties": { "P29_001": "06401", "P29_002": "A206340111015", "P29_003": "16013", "P29_004": "認定こども園すみれ保育園", "P29_005": "山形県西置賜郡小国町大字小国町133-10", "P29_006": "4", "P29_007": "0", "P29_008": "00", "P29_009": null }, "geometry": { "type": "Point", "coordinates": [ 139.752139278747052, 38.060229585295431 ] } },
{ "type": "Feature", "properties": { "P29_001": "06402", "P29_002": "A206340211014", "P29_003": "16013", "P29_004": "愛真こども園", "P29_005": "山形県西置賜郡白鷹町大字荒砥乙721-1", "P29_006": "4", "P29_007": "0", "P29_008": "00", "P29_009": null }, "geometry": { "type": "Point", "coordinates": [ 140.103139208426086, 38.180393209217236 ] } },
{ "type": "Feature", "properties": { "P29_001": "06402", "P29_002": "A206340211023", "P29_003": "16013", "P29_004": "よつばこども園", "P29_005": "山形県西置賜郡白鷹町大字十王4354", "P29_006": "4", "P29_007": "0", "P29_008": "00", "P29_009": null }, "geometry": { "type": "Point", "coordinates": [ 140.114491081339651, 38.189889094220867 ] } },
{ "type": "Feature", "properties": { "P29_001": "06426", "P29_002": "A206342611016", "P29_003": "16013", "P29_004": "三川りっしょうこども園", "P29_005": "山形県東田川郡三川町大字横山字西田66-1", "P29_006": "4", "P29_007": "0", "P29_008": "00", "P29_009": null }, "geometry": { "type": "Point", "coordinates": [ 139.848669730038011, 38.795874883564679 ] } },
{ "type": "Feature", "properties": { "P29_001": "06428", "P29_002": "A206342811014", "P29_003": "16013", "P29_004": "認定こども園からふる", "P29_005": "山形県東田川郡庄内町狩川字大釜136", "P29_006": "4", "P29_007": "0", "P29_008": "00", "P29_009": null }, "geometry": { "type": "Point", "coordinates": [ 139.963591069065899, 38.789076498792298 ] } },
{ "type": "Feature", "properties": { "P29_001": "06461", "P29_002": "A206346111012", "P29_003": "16013", "P29_004": "杉の子幼稚園", "P29_005": "山形県飽海郡遊佐町遊佐字高砂83", "P29_006": "4", "P29_007": "0", "P29_008": "00", "P29_009": null }, "geometry": { "type": "Point", "coordinates": [ 139.909447888589654, 39.018475946785436 ] } }
]
}
