{
"type": "FeatureCollection",
"name": "geo_06_幼稚園",
"crs": { "type": "name", "properties": { "name": "urn:ogc:def:crs:EPSG::6668" } },
"features": [
{ "type": "Feature", "properties": { "P29_001": "06201", "P29_002": "A106110000017", "P29_003": "16011", "P29_004": "山形大学附属幼稚園", "P29_005": "山形県山形市松波2-7-1", "P29_006": "1", "P29_007": "0", "P29_008": "00", "P29_009": null }, "geometry": { "type": "Point", "coordinates": [ 140.357717130921742, 38.24047617977066 ] } },
{ "type": "Feature", "properties": { "P29_001": "06213", "P29_002": "A106221300019", "P29_003": "16011", "P29_004": "南陽市立赤湯幼稚園", "P29_005": "山形県南陽市赤湯363", "P29_006": "3", "P29_007": "0", "P29_008": "00", "P29_009": null }, "geometry": { "type": "Point", "coordinates": [ 140.164398766729306, 38.048709947476098 ] } },
{ "type": "Feature", "properties": { "P29_001": "06382", "P29_002": "A106238200014", "P29_003": "16011", "P29_004": "川西町立北斗幼稚園", "P29_005": "山形県東置賜郡川西町大字西大塚313-1", "P29_006": "3", "P29_007": "0", "P29_008": "00", "P29_009": null }, "geometry": { "type": "Point", "coordinates": [ 140.068692635253115, 38.045217537072439 ] } },
{ "type": "Feature", "properties": { "P29_001": "06382", "P29_002": "A106238200023", "P29_003": "16011", "P29_004": "川西町立美郷幼稚園", "P29_005": "山形県東置賜郡川西町大字莅88", "P29_006": "3", "P29_007": "0", "P29_008": "00", "P29_009": null }, "geometry": { "type": "Point", "coordinates": [ 140.071275999634281, 37.989792000273376 ] } },
{ "type": "Feature", "properties": { "P29_001": "06426", "P29_002": "A106242600012", "P29_003": "16011", "P29_004": "三川町立みかわ幼稚園", "P29_005": "山形県東田川郡三川町大字押切新田字豊秋100", "P29_006": "3", "P29_007": "0", "P29_008": "00", "P29_009": null }, "geometry": { "type": "Point", "coordinates": [ 139.853440442939558, 38.807410585987199 ] } },
{ "type": "Feature", "properties": { "P29_001": "06428", "P29_002": "A106242800010", "P29_003": "16011", "P29_004": "庄内町立余目第一幼稚園", "P29_005": "山形県東田川郡庄内町高田麦字北裏8", "P29_006": "3", "P29_007": "0", "P29_008": "00", "P29_009": null }, "geometry": { "type": "Point", "coordinates": [ 139.884604382439932, 38.840910841988567 ] } },
{ "type": "Feature", "properties": { "P29_001": "06428", "P29_002": "A106242800029", "P29_003": "16011", "P29_004": "庄内町立余目第二幼稚園", "P29_005": "山形県東田川郡庄内町余目字矢口35-1", "P29_006": "3", "P29_007": "0", "P29_008": "00", "P29_009": null }, "geometry": { "type": "Point", "coordinates": [ 139.909097148877862, 38.837745529431089 ] } },
{ "type": "Feature", "properties": { "P29_001": "06428", "P29_002": "A106242800038", "P29_003": "16011", "P29_004": "庄内町立余目第三幼稚園", "P29_005": "山形県東田川郡庄内町廿六木字三百地6-1", "P29_006": "3", "P29_007": "0", "P29_008": "00", "P29_009": null }, "geometry": { "type": "Point", "coordinates": [ 139.912223241889109, 38.854225739008186 ] } },
{ "type": "Feature", "properties": { "P29_001": "06428", "P29_002": "A106242800047", "P29_003": "16011", "P29_004": "庄内町立余目第四幼稚園", "P29_005": "山形県東田川郡庄内町主殿新田字赤渕21-1", "P29_006": "3", "P29_007": "0", "P29_008": "00", "P29_009": null }, "geometry": { "type": "Point", "coordinates": [ 139.938691326666458, 38.809413746589392 ] } },
{ "type": "Feature", "properties": { "P29_001": "06201", "P29_002": "A106320101010", "P29_003": "16011", "P29_004": "鈴川幼稚園", "P29_005": "山形県山形市鈴川町2-10-30", "P29_006": "4", "P29_007": "0", "P29_008": "00", "P29_009": null }, "geometry": { "type": "Point", "coordinates": [ 140.355564016843232, 38.266115391617681 ] } },
{ "type": "Feature", "properties": { "P29_001": "06201", "P29_002": "A106320101029", "P29_003": "16011", "P29_004": "竹田幼稚園", "P29_005": "山形県山形市城西町3-13-7", "P29_006": "4", "P29_007": "0", "P29_008": "00", "P29_009": null }, "geometry": { "type": "Point", "coordinates": [ 140.317678554214552, 38.257945795474114 ] } },
{ "type": "Feature", "properties": { "P29_001": "06201", "P29_002": "A106320101038", "P29_003": "16011", "P29_004": "金井幼稚園", "P29_005": "山形県山形市江俣3-5-10", "P29_006": "4", "P29_007": "0", "P29_008": "00", "P29_009": null }, "geometry": { "type": "Point", "coordinates": [ 140.320102138487329, 38.274575673827655 ] } },
{ "type": "Feature", "properties": { "P29_001": "06201", "P29_002": "A106320101047", "P29_003": "16011", "P29_004": "南山形幼稚園", "P29_005": "山形県山形市大字松原159-4", "P29_006": "4", "P29_007": "0", "P29_008": "00", "P29_009": null }, "geometry": { "type": "Point", "coordinates": [ 140.307055242068486, 38.202036960383808 ] } },
{ "type": "Feature", "properties": { "P29_001": "06201", "P29_002": "A106320101056", "P29_003": "16011", "P29_004": "東北文教大学付属幼稚園", "P29_005": "山形県山形市片谷地515", "P29_006": "4", "P29_007": "0", "P29_008": "00", "P29_009": null }, "geometry": { "type": "Point", "coordinates": [ 140.304139400917393, 38.21042422496091 ] } },
{ "type": "Feature", "properties": { "P29_001": "06201", "P29_002": "A106320101074", "P29_003": "16011", "P29_004": "さゆり幼稚園", "P29_005": "山形県山形市本町2-1-24", "P29_006": "4", "P29_007": "0", "P29_008": "00", "P29_009": null }, "geometry": { "type": "Point", "coordinates": [ 140.338145442348264, 38.249694967431175 ] } },
{ "type": "Feature", "properties": { "P29_001": "06201", "P29_002": "A106320101083", "P29_003": "16011", "P29_004": "大谷幼稚園", "P29_005": "山形県山形市緑町3-7-67", "P29_006": "4", "P29_007": "0", "P29_008": "00", "P29_009": null }, "geometry": { "type": "Point", "coordinates": [ 140.345902680867027, 38.252128211329271 ] } },
{ "type": "Feature", "properties": { "P29_001": "06201", "P29_002": "A106320101109", "P29_003": "16011", "P29_004": "月かげ幼稚園", "P29_005": "山形県山形市馬見ケ崎1-1-10", "P29_006": "4", "P29_007": "0", "P29_008": "00", "P29_009": null }, "geometry": { "type": "Point", "coordinates": [ 140.333821329206984, 38.278904306467474 ] } },
{ "type": "Feature", "properties": { "P29_001": "06201", "P29_002": "A106320101118", "P29_003": "16011", "P29_004": "出羽大谷幼稚園", "P29_005": "山形県山形市大字千手堂545-1", "P29_006": "4", "P29_007": "0", "P29_008": "00", "P29_009": null }, "geometry": { "type": "Point", "coordinates": [ 140.339114509347183, 38.31257846289683 ] } },
{ "type": "Feature", "properties": { "P29_001": "06201", "P29_002": "A106320101127", "P29_003": "16011", "P29_004": "さくらんぼ幼稚園", "P29_005": "山形県山形市大字長谷堂1111-3", "P29_006": "4", "P29_007": "0", "P29_008": "00", "P29_009": null }, "geometry": { "type": "Point", "coordinates": [ 140.279267362491851, 38.216365541160229 ] } },
{ "type": "Feature", "properties": { "P29_001": "06201", "P29_002": "A106320101145", "P29_003": "16011", "P29_004": "竹田西部幼稚園", "P29_005": "山形県山形市飯塚町922-1", "P29_006": "4", "P29_007": "0", "P29_008": "00", "P29_009": null }, "geometry": { "type": "Point", "coordinates": [ 140.281036747560506, 38.260366221066477 ] } },
{ "type": "Feature", "properties": { "P29_001": "06201", "P29_002": "A106320101154", "P29_003": "16011", "P29_004": "あおぞら幼稚園", "P29_005": "山形県山形市青田2-9-1", "P29_006": "4", "P29_007": "0", "P29_008": "00", "P29_009": null }, "geometry": { "type": "Point", "coordinates": [ 140.334418630155966, 38.226906472672681 ] } },
{ "type": "Feature", "properties": { "P29_001": "06201", "P29_002": "A106320101172", "P29_003": "16011", "P29_004": "星幼稚園", "P29_005": "山形県山形市南原町2-10-8", "P29_006": "4", "P29_007": "0", "P29_008": "00", "P29_009": null }, "geometry": { "type": "Point", "coordinates": [ 140.3432199515901, 38.234635630756976 ] } },
{ "type": "Feature", "properties": { "P29_001": "06202", "P29_002": "A106320201019", "P29_003": "16011", "P29_004": "米沢中央幼稚園", "P29_005": "山形県米沢市中央7-5-70-5", "P29_006": "4", "P29_007": "0", "P29_008": "00", "P29_009": null }, "geometry": { "type": "Point", "coordinates": [ 140.106157816578701, 37.921999210620037 ] } },
{ "type": "Feature", "properties": { "P29_001": "06202", "P29_002": "A106320201037", "P29_003": "16011", "P29_004": "普慈幼稚園", "P29_005": "山形県米沢市下花沢3-4-30", "P29_006": "4", "P29_007": "0", "P29_008": "00", "P29_009": null }, "geometry": { "type": "Point", "coordinates": [ 140.12912692967808, 37.914086807331252 ] } },
{ "type": "Feature", "properties": { "P29_001": "06202", "P29_002": "A106320201055", "P29_003": "16011", "P29_004": "かしのみ幼稚園", "P29_005": "山形県米沢市城南5-1-1", "P29_006": "4", "P29_007": "0", "P29_008": "00", "P29_009": null }, "geometry": { "type": "Point", "coordinates": [ 140.104544004324907, 37.898254469302955 ] } },
{ "type": "Feature", "properties": { "P29_001": "06202", "P29_002": "A106320201073", "P29_003": "16011", "P29_004": "九里幼稚園", "P29_005": "山形県米沢市門東町1-1-18", "P29_006": "4", "P29_007": "0", "P29_008": "00", "P29_009": null }, "geometry": { "type": "Point", "coordinates": [ 140.110897455906979, 37.906078602787616 ] } },
{ "type": "Feature", "properties": { "P29_001": "06203", "P29_002": "A106320301036", "P29_003": "16011", "P29_004": "和光幼稚園", "P29_005": "山形県鶴岡市我老林字五里市62", "P29_006": "4", "P29_007": "0", "P29_008": "00", "P29_009": null }, "geometry": { "type": "Point", "coordinates": [ 139.853152367512308, 38.702287244469332 ] } },
{ "type": "Feature", "properties": { "P29_001": "06203", "P29_002": "A106320301045", "P29_003": "16011", "P29_004": "鶴岡幼稚園", "P29_005": "山形県鶴岡市泉町6-13", "P29_006": "4", "P29_007": "0", "P29_008": "00", "P29_009": null }, "geometry": { "type": "Point", "coordinates": [ 139.830122249633547, 38.729518310099287 ] } },
{ "type": "Feature", "properties": { "P29_001": "06203", "P29_002": "A106320301054", "P29_003": "16011", "P29_004": "いなば幼稚園", "P29_005": "山形県鶴岡市藤島字村東51", "P29_006": "4", "P29_007": "0", "P29_008": "00", "P29_009": null }, "geometry": { "type": "Point", "coordinates": [ 139.900143715929261, 38.76600306562375 ] } },
{ "type": "Feature", "properties": { "P29_001": "06203", "P29_002": "A106320301063", "P29_003": "16011", "P29_004": "みどり幼稚園", "P29_005": "山形県鶴岡市大塚町6-28", "P29_006": "4", "P29_007": "0", "P29_008": "00", "P29_009": null }, "geometry": { "type": "Point", "coordinates": [ 139.810012192055154, 38.737583097148928 ] } },
{ "type": "Feature", "properties": { "P29_001": "06204", "P29_002": "A106320401017", "P29_003": "16011", "P29_004": "天真幼稚園", "P29_005": "山形県酒田市富士見町3-2-117", "P29_006": "4", "P29_007": "0", "P29_008": "00", "P29_009": null }, "geometry": { "type": "Point", "coordinates": [ 139.865636733915608, 38.921036906243643 ] } },
{ "type": "Feature", "properties": { "P29_001": "06204", "P29_002": "A106320401026", "P29_003": "16011", "P29_004": "酒田幼稚園", "P29_005": "山形県酒田市寿町1-80", "P29_006": "4", "P29_007": "0", "P29_008": "00", "P29_009": null }, "geometry": { "type": "Point", "coordinates": [ 139.836982506483594, 38.920167245003761 ] } },
{ "type": "Feature", "properties": { "P29_001": "06204", "P29_002": "A106320401035", "P29_003": "16011", "P29_004": "酒田第二幼稚園", "P29_005": "山形県酒田市若宮町2-11-15", "P29_006": "4", "P29_007": "0", "P29_008": "00", "P29_009": null }, "geometry": { "type": "Point", "coordinates": [ 139.809690213158717, 38.900773534107877 ] } },
{ "type": "Feature", "properties": { "P29_001": "06205", "P29_002": "A106320501025", "P29_003": "16011", "P29_004": "大手幼稚園", "P29_005": "山形県新庄市大手町2-10", "P29_006": "4", "P29_007": "0", "P29_008": "00", "P29_009": null }, "geometry": { "type": "Point", "coordinates": [ 140.297366390111449, 38.766166050173119 ] } },
{ "type": "Feature", "properties": { "P29_001": "06205", "P29_002": "A106320501034", "P29_003": "16011", "P29_004": "金沢幼稚園", "P29_005": "山形県新庄市上金沢町12-25", "P29_006": "4", "P29_007": "0", "P29_008": "00", "P29_009": null }, "geometry": { "type": "Point", "coordinates": [ 140.307300623501419, 38.751076540963048 ] } },
{ "type": "Feature", "properties": { "P29_001": "06205", "P29_002": "A106320501043", "P29_003": "16011", "P29_004": "向陽幼稚園", "P29_005": "山形県新庄市十日町468-17", "P29_006": "4", "P29_007": "0", "P29_008": "00", "P29_009": null }, "geometry": { "type": "Point", "coordinates": [ 140.306390948594753, 38.779647716567133 ] } },
{ "type": "Feature", "properties": { "P29_001": "06205", "P29_002": "A106320501052", "P29_003": "16011", "P29_004": "新庄幼稚園", "P29_005": "山形県新庄市北町6-20", "P29_006": "4", "P29_007": "0", "P29_008": "00", "P29_009": null }, "geometry": { "type": "Point", "coordinates": [ 140.298520892372778, 38.774705608712296 ] } },
{ "type": "Feature", "properties": { "P29_001": "06206", "P29_002": "A106320601015", "P29_003": "16011", "P29_004": "寒河江幼稚園", "P29_005": "山形県寒河江市本町3-6-2", "P29_006": "4", "P29_007": "0", "P29_008": "00", "P29_009": null }, "geometry": { "type": "Point", "coordinates": [ 140.273421142190074, 38.375999787714939 ] } },
{ "type": "Feature", "properties": { "P29_001": "06206", "P29_002": "A106320601024", "P29_003": "16011", "P29_004": "寒河江大谷幼稚園", "P29_005": "山形県寒河江市本町2-3-43", "P29_006": "4", "P29_007": "0", "P29_008": "00", "P29_009": null }, "geometry": { "type": "Point", "coordinates": [ 140.27515335380366, 38.375129241646341 ] } },
{ "type": "Feature", "properties": { "P29_001": "06208", "P29_002": "A106320801013", "P29_003": "16011", "P29_004": "楯岡幼稚園", "P29_005": "山形県村山市楯岡荒町1-6-35", "P29_006": "4", "P29_007": "0", "P29_008": "00", "P29_009": null }, "geometry": { "type": "Point", "coordinates": [ 140.391117066531763, 38.479120447746666 ] } },
{ "type": "Feature", "properties": { "P29_001": "06209", "P29_002": "A106320901012", "P29_003": "16011", "P29_004": "小桜幼稚園", "P29_005": "山形県長井市中道1-7-5", "P29_006": "4", "P29_007": "0", "P29_008": "00", "P29_009": null }, "geometry": { "type": "Point", "coordinates": [ 140.029206593046183, 38.107388043026326 ] } },
{ "type": "Feature", "properties": { "P29_001": "06210", "P29_002": "A106321001019", "P29_003": "16011", "P29_004": "天童幼稚園", "P29_005": "山形県天童市小路2-1-45", "P29_006": "4", "P29_007": "0", "P29_008": "00", "P29_009": null }, "geometry": { "type": "Point", "coordinates": [ 140.373193137374926, 38.358669051125865 ] } },
{ "type": "Feature", "properties": { "P29_001": "06210", "P29_002": "A106321001028", "P29_003": "16011", "P29_004": "天童みくに幼稚園", "P29_005": "山形県天童市三日町2-6-29", "P29_006": "4", "P29_007": "0", "P29_008": "00", "P29_009": null }, "geometry": { "type": "Point", "coordinates": [ 140.370488298823886, 38.354782895507107 ] } },
{ "type": "Feature", "properties": { "P29_001": "06210", "P29_002": "A106321001037", "P29_003": "16011", "P29_004": "天童東幼稚園", "P29_005": "山形県天童市大字奈良沢734", "P29_006": "4", "P29_007": "0", "P29_008": "00", "P29_009": null }, "geometry": { "type": "Point", "coordinates": [ 140.398729915529316, 38.335530649188925 ] } },
{ "type": "Feature", "properties": { "P29_001": "06210", "P29_002": "A106321001046", "P29_003": "16011", "P29_004": "蔵増幼稚園", "P29_005": "山形県天童市大字蔵増甲1083", "P29_006": "4", "P29_007": "0", "P29_008": "00", "P29_009": null }, "geometry": { "type": "Point", "coordinates": [ 140.336644814422812, 38.372126749908709 ] } },
{ "type": "Feature", "properties": { "P29_001": "06210", "P29_002": "A106321001055", "P29_003": "16011", "P29_004": "たかだま幼稚園", "P29_005": "山形県天童市大字清池1501", "P29_006": "4", "P29_007": "0", "P29_008": "00", "P29_009": null }, "geometry": { "type": "Point", "coordinates": [ 140.354745495527254, 38.329604259371685 ] } },
{ "type": "Feature", "properties": { "P29_001": "06211", "P29_002": "A106321101018", "P29_003": "16011", "P29_004": "神町幼稚園", "P29_005": "山形県東根市神町南1-5-20", "P29_006": "4", "P29_007": "0", "P29_008": "00", "P29_009": null }, "geometry": { "type": "Point", "coordinates": [ 140.376902671848796, 38.400412147925948 ] } },
{ "type": "Feature", "properties": { "P29_001": "06211", "P29_002": "A106321101027", "P29_003": "16011", "P29_004": "ひがしね幼稚園", "P29_005": "山形県東根市中央2-14-13", "P29_006": "4", "P29_007": "0", "P29_008": "00", "P29_009": null }, "geometry": { "type": "Point", "coordinates": [ 140.388600332160109, 38.433387695034874 ] } },
{ "type": "Feature", "properties": { "P29_001": "06301", "P29_002": "A106330101019", "P29_003": "16011", "P29_004": "やまべ幼稚園", "P29_005": "山形県東村山郡山辺町山辺1502-3", "P29_006": "4", "P29_007": "0", "P29_008": "00", "P29_009": null }, "geometry": { "type": "Point", "coordinates": [ 140.256091891950689, 38.292098325931548 ] } },
{ "type": "Feature", "properties": { "P29_001": "06302", "P29_002": "A106330201018", "P29_003": "16011", "P29_004": "ながさき幼稚園", "P29_005": "山形県東村山郡中山町大字長崎4259-1", "P29_006": "4", "P29_007": "0", "P29_008": "00", "P29_009": null }, "geometry": { "type": "Point", "coordinates": [ 140.267619153363455, 38.33431019026515 ] } },
{ "type": "Feature", "properties": { "P29_001": "06321", "P29_002": "A106332101015", "P29_003": "16011", "P29_004": "河北幼稚園", "P29_005": "山形県西村山郡河北町谷地字所岡46-1", "P29_006": "4", "P29_007": "0", "P29_008": "00", "P29_009": null }, "geometry": { "type": "Point", "coordinates": [ 140.31134739657071, 38.428275555812199 ] } },
{ "type": "Feature", "properties": { "P29_001": "06321", "P29_002": "A106332101024", "P29_003": "16011", "P29_004": "ひかり幼稚園　認定こども園", "P29_005": "山形県西村山郡河北町谷地乙98", "P29_006": "4", "P29_007": "0", "P29_008": "00", "P29_009": null }, "geometry": { "type": "Point", "coordinates": [ 140.317109894883885, 38.4238856654298 ] } },
{ "type": "Feature", "properties": { "P29_001": "06324", "P29_002": "A106332401012", "P29_003": "16011", "P29_004": "大江幼稚園", "P29_005": "山形県西村山郡大江町左沢461", "P29_006": "4", "P29_007": "0", "P29_008": "00", "P29_009": null }, "geometry": { "type": "Point", "coordinates": [ 140.204917692630659, 38.381296815083552 ] } },
{ "type": "Feature", "properties": { "P29_001": "06381", "P29_002": "A106338101012", "P29_003": "16011", "P29_004": "まつかわ幼稚園", "P29_005": "山形県東置賜郡高畠町大字福沢613", "P29_006": "4", "P29_007": "0", "P29_008": "00", "P29_009": null }, "geometry": { "type": "Point", "coordinates": [ 140.147628462036977, 37.994407385707902 ] } },
{ "type": "Feature", "properties": { "P29_001": "06382", "P29_002": "A106338201011", "P29_003": "16011", "P29_004": "小松幼稚園", "P29_005": "山形県東置賜郡川西町中小松3077", "P29_006": "4", "P29_007": "0", "P29_008": "00", "P29_009": null }, "geometry": { "type": "Point", "coordinates": [ 140.047314512547018, 38.008566863094543 ] } }
]
}
