{
"type": "FeatureCollection",
"name": "geo_06_介護老人福祉施設",
"crs": { "type": "name", "properties": { "name": "urn:ogc:def:crs:OGC:1.3:CRS84" } },
"features": [
{ "type": "Feature", "properties": { "内容": "特別養護老人ホーム福寿乃郷【介護老人福祉施設】山形県山形市飯田二丁目7番30号", "url": "https://www.kaigokensaku.mhlw.go.jp/06/index.php?action_kouhyou_detail_004_kani=true&JigyosyoCd=0670103688-00&ServiceCd=510&Type=search", "url2": "http://www.fukujukai.jp/" }, "geometry": { "type": "Point", "coordinates": [ 140.326883447746241, 38.216651777937059 ] } },
{ "type": "Feature", "properties": { "内容": "特別養護老人ホームさくらホーム山形【介護老人福祉施設】山形市嶋北三丁目14番24号", "url": "https://www.kaigokensaku.mhlw.go.jp/06/index.php?action_kouhyou_detail_004_kani=true&JigyosyoCd=0670103530-00&ServiceCd=510&Type=search", "url2": "http://www.sakura-welfare.jp/" }, "geometry": { "type": "Point", "coordinates": [ 140.3195336, 38.2908403 ] } },
{ "type": "Feature", "properties": { "内容": "指定介護老人福祉施設　ながまち荘【介護老人福祉施設】山形市長町751番地", "url": "https://www.kaigokensaku.mhlw.go.jp/06/index.php?action_kouhyou_detail_004_kani=true&JigyosyoCd=0670100734-00&ServiceCd=510&Type=search", "url2": "http://www.yamagata-saiseikai.org" }, "geometry": { "type": "Point", "coordinates": [ 140.333860100000038, 38.2907628 ] } },
{ "type": "Feature", "properties": { "内容": "特別養護老人ホーム　山静寿【介護老人福祉施設】山形市大字沼木字下河原１１３３－１", "url": "https://www.kaigokensaku.mhlw.go.jp/06/index.php?action_kouhyou_detail_004_kani=true&JigyosyoCd=0670103282-00&ServiceCd=510&Type=search", "url2": "http://www.yamagata-saiseikai.org." }, "geometry": { "type": "Point", "coordinates": [ 140.286138589302055, 38.251967948427797 ] } },
{ "type": "Feature", "properties": { "内容": "特別養護老人ホーム　愛日荘【介護老人福祉施設】山形県山形市大字妙見寺４番地", "url": "https://www.kaigokensaku.mhlw.go.jp/06/index.php?action_kouhyou_detail_004_kani=true&JigyosyoCd=0670100718-00&ServiceCd=510&Type=search", "url2": "http://www.yamagata-saiseikai.org" }, "geometry": { "type": "Point", "coordinates": [ 140.38119, 38.2406166 ] } },
{ "type": "Feature", "properties": { "内容": "特別養護老人ホームなごみの里【介護老人福祉施設】山形県山形市吉原三丁目10番8号", "url": "https://www.kaigokensaku.mhlw.go.jp/06/index.php?action_kouhyou_detail_004_kani=true&JigyosyoCd=0670101047-00&ServiceCd=510&Type=search", "url2": "http://www.jifukai.org" }, "geometry": { "type": "Point", "coordinates": [ 140.306816900000058, 38.2305487 ] } },
{ "type": "Feature", "properties": { "内容": "特別養護老人ホーム　七日町こまくさ園【介護老人福祉施設】山形市七日町四丁目５番２０号", "url": "https://www.kaigokensaku.mhlw.go.jp/06/index.php?action_kouhyou_detail_004_kani=true&JigyosyoCd=0670100791-00&ServiceCd=510&Type=search", "url2": "http://www.nanokamachikomakusaen.or.jp" }, "geometry": { "type": "Point", "coordinates": [ 140.3448985, 38.2529225 ] } },
{ "type": "Feature", "properties": { "内容": "特別養護老人ホーム　蔵王やすらぎの里【介護老人福祉施設】山形県山形市蔵王上野920番地", "url": "https://www.kaigokensaku.mhlw.go.jp/06/index.php?action_kouhyou_detail_004_kani=true&JigyosyoCd=0670100742-00&ServiceCd=510&Type=search", "url2": "http://care-net.biz/06/z-yasuragi/" }, "geometry": { "type": "Point", "coordinates": [ 140.316854199999966, 38.1759214 ] } },
{ "type": "Feature", "properties": { "内容": "特別養護老人ホームみはらしの丘【介護老人福祉施設】山形市みはらしの丘四丁目15番地3", "url": "https://www.kaigokensaku.mhlw.go.jp/06/index.php?action_kouhyou_detail_004_kani=true&JigyosyoCd=0670103563-00&ServiceCd=510&Type=search", "url2": "https://www.yuuai-kai.or.jp/" }, "geometry": { "type": "Point", "coordinates": [ 140.289921721582004, 38.182212398628707 ] } },
{ "type": "Feature", "properties": { "内容": "特別養護老人ホームとかみ共生苑【介護老人福祉施設】山形県山形市富神前6番地", "url": "https://www.kaigokensaku.mhlw.go.jp/06/index.php?action_kouhyou_detail_004_kani=true&JigyosyoCd=0670100775-00&ServiceCd=510&Type=search", "url2": "http:www.ｙ-shiminfukushikai.org/." }, "geometry": { "type": "Point", "coordinates": [ 140.2633399, 38.237519 ] } },
{ "type": "Feature", "properties": { "内容": "特別養護老人ホームいきいきの郷【介護老人福祉施設】山形県山形市大字成安４２５番地２", "url": "https://www.kaigokensaku.mhlw.go.jp/06/index.php?action_kouhyou_detail_004_kani=true&JigyosyoCd=0670100767-00&ServiceCd=510&Type=search", "url2": "https://kagayakinokai.or.jp/" }, "geometry": { "type": "Point", "coordinates": [ 140.311042300000054, 38.3233565 ] } },
{ "type": "Feature", "properties": { "内容": "特別養護老人ホーム　サンシャイン大森【介護老人福祉施設】山形市大字大森２１３９番地１", "url": "https://www.kaigokensaku.mhlw.go.jp/06/index.php?action_kouhyou_detail_004_kani=true&JigyosyoCd=0670100783-00&ServiceCd=510&Type=search", "url2": "http://sunshine-oomori.jp/" }, "geometry": { "type": "Point", "coordinates": [ 140.38657760000001, 38.3069126 ] } },
{ "type": "Feature", "properties": { "内容": "指定介護老人福祉施設みこころの園【介護老人福祉施設】山形県山形市大字沼木字下河原1129-1", "url": "https://www.kaigokensaku.mhlw.go.jp/06/index.php?action_kouhyou_detail_004_kani=true&JigyosyoCd=0670100726-00&ServiceCd=510&Type=search", "url2": "http://www.mikokoronosono.or.jp" }, "geometry": { "type": "Point", "coordinates": [ 140.285307104507439, 38.250733630257201 ] } },
{ "type": "Feature", "properties": { "内容": "指定介護老人福祉施設菅沢荘【介護老人福祉施設】山形市すげさわの丘４６番地", "url": "https://www.kaigokensaku.mhlw.go.jp/06/index.php?action_kouhyou_detail_004_kani=true&JigyosyoCd=0670100759-00&ServiceCd=510&Type=search", "url2": "https://yamagatashi-sj.or.jp/" }, "geometry": { "type": "Point", "coordinates": [ 140.26767330000007, 38.2265453 ] } },
{ "type": "Feature", "properties": { "内容": "六日町あいあい　特別養護老人ホーム【介護老人福祉施設】山形市六日町２番７号", "url": "https://www.kaigokensaku.mhlw.go.jp/06/index.php?action_kouhyou_detail_004_kani=true&JigyosyoCd=0670101740-00&ServiceCd=510&Type=search", "url2": "https://aiai-yamagata.org/" }, "geometry": { "type": "Point", "coordinates": [ 140.340684799999963, 38.2604744 ] } },
{ "type": "Feature", "properties": { "内容": "特別養護老人ホーム成島園【介護老人福祉施設】山形県米沢市広幡町成島字窪平山2120番地5", "url": "https://www.kaigokensaku.mhlw.go.jp/06/index.php?action_kouhyou_detail_004_kani=true&JigyosyoCd=0670400373-00&ServiceCd=510&Type=search", "url2": "http://narusimaen.org/" }, "geometry": { "type": "Point", "coordinates": [ 140.077845499999967, 37.9346819 ] } },
{ "type": "Feature", "properties": { "内容": "特別養護老人ホーム成島園【介護老人福祉施設】山形県米沢市広幡町成島字窪平山2120番地5", "url": "https://www.kaigokensaku.mhlw.go.jp/06/index.php?action_kouhyou_detail_004_kani=true&JigyosyoCd=0670401702-00&ServiceCd=510&Type=search", "url2": "http://narusimaen.org/" }, "geometry": { "type": "Point", "coordinates": [ 140.077845499999967, 37.934681900000015 ] } },
{ "type": "Feature", "properties": { "内容": "特別養護老人ホーム回春堂【介護老人福祉施設】米沢市大字花沢2986番地の1", "url": "https://www.kaigokensaku.mhlw.go.jp/06/index.php?action_kouhyou_detail_004_kani=true&JigyosyoCd=0670401637-00&ServiceCd=510&Type=search", "url2": "https://kaisyundo.jp/" }, "geometry": { "type": "Point", "coordinates": [ 140.123869199999945, 37.9221709 ] } },
{ "type": "Feature", "properties": { "内容": "特別養護老人ホームサンファミリア米沢【介護老人福祉施設】山形県米沢市塩井町塩野520", "url": "https://www.kaigokensaku.mhlw.go.jp/06/index.php?action_kouhyou_detail_004_kani=true&JigyosyoCd=0670400696-00&ServiceCd=510&Type=search", "url2": "http://www.y-kouwakai.jp" }, "geometry": { "type": "Point", "coordinates": [ 140.110599586508187, 37.928365898511991 ] } },
{ "type": "Feature", "properties": { "内容": "おいたまの郷指定介護老人福祉施設【介護老人福祉施設】米沢市下新田２８番地", "url": "https://www.kaigokensaku.mhlw.go.jp/06/index.php?action_kouhyou_detail_004_kani=true&JigyosyoCd=0670400472-00&ServiceCd=510&Type=search", "url2": "http://oitamanosato.jp" }, "geometry": { "type": "Point", "coordinates": [ 140.148228300000028, 37.9595032 ] } },
{ "type": "Feature", "properties": { "内容": "おいたまの郷指定介護老人福祉施設【介護老人福祉施設】米沢市下新田２８番地", "url": "https://www.kaigokensaku.mhlw.go.jp/06/index.php?action_kouhyou_detail_004_kani=true&JigyosyoCd=0670401694-00&ServiceCd=510&Type=search", "url2": "http://oitamanosato.jp" }, "geometry": { "type": "Point", "coordinates": [ 140.148228300000028, 37.9595032 ] } },
{ "type": "Feature", "properties": { "内容": "特別養護老人ホーム万世園【介護老人福祉施設】山形県米沢市万世町牛森4172-5", "url": "https://www.kaigokensaku.mhlw.go.jp/06/index.php?action_kouhyou_detail_004_kani=true&JigyosyoCd=0670400381-00&ServiceCd=510&Type=search", "url2": "https://eikounosato.com" }, "geometry": { "type": "Point", "coordinates": [ 140.205770499999971, 37.8853267 ] } },
{ "type": "Feature", "properties": { "内容": "特別養護老人ホーム花の里【介護老人福祉施設】山形県米沢市大字笹野170番地", "url": "https://www.kaigokensaku.mhlw.go.jp/06/index.php?action_kouhyou_detail_004_kani=true&JigyosyoCd=0670402254-00&ServiceCd=510&Type=search", "url2": "https://suhamakai.or.jp" }, "geometry": { "type": "Point", "coordinates": [ 140.111257, 37.8769795 ] } },
{ "type": "Feature", "properties": { "内容": "特別養護老人ホームかたくり荘【介護老人福祉施設】山形県鶴岡市熊出字東村157-2", "url": "https://www.kaigokensaku.mhlw.go.jp/06/index.php?action_kouhyou_detail_004_kani=true&JigyosyoCd=0673000360-00&ServiceCd=510&Type=search", "url2": "http://care-net.biz/06/bunanoki/" }, "geometry": { "type": "Point", "coordinates": [ 139.85006020000003, 38.6339028 ] } },
{ "type": "Feature", "properties": { "内容": "特別養護老人ホームかたくり荘（ユニット型）【介護老人福祉施設】山形県鶴岡市熊出字東村157－2", "url": "https://www.kaigokensaku.mhlw.go.jp/06/index.php?action_kouhyou_detail_004_kani=true&JigyosyoCd=0670701846-00&ServiceCd=510&Type=search", "url2": "http//care-net:biz/06/bunanoki" }, "geometry": { "type": "Point", "coordinates": [ 139.850026800000023, 38.6339112 ] } },
{ "type": "Feature", "properties": { "内容": "特別養護老人ホーム　しおん荘【介護老人福祉施設】山形県鶴岡市湯野浜1丁目17番35号", "url": "https://www.kaigokensaku.mhlw.go.jp/06/index.php?action_kouhyou_detail_004_kani=true&JigyosyoCd=0670700384-00&ServiceCd=510&Type=search", "url2": "https://www.sionkai.or.jp/index.php" }, "geometry": { "type": "Point", "coordinates": [ 139.7572685, 38.7858995 ] } },
{ "type": "Feature", "properties": { "内容": "特別養護老人ホーム温寿荘【介護老人福祉施設】山形県鶴岡市槙代丁53番地1", "url": "https://www.kaigokensaku.mhlw.go.jp/06/index.php?action_kouhyou_detail_004_kani=true&JigyosyoCd=0673100079-00&ServiceCd=510&Type=search", "url2": "http://atumifukusikai.jp" }, "geometry": { "type": "Point", "coordinates": [ 139.593908, 38.6012141 ] } },
{ "type": "Feature", "properties": { "内容": "特別養護老人ホームかみじ荘【介護老人福祉施設】山形県鶴岡市羽黒町手向字薬師沢１９８番地３", "url": "https://www.kaigokensaku.mhlw.go.jp/06/index.php?action_kouhyou_detail_004_kani=true&JigyosyoCd=0673000337-00&ServiceCd=510&Type=search", "url2": "https://www.kamiji.or.jp/" }, "geometry": { "type": "Point", "coordinates": [ 139.9411354, 38.7180786 ] } },
{ "type": "Feature", "properties": { "内容": "ユニット型特別養護老人ホームかみじ荘【介護老人福祉施設】山形県鶴岡市羽黒町手向字薬師沢１９８番地３", "url": "https://www.kaigokensaku.mhlw.go.jp/06/index.php?action_kouhyou_detail_004_kani=true&JigyosyoCd=0670701796-00&ServiceCd=510&Type=search", "url2": "https://www.kamiji.or.jp/" }, "geometry": { "type": "Point", "coordinates": [ 139.9411354, 38.7180786 ] } },
{ "type": "Feature", "properties": { "内容": "特別養護老人ホーム桃寿荘【介護老人福祉施設】山形県鶴岡市たらのき代字桃平123番地", "url": "https://www.kaigokensaku.mhlw.go.jp/06/index.php?action_kouhyou_detail_004_kani=true&JigyosyoCd=0673000345-00&ServiceCd=510&Type=search", "url2": "http://kushibiki-fukujukai.or.jp" }, "geometry": { "type": "Point", "coordinates": [ 139.89882769999997, 38.6675743 ] } },
{ "type": "Feature", "properties": { "内容": "ユニット型特別養護老人ホーム桃寿荘【介護老人福祉施設】山形県鶴岡市たらのき代字桃平123番地", "url": "https://www.kaigokensaku.mhlw.go.jp/06/index.php?action_kouhyou_detail_004_kani=true&JigyosyoCd=0670701853-00&ServiceCd=510&Type=search", "url2": "http://kushibiki-fukujukai.or.jp" }, "geometry": { "type": "Point", "coordinates": [ 139.89882769999997, 38.6675743 ] } },
{ "type": "Feature", "properties": { "内容": "特別養護老人ホーム永寿荘【介護老人福祉施設】山形県鶴岡市茅原町２８番１０号", "url": "https://www.kaigokensaku.mhlw.go.jp/06/index.php?action_kouhyou_detail_004_kani=true&JigyosyoCd=0670700400-00&ServiceCd=510&Type=search", "url2": "http://www.keisen-swc.jp" }, "geometry": { "type": "Point", "coordinates": [ 139.842456299999981, 38.7526249 ] } },
{ "type": "Feature", "properties": { "内容": "特別養護老人ホーム　ふじの花荘【介護老人福祉施設】山形県鶴岡市藤の花1丁目１８－１", "url": "https://www.kaigokensaku.mhlw.go.jp/06/index.php?action_kouhyou_detail_004_kani=true&JigyosyoCd=0673000329-00&ServiceCd=510&Type=search", "url2": "http://www.fujino-sato.or.jp" }, "geometry": { "type": "Point", "coordinates": [ 139.908230300000014, 38.7730652 ] } },
{ "type": "Feature", "properties": { "内容": "介護老人福祉施設池幸園【介護老人福祉施設】山形県鶴岡市美原町4-40", "url": "https://www.kaigokensaku.mhlw.go.jp/06/index.php?action_kouhyou_detail_004_kani=true&JigyosyoCd=0670700392-00&ServiceCd=510&Type=search", "url2": "http://ikkoukai.or.jp" }, "geometry": { "type": "Point", "coordinates": [ 139.821573, 38.7220309 ] } },
{ "type": "Feature", "properties": { "内容": "特別養護老人ホームおおやま【介護老人福祉施設】鶴岡市大山三丁目34番1号", "url": "https://www.kaigokensaku.mhlw.go.jp/06/index.php?action_kouhyou_detail_004_kani=true&JigyosyoCd=0670702117-00&ServiceCd=510&Type=search", "url2": "https://www.shk01.jp" }, "geometry": { "type": "Point", "coordinates": [ 139.7642621, 38.7512063 ] } },
{ "type": "Feature", "properties": { "内容": "特別養護老人ホーム幸楽荘【介護老人福祉施設】山形県酒田市小泉字前田50番地", "url": "https://www.kaigokensaku.mhlw.go.jp/06/index.php?action_kouhyou_detail_004_kani=true&JigyosyoCd=0673200242-00&ServiceCd=510&Type=search", "url2": "http://www.kourakusou/.or.jp" }, "geometry": { "type": "Point", "coordinates": [ 139.935316400000033, 38.9693143 ] } },
{ "type": "Feature", "properties": { "内容": "特別養護老人ホーム　芙蓉荘【介護老人福祉施設】山形県酒田市宮野浦3-20-1", "url": "https://www.kaigokensaku.mhlw.go.jp/06/index.php?action_kouhyou_detail_004_kani=true&JigyosyoCd=0670800382-00&ServiceCd=510&Type=search", "url2": "http://www.koufukai.or.jp" }, "geometry": { "type": "Point", "coordinates": [ 139.811261599999966, 38.9141242 ] } },
{ "type": "Feature", "properties": { "内容": "特別養護老人ホーム　かたばみ荘【介護老人福祉施設】山形県酒田市北千日堂前字松境18番1", "url": "https://www.kaigokensaku.mhlw.go.jp/06/index.php?action_kouhyou_detail_004_kani=true&JigyosyoCd=0670800416-00&ServiceCd=510&Type=search", "url2": "https://www.katabamisou.jp/" }, "geometry": { "type": "Point", "coordinates": [ 139.8345286, 38.9366504 ] } },
{ "type": "Feature", "properties": { "内容": "特別養護老人ホーム寿康園【介護老人福祉施設】山形県酒田市楢橋字大柳3番地1", "url": "https://www.kaigokensaku.mhlw.go.jp/06/index.php?action_kouhyou_detail_004_kani=true&JigyosyoCd=0673200267-00&ServiceCd=510&Type=search", "url2": "www.hirata.or.jp/" }, "geometry": { "type": "Point", "coordinates": [ 139.95027529999993, 38.8923249 ] } },
{ "type": "Feature", "properties": { "内容": "特別養護老人ホーム寿康園【介護老人福祉施設】山形県酒田市楢橋字大柳３番地１", "url": "https://www.kaigokensaku.mhlw.go.jp/06/index.php?action_kouhyou_detail_004_kani=true&JigyosyoCd=0670801737-00&ServiceCd=510&Type=search", "url2": "www.hirata.or.jp/" }, "geometry": { "type": "Point", "coordinates": [ 139.95027529999993, 38.8923249 ] } },
{ "type": "Feature", "properties": { "内容": "特別養護老人ホームさくらホーム広野【介護老人福祉施設】山形県酒田市広野字末広１０２－１", "url": "https://www.kaigokensaku.mhlw.go.jp/06/index.php?action_kouhyou_detail_004_kani=true&JigyosyoCd=0670800911-00&ServiceCd=510&Type=search", "url2": "http://www.sakura-welfare.jp/" }, "geometry": { "type": "Point", "coordinates": [ 139.847274199999987, 38.84888 ] } },
{ "type": "Feature", "properties": { "内容": "特別養護老人ホームさくらホーム【介護老人福祉施設】山形県酒田市中牧田字丸福171番地", "url": "https://www.kaigokensaku.mhlw.go.jp/06/index.php?action_kouhyou_detail_004_kani=true&JigyosyoCd=0673200259-00&ServiceCd=510&Type=search", "url2": "http://www.sakura-welfare.jp/" }, "geometry": { "type": "Point", "coordinates": [ 139.9395763, 38.87521 ] } },
{ "type": "Feature", "properties": { "内容": "特別養護老人ホーム　サン・シティ【介護老人福祉施設】山形県酒田市曙町二丁目26番地の1", "url": "https://www.kaigokensaku.mhlw.go.jp/06/index.php?action_kouhyou_detail_004_kani=true&JigyosyoCd=0670800390-00&ServiceCd=510&Type=search", "url2": "http://www4.ocn.ne.jp/~suncity" }, "geometry": { "type": "Point", "coordinates": [ 139.864365799999973, 38.9195529 ] } },
{ "type": "Feature", "properties": { "内容": "特別養護老人ホームライフケア黒森【介護老人福祉施設】山形県酒田市黒森字葭葉山54番10", "url": "https://www.kaigokensaku.mhlw.go.jp/06/index.php?action_kouhyou_detail_004_kani=true&JigyosyoCd=0670800408-00&ServiceCd=510&Type=search", "url2": "http://syokaku-lc.com" }, "geometry": { "type": "Point", "coordinates": [ 139.81717679999997, 38.8530683 ] } },
{ "type": "Feature", "properties": { "内容": "特別養護老人ホーム「かつろくの里」【介護老人福祉施設】山形県新庄市金沢字西ノ山3027-10", "url": "https://www.kaigokensaku.mhlw.go.jp/06/index.php?action_kouhyou_detail_004_kani=true&JigyosyoCd=0671100287-00&ServiceCd=510&Type=search", "url2": "https://katsuroku.jp" }, "geometry": { "type": "Point", "coordinates": [ 140.337402699999984, 38.7729627 ] } },
{ "type": "Feature", "properties": { "内容": "特別養護老人ホーム「かつろくの里」（ユニット型）【介護老人福祉施設】山形県新庄市金沢字西ノ山3027-10", "url": "https://www.kaigokensaku.mhlw.go.jp/06/index.php?action_kouhyou_detail_004_kani=true&JigyosyoCd=0671101129-00&ServiceCd=510&Type=search", "url2": null }, "geometry": { "type": "Point", "coordinates": [ 140.337402699999984, 38.7729627 ] } },
{ "type": "Feature", "properties": { "内容": "特別養護老人ホーム「みどりの大地」【介護老人福祉施設】山形県新庄市沖の町1-20", "url": "https://www.kaigokensaku.mhlw.go.jp/06/index.php?action_kouhyou_detail_004_kani=true&JigyosyoCd=0671101111-00&ServiceCd=510&Type=search", "url2": "ｈｔｔｐｓ：//ｋａｔｓｕｒｏｋｕ.ｊｐ/ｄａｉｃｈｉ.ｈｔｍｌ" }, "geometry": { "type": "Point", "coordinates": [ 140.304277360713172, 38.763822582816346 ] } },
{ "type": "Feature", "properties": { "内容": "特別養護老人ホーム　新寿荘【介護老人福祉施設】新庄市大字本合海字福田界２６４５番地", "url": "https://www.kaigokensaku.mhlw.go.jp/06/index.php?action_kouhyou_detail_004_kani=true&JigyosyoCd=0671100139-00&ServiceCd=510&Type=search", "url2": "http://www.shinjyukai.or.jp/" }, "geometry": { "type": "Point", "coordinates": [ 140.301608399999964, 38.7650154 ] } },
{ "type": "Feature", "properties": { "内容": "特別養護老人ホーム　長生園【介護老人福祉施設】寒河江市大字柴橋２２４６－１", "url": "https://www.kaigokensaku.mhlw.go.jp/06/index.php?action_kouhyou_detail_004_kani=true&JigyosyoCd=0671200145-00&ServiceCd=510&Type=search", "url2": "http://www.chouseien.or.jp" }, "geometry": { "type": "Point", "coordinates": [ 140.254449600000044, 38.3697503 ] } },
{ "type": "Feature", "properties": { "内容": "ユニット型特別養護老人ホーム長生園【介護老人福祉施設】山形県寒河江市大字柴橋2246番地の1", "url": "https://www.kaigokensaku.mhlw.go.jp/06/index.php?action_kouhyou_detail_004_kani=true&JigyosyoCd=0671200699-00&ServiceCd=510&Type=search", "url2": "https://www.chouseien.or.jp/" }, "geometry": { "type": "Point", "coordinates": [ 140.2543364, 38.3697883 ] } },
{ "type": "Feature", "properties": { "内容": "特別養護老人ホームいずみ【介護老人福祉施設】山形県寒河江市字上河原２４１番地", "url": "https://www.kaigokensaku.mhlw.go.jp/06/index.php?action_kouhyou_detail_004_kani=true&JigyosyoCd=0671200152-00&ServiceCd=510&Type=search", "url2": "http://www.sagae-yuuyuukai.org" }, "geometry": { "type": "Point", "coordinates": [ 140.278882599999946, 38.4004807 ] } },
{ "type": "Feature", "properties": { "内容": "特別養護老人ホーム　しらいわ【介護老人福祉施設】山形県寒河江市大字白岩６３２４番地", "url": "https://www.kaigokensaku.mhlw.go.jp/06/index.php?action_kouhyou_detail_004_kani=true&JigyosyoCd=0671200368-00&ServiceCd=510&Type=search", "url2": "https://www.sagae-yuuyuukai.org/" }, "geometry": { "type": "Point", "coordinates": [ 140.220038299999942, 38.4099113 ] } },
{ "type": "Feature", "properties": { "内容": "特別養護老人ホームみずほの里【介護老人福祉施設】山形県上山市牧野字清水２１－１", "url": "https://www.kaigokensaku.mhlw.go.jp/06/index.php?action_kouhyou_detail_004_kani=true&JigyosyoCd=0671300200-00&ServiceCd=510&Type=search", "url2": "http://miyuki-fukushi.jp/" }, "geometry": { "type": "Point", "coordinates": [ 140.301631300000054, 38.1158696 ] } },
{ "type": "Feature", "properties": { "内容": "特別養護老人ホーム蓬仙園【介護老人福祉施設】山形県上山市金谷字藤木2401", "url": "https://www.kaigokensaku.mhlw.go.jp/06/index.php?action_kouhyou_detail_004_kani=true&JigyosyoCd=0671300150-00&ServiceCd=510&Type=search", "url2": "http://kaijukai.jp" }, "geometry": { "type": "Point", "coordinates": [ 140.300364633357106, 38.164626126934202 ] } },
{ "type": "Feature", "properties": { "内容": "特別養護老人ホームひがしざわ【介護老人福祉施設】山形県村山市楯岡笛田二丁目１９番５７号", "url": "https://www.kaigokensaku.mhlw.go.jp/06/index.php?action_kouhyou_detail_004_kani=true&JigyosyoCd=0671400232-00&ServiceCd=510&Type=search", "url2": "http://kjg-net.jp/" }, "geometry": { "type": "Point", "coordinates": [ 140.403661599999964, 38.4794836 ] } },
{ "type": "Feature", "properties": { "内容": "特別養護老人ホームふもと【介護老人福祉施設】村山市大字湯野沢956番地の3", "url": "https://www.kaigokensaku.mhlw.go.jp/06/index.php?action_kouhyou_detail_004_kani=true&JigyosyoCd=0671400117-00&ServiceCd=510&Type=search", "url2": "http://murayama-hikari-kouseikai.jp/" }, "geometry": { "type": "Point", "coordinates": [ 140.307155200000011, 38.4621504 ] } },
{ "type": "Feature", "properties": { "内容": "特別養護老人ホーム寿泉荘【介護老人福祉施設】長井市今泉１８５７", "url": "https://www.kaigokensaku.mhlw.go.jp/06/index.php?action_kouhyou_detail_004_kani=true&JigyosyoCd=0671500213-00&ServiceCd=510&Type=search", "url2": "http://www.ysj.or.jp/" }, "geometry": { "type": "Point", "coordinates": [ 140.054105943176637, 38.058108244266627 ] } },
{ "type": "Feature", "properties": { "内容": "特別養護老人ホーム慈光園【介護老人福祉施設】山形県長井市小出3453番地", "url": "https://www.kaigokensaku.mhlw.go.jp/06/index.php?action_kouhyou_detail_004_kani=true&JigyosyoCd=0671500122-00&ServiceCd=510&Type=search", "url2": "http://www2.jan.ne.jp/~jikouen1/" }, "geometry": { "type": "Point", "coordinates": [ 140.04986729999996, 38.1093409 ] } },
{ "type": "Feature", "properties": { "内容": "特別養護老人ホームさくらホーム天童【介護老人福祉施設】山形県天童市芳賀タウン南四丁目8番3号", "url": "https://www.kaigokensaku.mhlw.go.jp/06/index.php?action_kouhyou_detail_004_kani=true&JigyosyoCd=0671601011-00&ServiceCd=510&Type=search", "url2": "http://www.sakura-welfare.jp/" }, "geometry": { "type": "Point", "coordinates": [ 140.358970703843625, 38.340659363377576 ] } },
{ "type": "Feature", "properties": { "内容": "特別養護老人ホームあこがれ【介護老人福祉施設】天童市大字荒谷1973番地1345", "url": "https://www.kaigokensaku.mhlw.go.jp/06/index.php?action_kouhyou_detail_004_kani=true&JigyosyoCd=0671600336-00&ServiceCd=510&Type=search", "url2": null }, "geometry": { "type": "Point", "coordinates": [ 140.387124699999958, 38.3273018 ] } },
{ "type": "Feature", "properties": { "内容": "特別養護老人ホーム清幸園【介護老人福祉施設】天童市大清水４９１番地１", "url": "https://www.kaigokensaku.mhlw.go.jp/06/index.php?action_kouhyou_detail_004_kani=true&JigyosyoCd=0671600203-00&ServiceCd=510&Type=search", "url2": "https://www.tendo-seikouen.org/" }, "geometry": { "type": "Point", "coordinates": [ 140.352755800000068, 38.3875423 ] } },
{ "type": "Feature", "properties": { "内容": "特別養護老人ホーム明幸園【介護老人福祉施設】山形県天童市大字矢野目150番地", "url": "https://www.kaigokensaku.mhlw.go.jp/06/index.php?action_kouhyou_detail_004_kani=true&JigyosyoCd=0671600237-00&ServiceCd=510&Type=search", "url2": "http://www.meikouen.or.jp" }, "geometry": { "type": "Point", "coordinates": [ 140.350452, 38.3531371 ] } },
{ "type": "Feature", "properties": { "内容": "特別養護老人ホーム第二白水荘【介護老人福祉施設】東根市大字蟹沢897-1", "url": "https://www.kaigokensaku.mhlw.go.jp/06/index.php?action_kouhyou_detail_004_kani=true&JigyosyoCd=0671700193-00&ServiceCd=510&Type=search", "url2": "http://www.higashine-fukushikai.org" }, "geometry": { "type": "Point", "coordinates": [ 140.3693611, 38.4442363 ] } },
{ "type": "Feature", "properties": { "内容": "特別養護老人ホーム白水荘【介護老人福祉施設】山形県東根市大字野川2074番地の99", "url": "https://www.kaigokensaku.mhlw.go.jp/06/index.php?action_kouhyou_detail_004_kani=true&JigyosyoCd=0671700185-00&ServiceCd=510&Type=search", "url2": "http://www.higashine-fukushikai.org" }, "geometry": { "type": "Point", "coordinates": [ 140.431599300000016, 38.4087471 ] } },
{ "type": "Feature", "properties": { "内容": "特別養護老人ホームソーレ東根【介護老人福祉施設】山形県東根市温泉町二丁目５番３－５号", "url": "https://www.kaigokensaku.mhlw.go.jp/06/index.php?action_kouhyou_detail_004_kani=true&JigyosyoCd=0671700433-00&ServiceCd=510&Type=search", "url2": "https://taiyo-fukushikai.jp/" }, "geometry": { "type": "Point", "coordinates": [ 140.388160299999953, 38.4600765 ] } },
{ "type": "Feature", "properties": { "内容": "特別養護老人ホームおおとみ【介護老人福祉施設】山形県東根市大字羽入2072番地1", "url": "https://www.kaigokensaku.mhlw.go.jp/06/index.php?action_kouhyou_detail_004_kani=true&JigyosyoCd=0671700607-00&ServiceCd=510&Type=search", "url2": "http://utoria-kai.com/" }, "geometry": { "type": "Point", "coordinates": [ 140.361324303869992, 38.408237201466754 ] } },
{ "type": "Feature", "properties": { "内容": "特別養護老人ホームおさなぎ【介護老人福祉施設】山形県東根市中島通り一丁目25号", "url": "https://www.kaigokensaku.mhlw.go.jp/06/index.php?action_kouhyou_detail_004_kani=true&JigyosyoCd=0671700326-00&ServiceCd=510&Type=search", "url2": "https://ims-tohoku.com>osanagi" }, "geometry": { "type": "Point", "coordinates": [ 140.402843299999972, 38.411682 ] } },
{ "type": "Feature", "properties": { "内容": "特別養護老人ホーム長寿園【介護老人福祉施設】尾花沢市新町三丁目２番２１号", "url": "https://www.kaigokensaku.mhlw.go.jp/06/index.php?action_kouhyou_detail_004_kani=true&JigyosyoCd=0671800092-00&ServiceCd=510&Type=search", "url2": "http://www.tokurakai.jp/" }, "geometry": { "type": "Point", "coordinates": [ 140.415172154630994, 38.604468906669354 ] } },
{ "type": "Feature", "properties": { "内容": "特別養護老人ホーム　よつば荘【介護老人福祉施設】山形県尾花沢市大字荻袋１２８７番地２０", "url": "https://www.kaigokensaku.mhlw.go.jp/06/index.php?action_kouhyou_detail_004_kani=true&JigyosyoCd=0671800274-00&ServiceCd=510&Type=search", "url2": "https://www.yotsubasou-kaigo.com" }, "geometry": { "type": "Point", "coordinates": [ 140.381350426844847, 38.624356437503401 ] } },
{ "type": "Feature", "properties": { "内容": "特別養護老人ホームおばなざわ【介護老人福祉施設】山形県尾花沢市大字五十沢186番地", "url": "https://www.kaigokensaku.mhlw.go.jp/06/index.php?action_kouhyou_detail_004_kani=true&JigyosyoCd=0671800241-00&ServiceCd=510&Type=search", "url2": "http://kjg-net.jp/index.php" }, "geometry": { "type": "Point", "coordinates": [ 140.403383500000018, 38.5852322 ] } },
{ "type": "Feature", "properties": { "内容": "特別養護老人ホーム太陽の里ふたば【介護老人福祉施設】山形県南陽市宮内２３８１番地", "url": "https://www.kaigokensaku.mhlw.go.jp/06/index.php?action_kouhyou_detail_004_kani=true&JigyosyoCd=0671900132-00&ServiceCd=510&Type=search", "url2": "http://futaba-nanyo.sakura.ne.jp" }, "geometry": { "type": "Point", "coordinates": [ 140.145107899999971, 38.072678 ] } },
{ "type": "Feature", "properties": { "内容": "特別養護老人ホームこぶし荘【介護老人福祉施設】山形県南陽市川樋508番地", "url": "https://www.kaigokensaku.mhlw.go.jp/06/index.php?action_kouhyou_detail_004_kani=true&JigyosyoCd=0671900082-00&ServiceCd=510&Type=search", "url2": "http://www.kobushiso.jp/" }, "geometry": { "type": "Point", "coordinates": [ 140.194028399999979, 38.0948792 ] } },
{ "type": "Feature", "properties": { "内容": "指定介護老人福祉施設やまのべ荘【介護老人福祉施設】山形県東村山郡山辺町大字大塚８１４番地２", "url": "https://www.kaigokensaku.mhlw.go.jp/06/index.php?action_kouhyou_detail_004_kani=true&JigyosyoCd=0672200151-00&ServiceCd=510&Type=search", "url2": "http://www.yamagata-saiseikai.org" }, "geometry": { "type": "Point", "coordinates": [ 140.27461310000001, 38.2788934 ] } },
{ "type": "Feature", "properties": { "内容": "中山ひまわり荘指定介護老人福祉施設【介護老人福祉施設】山形県東村山郡中山町大字柳沢2333番地", "url": "https://www.kaigokensaku.mhlw.go.jp/06/index.php?action_kouhyou_detail_004_kani=true&JigyosyoCd=0672200169-00&ServiceCd=510&Type=search", "url2": "https://www.nakayama-himawariso.jp/" }, "geometry": { "type": "Point", "coordinates": [ 140.259755700000028, 38.3292051 ] } },
{ "type": "Feature", "properties": { "内容": "特別養護老人ホーム眺葉園【介護老人福祉施設】山形県西村山郡河北町谷地字東680番地", "url": "https://www.kaigokensaku.mhlw.go.jp/06/index.php?action_kouhyou_detail_004_kani=true&JigyosyoCd=0672300266-00&ServiceCd=510&Type=search", "url2": "http://www.tyoyoen.jp" }, "geometry": { "type": "Point", "coordinates": [ 140.322809744041507, 38.424727226398943 ] } },
{ "type": "Feature", "properties": { "内容": "特別養護老人ホーム眺葉園【介護老人福祉施設】山形県西村山郡河北町谷地字東680番地", "url": "https://www.kaigokensaku.mhlw.go.jp/06/index.php?action_kouhyou_detail_004_kani=true&JigyosyoCd=0672300605-00&ServiceCd=510&Type=search", "url2": "http://www.tyoyoen.jp" }, "geometry": { "type": "Point", "coordinates": [ 140.322782921951358, 38.42474403688027 ] } },
{ "type": "Feature", "properties": { "内容": "特別養護老人ホームケアハイツ西川【介護老人福祉施設】山形県西村山郡西川町大字海味548", "url": "https://www.kaigokensaku.mhlw.go.jp/06/index.php?action_kouhyou_detail_004_kani=true&JigyosyoCd=0672300274-00&ServiceCd=510&Type=search", "url2": "https://care-h-n.or.jp/" }, "geometry": { "type": "Point", "coordinates": [ 140.146147299999939, 38.4268296 ] } },
{ "type": "Feature", "properties": { "内容": "特別養護老人ホームふれあい荘【介護老人福祉施設】山形県西村山郡朝日町大字四ノ沢870", "url": "https://www.kaigokensaku.mhlw.go.jp/06/index.php?action_kouhyou_detail_004_kani=true&JigyosyoCd=0672300282-00&ServiceCd=510&Type=search", "url2": "https://.fureaiso.or.jp" }, "geometry": { "type": "Point", "coordinates": [ 140.1580358, 38.3062199 ] } },
{ "type": "Feature", "properties": { "内容": "盲特別養護老人ホーム　和合荘【介護老人福祉施設】山形県西村山郡朝日町大字和合422番地1", "url": "https://www.kaigokensaku.mhlw.go.jp/06/index.php?action_kouhyou_detail_004_kani=true&JigyosyoCd=0672300670-00&ServiceCd=510&Type=search", "url2": "https://wagousou.jp" }, "geometry": { "type": "Point", "coordinates": [ 140.166815480950959, 38.328290233115595 ] } },
{ "type": "Feature", "properties": { "内容": "特別養護老人ホーム大寿荘【介護老人福祉施設】山形県西村山郡大江町大字藤田８３９－１", "url": "https://www.kaigokensaku.mhlw.go.jp/06/index.php?action_kouhyou_detail_004_kani=true&JigyosyoCd=0672300290-00&ServiceCd=510&Type=search", "url2": "https://www.ysj.or.jp" }, "geometry": { "type": "Point", "coordinates": [ 140.205749500000024, 38.3639111 ] } },
{ "type": "Feature", "properties": { "内容": "特別養護老人ホームらふらんす大江【介護老人福祉施設】山形県西村山郡大江町大字左沢１２７７番地", "url": "https://www.kaigokensaku.mhlw.go.jp/06/index.php?action_kouhyou_detail_004_kani=true&JigyosyoCd=0672300308-00&ServiceCd=510&Type=search", "url2": "http://care-net.biz/06/lafrance-ooe/" }, "geometry": { "type": "Point", "coordinates": [ 140.200496, 38.3843888 ] } },
{ "type": "Feature", "properties": { "内容": "特別養護老人ホーム仁風荘【介護老人福祉施設】山形県北村山郡大石田町大字大石田甲574番地", "url": "https://www.kaigokensaku.mhlw.go.jp/06/index.php?action_kouhyou_detail_004_kani=true&JigyosyoCd=0672400041-00&ServiceCd=510&Type=search", "url2": "https://keitenkai.or.jp" }, "geometry": { "type": "Point", "coordinates": [ 140.376070212194833, 38.599229933401041 ] } },
{ "type": "Feature", "properties": { "内容": "特別養護老人ホーム第二仁風荘【介護老人福祉施設】山形県北村山郡大石田町大字大石田甲574", "url": "https://www.kaigokensaku.mhlw.go.jp/06/index.php?action_kouhyou_detail_004_kani=true&JigyosyoCd=0672400090-00&ServiceCd=510&Type=search", "url2": "https://keitennkai.or.jp" }, "geometry": { "type": "Point", "coordinates": [ 140.375984381506356, 38.59919639381291 ] } },
{ "type": "Feature", "properties": { "内容": "特別養護老人ホーム「みすぎ荘」【介護老人福祉施設】山形県最上郡金山町大字金山字荒屋829番地1", "url": "https://www.kaigokensaku.mhlw.go.jp/06/index.php?action_kouhyou_detail_004_kani=true&JigyosyoCd=0672500303-00&ServiceCd=510&Type=search", "url2": "https://www.kaneyamakouseikai.or.jp/" }, "geometry": { "type": "Point", "coordinates": [ 140.317889, 38.8777591 ] } },
{ "type": "Feature", "properties": { "内容": "特別養護老人ホーム　紅梅荘【介護老人福祉施設】山形県最上郡最上町大字向町73番地の3", "url": "https://www.kaigokensaku.mhlw.go.jp/06/index.php?action_kouhyou_detail_004_kani=true&JigyosyoCd=0672500360-00&ServiceCd=510&Type=search", "url2": "http://www.koubaisou.or.jp/" }, "geometry": { "type": "Point", "coordinates": [ 140.515395355037668, 38.752288179422365 ] } },
{ "type": "Feature", "properties": { "内容": "特別養護老人ホーム紅梅荘（ユニット型）【介護老人福祉施設】山形県最上郡最上町大字向町73-3", "url": "https://www.kaigokensaku.mhlw.go.jp/06/index.php?action_kouhyou_detail_004_kani=true&JigyosyoCd=0672500865-00&ServiceCd=510&Type=search", "url2": "http://www.koubaisou.or.jp/index.php" }, "geometry": { "type": "Point", "coordinates": [ 140.515374970314639, 38.752280649059273 ] } },
{ "type": "Feature", "properties": { "内容": "特別養護老人ホーム　えんじゅ荘【介護老人福祉施設】山形県最上郡舟形町長者原1712－1", "url": "https://www.kaigokensaku.mhlw.go.jp/06/index.php?action_kouhyou_detail_004_kani=true&JigyosyoCd=0672500220-00&ServiceCd=510&Type=search", "url2": "http://shuwakai.jp/" }, "geometry": { "type": "Point", "coordinates": [ 140.299236625347561, 38.700153481714885 ] } },
{ "type": "Feature", "properties": { "内容": "特別養護老人ホーム「悠悠」【介護老人福祉施設】山形県最上郡真室川町大字新町４６９番５", "url": "https://www.kaigokensaku.mhlw.go.jp/06/index.php?action_kouhyou_detail_004_kani=true&JigyosyoCd=0672500444-00&ServiceCd=510&Type=search", "url2": null }, "geometry": { "type": "Point", "coordinates": [ 140.247746618420052, 38.851472218284371 ] } },
{ "type": "Feature", "properties": { "内容": "特別養護老人ホーム福寿荘【介護老人福祉施設】山形県最上郡真室川町大字木ノ下1101番１", "url": "https://www.kaigokensaku.mhlw.go.jp/06/index.php?action_kouhyou_detail_004_kani=true&JigyosyoCd=0672500378-00&ServiceCd=510&Type=search", "url2": null }, "geometry": { "type": "Point", "coordinates": [ 140.240445799999947, 38.8636527 ] } },
{ "type": "Feature", "properties": { "内容": "特別養護老人ホーム　翠明荘【介護老人福祉施設】山形県最上郡大蔵村大字清水3137番地60", "url": "https://www.kaigokensaku.mhlw.go.jp/06/index.php?action_kouhyou_detail_004_kani=true&JigyosyoCd=0672500386-00&ServiceCd=510&Type=search", "url2": "https://www.suimeisou.net" }, "geometry": { "type": "Point", "coordinates": [ 140.232496200000014, 38.694706 ] } },
{ "type": "Feature", "properties": { "内容": "特別養護老人ホームひめゆり荘【介護老人福祉施設】山形県最上郡鮭川村大字石名坂５８９番７", "url": "https://www.kaigokensaku.mhlw.go.jp/06/index.php?action_kouhyou_detail_004_kani=true&JigyosyoCd=0672500394-00&ServiceCd=510&Type=search", "url2": null }, "geometry": { "type": "Point", "coordinates": [ 140.287418300000013, 38.835377 ] } },
{ "type": "Feature", "properties": { "内容": "特別養護老人ホ－ム　まごころ荘【介護老人福祉施設】山形県最上郡戸沢村大字蔵岡２７５９番地", "url": "https://www.kaigokensaku.mhlw.go.jp/06/index.php?action_kouhyou_detail_004_kani=true&JigyosyoCd=0672500402-00&ServiceCd=510&Type=search", "url2": "http://www.seiryu-magokoro.or.jp/" }, "geometry": { "type": "Point", "coordinates": [ 140.174456500000019, 38.7350822 ] } },
{ "type": "Feature", "properties": { "内容": "特別養護老人ホーム　はとみね荘【介護老人福祉施設】山形県東置賜郡高畠町大字高畠303番地", "url": "https://www.kaigokensaku.mhlw.go.jp/06/index.php?action_kouhyou_detail_004_kani=true&JigyosyoCd=0672600095-00&ServiceCd=510&Type=search", "url2": "http://www.shoufukai.net/" }, "geometry": { "type": "Point", "coordinates": [ 140.190421199999946, 38.0002755 ] } },
{ "type": "Feature", "properties": { "内容": "特別養護老人ホーム　たかはた荘【介護老人福祉施設】山形県東置賜郡高畠町大字高畠３０３番地の１", "url": "https://www.kaigokensaku.mhlw.go.jp/06/index.php?action_kouhyou_detail_004_kani=true&JigyosyoCd=0672600376-00&ServiceCd=510&Type=search", "url2": "http://www.shoufukai.net/" }, "geometry": { "type": "Point", "coordinates": [ 140.190549, 38.0007004 ] } },
{ "type": "Feature", "properties": { "内容": "特別養護老人ホームまほろば荘【介護老人福祉施設】山形県東置賜郡高畠町大字福沢705-1", "url": "https://www.kaigokensaku.mhlw.go.jp/06/index.php?action_kouhyou_detail_004_kani=true&JigyosyoCd=0672600061-00&ServiceCd=510&Type=search", "url2": "https://www.shoufukai.net/" }, "geometry": { "type": "Point", "coordinates": [ 140.154223600000023, 37.9958165 ] } },
{ "type": "Feature", "properties": { "内容": "特別養護老人ホームそよ風の森【介護老人福祉施設】山形県東置賜郡川西町大字時田　1417番地特別養護老人ホーム　　そよ風の森", "url": "https://www.kaigokensaku.mhlw.go.jp/06/index.php?action_kouhyou_detail_004_kani=true&JigyosyoCd=0672600152-00&ServiceCd=510&Type=search", "url2": "https://soyokazenomori.jp/" }, "geometry": { "type": "Point", "coordinates": [ 140.0637246, 37.9846291 ] } },
{ "type": "Feature", "properties": { "内容": "特別養護老人ホームさいわい荘【介護老人福祉施設】山形県西置賜郡小国町大字岩井沢563番地1", "url": "https://www.kaigokensaku.mhlw.go.jp/06/index.php?action_kouhyou_detail_004_kani=true&JigyosyoCd=0672700150-00&ServiceCd=510&Type=search", "url2": "https://saiwaiso.jp/" }, "geometry": { "type": "Point", "coordinates": [ 139.7536692, 38.0582974 ] } },
{ "type": "Feature", "properties": { "内容": "特別養護老人ホーム白光園【介護老人福祉施設】山形県西置賜郡白鷹町大字鮎貝１０８番地", "url": "https://www.kaigokensaku.mhlw.go.jp/06/index.php?action_kouhyou_detail_004_kani=true&JigyosyoCd=0672700143-00&ServiceCd=510&Type=search", "url2": "http://www.shirafuku.jp/" }, "geometry": { "type": "Point", "coordinates": [ 140.065620480291386, 38.183101999636754 ] } },
{ "type": "Feature", "properties": { "内容": "特別養護老人ホームひめさゆり荘【介護老人福祉施設】山形県西置賜郡飯豊町大字添川3514番地82", "url": "https://www.kaigokensaku.mhlw.go.jp/06/index.php?action_kouhyou_detail_004_kani=true&JigyosyoCd=0672700176-00&ServiceCd=510&Type=search", "url2": "http://himesayurisou.jp" }, "geometry": { "type": "Point", "coordinates": [ 140.029609, 38.0297904 ] } },
{ "type": "Feature", "properties": { "内容": "指定介護老人福祉施設特別養護老人ホームなの花荘【介護老人福祉施設】山形県東田川郡三川町大字横山字堤189番地2", "url": "https://www.kaigokensaku.mhlw.go.jp/06/index.php?action_kouhyou_detail_004_kani=true&JigyosyoCd=0673000352-00&ServiceCd=510&Type=search", "url2": "https://www.nanohanaso.or.jp" }, "geometry": { "type": "Point", "coordinates": [ 139.8493075, 38.7817436 ] } },
{ "type": "Feature", "properties": { "内容": "特別養護老人ホームソラーナ【介護老人福祉施設】山形県東田川郡庄内町南野字北野100-2", "url": "https://www.kaigokensaku.mhlw.go.jp/06/index.php?action_kouhyou_detail_004_kani=true&JigyosyoCd=0673000311-00&ServiceCd=510&Type=search", "url2": "http://www.minori-f.or.jp/" }, "geometry": { "type": "Point", "coordinates": [ 139.9420983, 38.8160276 ] } },
{ "type": "Feature", "properties": { "内容": "特別養護老人ホーム山水園【介護老人福祉施設】山形県東田川郡庄内町狩川字笠山４３３番地３", "url": "https://www.kaigokensaku.mhlw.go.jp/06/index.php?action_kouhyou_detail_004_kani=true&JigyosyoCd=0673000303-00&ServiceCd=510&Type=search", "url2": "https://www.tk-kouseikai.or.jp/" }, "geometry": { "type": "Point", "coordinates": [ 139.9681306, 38.7823987 ] } },
{ "type": "Feature", "properties": { "内容": "特別養護老人ホームゆうすい【介護老人福祉施設】山形県飽海郡遊佐町遊佐字木ノ下2", "url": "https://www.kaigokensaku.mhlw.go.jp/06/index.php?action_kouhyou_detail_004_kani=true&JigyosyoCd=0673200234-00&ServiceCd=510&Type=search", "url2": "https://www.yuzakouseikai.or.jp/yusui/" }, "geometry": { "type": "Point", "coordinates": [ 139.919036900000037, 39.0112776 ] } },
{ "type": "Feature", "properties": { "内容": "特別養護老人ホームゆうすい【介護老人福祉施設】山形県飽海郡遊佐町遊佐字木ノ下2番地", "url": "https://www.kaigokensaku.mhlw.go.jp/06/index.php?action_kouhyou_detail_004_kani=true&JigyosyoCd=0673200523-00&ServiceCd=510&Type=search", "url2": "https://www.yuzakouseikai.or.jp/yusui/" }, "geometry": { "type": "Point", "coordinates": [ 139.919036900000037, 39.0112776 ] } },
{ "type": "Feature", "properties": { "内容": "特別養護老人ホーム　松濤荘【介護老人福祉施設】飽海郡遊佐町菅里字菅野南山７番地１", "url": "https://www.kaigokensaku.mhlw.go.jp/06/index.php?action_kouhyou_detail_004_kani=true&JigyosyoCd=0673200226-00&ServiceCd=510&Type=search", "url2": "http://www.ysj.or.jp/home/matsunami/inndex.html" }, "geometry": { "type": "Point", "coordinates": [ 139.878132, 39.0467673 ] } }
]
}
