{
"type": "FeatureCollection",
"name": "geo_6_4",
"crs": { "type": "name", "properties": { "name": "urn:ogc:def:crs:OGC:1.3:CRS84" } },
"features": [
{ "type": "Feature", "properties": { "ID": 64499530001, "正式名称": "エンジェル助産院さいとう母乳育児相談所", "機関区分": 4, "都道府県コード": 6, "市区町村コード": 201, "所在地": "山形県山形市青田２－３－２１", "緯度": 38.22532, "経度": 140.334148, "url": "https://www.iryou.teikyouseido.mhlw.go.jp/znk-web/juminkanja/S2430/initialize?prefCd=06&kikanCd=4499530001&kikanKbn=4", "url2": "http://www.angelnet.biz", "内容": "エンジェル助産院さいとう母乳育児相談所【4:助産院】山形県山形市青田２－３－２１" }, "geometry": { "type": "Point", "coordinates": [ 140.334148, 38.22532 ] } },
{ "type": "Feature", "properties": { "ID": 64499530004, "正式名称": "わたなべ助産院", "機関区分": 4, "都道府県コード": 6, "市区町村コード": 201, "所在地": "山形県山形市成沢西２丁目５番１号フォレスト１　１０１", "緯度": 38.211631, "経度": 140.313236, "url": "https://www.iryou.teikyouseido.mhlw.go.jp/znk-web/juminkanja/S2430/initialize?prefCd=06&kikanCd=4499530004&kikanKbn=4", "url2": "https://sites.google.com/view/watanabe-jyosannin?usp=sharing", "内容": "わたなべ助産院【4:助産院】山形県山形市成沢西２丁目５番１号フォレスト１　１０１" }, "geometry": { "type": "Point", "coordinates": [ 140.313236, 38.211631 ] } },
{ "type": "Feature", "properties": { "ID": 64499530010, "正式名称": "訪問型母乳育児サポート「助産師のひとみさん」（出張のみ）", "機関区分": 4, "都道府県コード": 6, "市区町村コード": 201, "所在地": "山形県山形市", "緯度": 38.255415, "経度": 140.339617, "url": "https://www.iryou.teikyouseido.mhlw.go.jp/znk-web/juminkanja/S2430/initialize?prefCd=06&kikanCd=4499530010&kikanKbn=4", "url2": "https://mw-hitomisan.com", "内容": "訪問型母乳育児サポート「助産師のひとみさん」（出張のみ）【4:助産院】山形県山形市" }, "geometry": { "type": "Point", "coordinates": [ 140.339617, 38.255415 ] } },
{ "type": "Feature", "properties": { "ID": 64499530013, "正式名称": "助産院　ｎａｎａ", "機関区分": 4, "都道府県コード": 6, "市区町村コード": 301, "所在地": "山形県東村山郡山辺町根際", "緯度": 38.287318, "経度": 140.256778, "url": "https://www.iryou.teikyouseido.mhlw.go.jp/znk-web/juminkanja/S2430/initialize?prefCd=06&kikanCd=4499530013&kikanKbn=4", "url2": "https://jyosanin-nana.com", "内容": "助産院　ｎａｎａ【4:助産院】山形県東村山郡山辺町根際" }, "geometry": { "type": "Point", "coordinates": [ 140.256778, 38.287318 ] } },
{ "type": "Feature", "properties": { "ID": 64499530017, "正式名称": "まちなか助産院", "機関区分": 4, "都道府県コード": 6, "市区町村コード": 323, "所在地": "山形県西村山郡朝日町宮宿１０２１－１４", "緯度": 38.299747, "経度": 140.145, "url": "https://www.iryou.teikyouseido.mhlw.go.jp/znk-web/juminkanja/S2430/initialize?prefCd=06&kikanCd=4499530017&kikanKbn=4", "url2": null, "内容": "まちなか助産院【4:助産院】山形県西村山郡朝日町宮宿１０２１－１４" }, "geometry": { "type": "Point", "coordinates": [ 140.145, 38.299747 ] } },
{ "type": "Feature", "properties": { "ID": 64499540001, "正式名称": "授乳相談室　たかはし", "機関区分": 4, "都道府県コード": 6, "市区町村コード": 205, "所在地": "山形県新庄市常葉町３−５４", "緯度": 38.769468, "経度": 140.303469, "url": "https://www.iryou.teikyouseido.mhlw.go.jp/znk-web/juminkanja/S2430/initialize?prefCd=06&kikanCd=4499540001&kikanKbn=4", "url2": "https://yuu-baby.com/", "内容": "授乳相談室　たかはし【4:助産院】山形県新庄市常葉町３−５４" }, "geometry": { "type": "Point", "coordinates": [ 140.303469, 38.769468 ] } },
{ "type": "Feature", "properties": { "ID": 64499610003, "正式名称": "マザー＆ベビーケアサロンままのて", "機関区分": 4, "都道府県コード": 6, "市区町村コード": 202, "所在地": "山形県米沢市金池５−１０−２２", "緯度": 37.925164, "経度": 140.116793, "url": "https://www.iryou.teikyouseido.mhlw.go.jp/znk-web/juminkanja/S2430/initialize?prefCd=06&kikanCd=4499610003&kikanKbn=4", "url2": null, "内容": "マザー＆ベビーケアサロンままのて【4:助産院】山形県米沢市金池５−１０−２２" }, "geometry": { "type": "Point", "coordinates": [ 140.116793, 37.925164 ] } },
{ "type": "Feature", "properties": { "ID": 64499610004, "正式名称": "ｙｕｍｅ助産院", "機関区分": 4, "都道府県コード": 6, "市区町村コード": 209, "所在地": "山形県長井市歌丸１４９７", "緯度": 38.058463, "経度": 140.031866, "url": "https://www.iryou.teikyouseido.mhlw.go.jp/znk-web/juminkanja/S2430/initialize?prefCd=06&kikanCd=4499610004&kikanKbn=4", "url2": "https://ameblo.jp/yumejosanin/entry-12424680244.html", "内容": "ｙｕｍｅ助産院【4:助産院】山形県長井市歌丸１４９７" }, "geometry": { "type": "Point", "coordinates": [ 140.031866, 38.058463 ] } },
{ "type": "Feature", "properties": { "ID": 64499610005, "正式名称": "ゆらティス", "機関区分": 4, "都道府県コード": 6, "市区町村コード": 202, "所在地": "山形県米沢市通町３丁目１０－５０", "緯度": 37.8894886, "経度": 140.1302839, "url": "https://www.iryou.teikyouseido.mhlw.go.jp/znk-web/juminkanja/S2430/initialize?prefCd=06&kikanCd=4499610005&kikanKbn=4", "url2": null, "内容": "ゆらティス【4:助産院】山形県米沢市通町３丁目１０－５０" }, "geometry": { "type": "Point", "coordinates": [ 140.1302839, 37.8894886 ] } },
{ "type": "Feature", "properties": { "ID": 64499620003, "正式名称": "なんば助産院　なんばサロン　ｗｈｉｔｅ", "機関区分": 4, "都道府県コード": 6, "市区町村コード": 203, "所在地": "山形県鶴岡市日枝字小真木原８９－１４", "緯度": 38.7108676, "経度": 139.8151253, "url": "https://www.iryou.teikyouseido.mhlw.go.jp/znk-web/juminkanja/S2430/initialize?prefCd=06&kikanCd=4499620003&kikanKbn=4", "url2": null, "内容": "なんば助産院　なんばサロン　ｗｈｉｔｅ【4:助産院】山形県鶴岡市日枝字小真木原８９－１４" }, "geometry": { "type": "Point", "coordinates": [ 139.8151253, 38.7108676 ] } },
{ "type": "Feature", "properties": { "ID": 64499620004, "正式名称": "こた助産所", "機関区分": 4, "都道府県コード": 6, "市区町村コード": 204, "所在地": "山形県酒田市大町１８－２７", "緯度": 38.903968, "経度": 139.8556, "url": "https://www.iryou.teikyouseido.mhlw.go.jp/znk-web/juminkanja/S2430/initialize?prefCd=06&kikanCd=4499620004&kikanKbn=4", "url2": null, "内容": "こた助産所【4:助産院】山形県酒田市大町１８－２７" }, "geometry": { "type": "Point", "coordinates": [ 139.8556, 38.903968 ] } },
{ "type": "Feature", "properties": { "ID": 64499620005, "正式名称": "ごっと助産院", "機関区分": 4, "都道府県コード": 6, "市区町村コード": 204, "所在地": "山形県酒田市市条字荒瀬９番地２５", "緯度": 38.96624, "経度": 139.933814, "url": "https://www.iryou.teikyouseido.mhlw.go.jp/znk-web/juminkanja/S2430/initialize?prefCd=06&kikanCd=4499620005&kikanKbn=4", "url2": "https://gottosan.com", "内容": "ごっと助産院【4:助産院】山形県酒田市市条字荒瀬９番地２５" }, "geometry": { "type": "Point", "coordinates": [ 139.933814, 38.96624 ] } }
]
}
