{
"type": "FeatureCollection",
"name": "geo_06_看護小規模多機能型居宅介護（複合型サービス）",
"crs": { "type": "name", "properties": { "name": "urn:ogc:def:crs:OGC:1.3:CRS84" } },
"features": [
{ "type": "Feature", "properties": { "内容": "湖山ケアサービス山形【看護小規模多機能型居宅介護（複合型サービス）】山形市上桜田5丁目1‐1", "url2": "https://www.kaigokensaku.mhlw.go.jp/06/index.php?action_kouhyou_detail_004_kani=true&JigyosyoCd=0690100474-00&ServiceCd=&Type=search" }, "geometry": { "type": "Point", "coordinates": [ 140.340177058335968, 38.22120924365877 ] } },
{ "type": "Feature", "properties": { "内容": "看護小規模多機能型居宅介護　YONEKIプレミアム【看護小規模多機能型居宅介護（複合型サービス）】山形県山形市あかねヶ丘2-1-4", "url2": "https://www.kaigokensaku.mhlw.go.jp/06/index.php?action_kouhyou_detail_004_kani=true&JigyosyoCd=0690100821-00&ServiceCd=&Type=search" }, "geometry": { "type": "Point", "coordinates": [ 140.312811, 38.2468631 ] } },
{ "type": "Feature", "properties": { "内容": "複合型サービス　東部の友【看護小規模多機能型居宅介護（複合型サービス）】山形県山形市松波三丁目４番５号ケアセンター松波", "url2": "https://www.kaigokensaku.mhlw.go.jp/06/index.php?action_kouhyou_detail_004_kani=true&JigyosyoCd=0690100581-00&ServiceCd=&Type=search" }, "geometry": { "type": "Point", "coordinates": [ 140.367560700000013, 38.2423687 ] } },
{ "type": "Feature", "properties": { "内容": "湖山ケアサービス米沢【看護小規模多機能型居宅介護（複合型サービス）】米沢市塩井町塩野1482番地の4", "url2": "https://www.kaigokensaku.mhlw.go.jp/06/index.php?action_kouhyou_detail_004_kani=true&JigyosyoCd=0690400155-00&ServiceCd=&Type=search" }, "geometry": { "type": "Point", "coordinates": [ 140.10262119999993, 37.9269113 ] } },
{ "type": "Feature", "properties": { "内容": "ケアコンシェルジュ和【看護小規模多機能型居宅介護（複合型サービス）】山形県米沢市門東町２丁目８番３４号", "url2": "https://www.kaigokensaku.mhlw.go.jp/06/index.php?action_kouhyou_detail_004_kani=true&JigyosyoCd=0690400270-00&ServiceCd=&Type=search" }, "geometry": { "type": "Point", "coordinates": [ 140.1084148, 37.9093266 ] } },
{ "type": "Feature", "properties": { "内容": "ＳＯＭＰＯケア　新庄城西　看護小規模多機能【看護小規模多機能型居宅介護（複合型サービス）】山形県新庄市城西町7番11号", "url2": "https://www.kaigokensaku.mhlw.go.jp/06/index.php?action_kouhyou_detail_004_kani=true&JigyosyoCd=0691100135-00&ServiceCd=&Type=search" }, "geometry": { "type": "Point", "coordinates": [ 140.290242, 38.7665558 ] } }
]
}
