{
"type": "FeatureCollection",
"name": "geo_06_短期大学",
"crs": { "type": "name", "properties": { "name": "urn:ogc:def:crs:EPSG::6668" } },
"features": [
{ "type": "Feature", "properties": { "P29_001": "06202", "P29_002": "F206210101235", "P29_003": "16006", "P29_004": "山形県立米沢女子短期大学", "P29_005": "山形県米沢市通町6-15-1", "P29_006": "2", "P29_007": "0", "P29_008": "00", "P29_009": null }, "geometry": { "type": "Point", "coordinates": [ 140.123398118654478, 37.89130592684856 ] } },
{ "type": "Feature", "properties": { "P29_001": "06210", "P29_002": "F206310101242", "P29_003": "16006", "P29_004": "羽陽学園短期大学", "P29_005": "山形県天童市大字清池1559", "P29_006": "4", "P29_007": "0", "P29_008": "00", "P29_009": null }, "geometry": { "type": "Point", "coordinates": [ 140.353589083584751, 38.329710955974058 ] } },
{ "type": "Feature", "properties": { "P29_001": "06201", "P29_002": "F206310101251", "P29_003": "16006", "P29_004": "東北文教大学短期大学部", "P29_005": "山形県山形市片谷地515", "P29_006": "4", "P29_007": "0", "P29_008": "00", "P29_009": null }, "geometry": { "type": "Point", "coordinates": [ 140.302955271099478, 38.209247838487379 ] } }
]
}
