{
"type": "FeatureCollection",
"name": "geo_06_認知症対応型共同生活介護",
"crs": { "type": "name", "properties": { "name": "urn:ogc:def:crs:OGC:1.3:CRS84" } },
"features": [
{ "type": "Feature", "properties": { "内容": "グループホーム嶋【認知症対応型共同生活介護】山形県山形市嶋南１丁目９－７", "url2": "https://www.kaigokensaku.mhlw.go.jp/06/index.php?action_kouhyou_detail_004_kani=true&JigyosyoCd=0690100268-00&ServiceCd=320&Type=search" }, "geometry": { "type": "Point", "coordinates": [ 140.3212168, 38.279975 ] } },
{ "type": "Feature", "properties": { "内容": "らくせいグループホーム南館【認知症対応型共同生活介護】山形県山形市南館1-1-32", "url2": "https://www.kaigokensaku.mhlw.go.jp/06/index.php?action_kouhyou_detail_004_kani=true&JigyosyoCd=0690100938-00&ServiceCd=320&Type=search" }, "geometry": { "type": "Point", "coordinates": [ 140.3161403, 38.2396495 ] } },
{ "type": "Feature", "properties": { "内容": "愛の家グループホーム山形前田町【認知症対応型共同生活介護】山形県山形市前田町9番3号愛の家グループホーム山形前田町", "url2": "https://www.kaigokensaku.mhlw.go.jp/06/index.php?action_kouhyou_detail_004_kani=true&JigyosyoCd=0690100946-00&ServiceCd=320&Type=search" }, "geometry": { "type": "Point", "coordinates": [ 140.3505252, 38.2369421 ] } },
{ "type": "Feature", "properties": { "内容": "グループホーム馬見ヶ崎【認知症対応型共同生活介護】山形県山形市桧町一丁目１７番２３号", "url2": "https://www.kaigokensaku.mhlw.go.jp/06/index.php?action_kouhyou_detail_004_kani=true&JigyosyoCd=0670101971-00&ServiceCd=320&Type=search" }, "geometry": { "type": "Point", "coordinates": [ 140.335968200000025, 38.2783031 ] } },
{ "type": "Feature", "properties": { "内容": "グループホーム北山形【認知症対応型共同生活介護】山形市嶋北３丁目１０番６号", "url2": "https://www.kaigokensaku.mhlw.go.jp/06/index.php?action_kouhyou_detail_004_kani=true&JigyosyoCd=0670102136-00&ServiceCd=320&Type=search" }, "geometry": { "type": "Point", "coordinates": [ 140.32084332000727, 38.290538813067023 ] } },
{ "type": "Feature", "properties": { "内容": "グループホーム友結【認知症対応型共同生活介護】山形県山形市桜田西1丁目13番9号", "url2": "https://www.kaigokensaku.mhlw.go.jp/06/index.php?action_kouhyou_detail_004_kani=true&JigyosyoCd=0670101591-00&ServiceCd=320&Type=search" }, "geometry": { "type": "Point", "coordinates": [ 140.31603, 38.220561 ] } },
{ "type": "Feature", "properties": { "内容": "フラワー小姓町【認知症対応型共同生活介護】山形市小姓町７番１５号", "url2": "https://www.kaigokensaku.mhlw.go.jp/06/index.php?action_kouhyou_detail_004_kani=true&JigyosyoCd=0670101161-00&ServiceCd=320&Type=search" }, "geometry": { "type": "Point", "coordinates": [ 140.341751700000032, 38.2481313 ] } },
{ "type": "Feature", "properties": { "内容": "フラワー吉原【認知症対応型共同生活介護】山形市南館3丁目21番50号", "url2": "https://www.kaigokensaku.mhlw.go.jp/06/index.php?action_kouhyou_detail_004_kani=true&JigyosyoCd=0670101310-00&ServiceCd=320&Type=search" }, "geometry": { "type": "Point", "coordinates": [ 140.313246599999957, 38.232807100000073 ] } },
{ "type": "Feature", "properties": { "内容": "みはたの里【認知症対応型共同生活介護】山形市美畑町4番35号", "url2": "https://www.kaigokensaku.mhlw.go.jp/06/index.php?action_kouhyou_detail_004_kani=true&JigyosyoCd=0690100276-00&ServiceCd=320&Type=search" }, "geometry": { "type": "Point", "coordinates": [ 140.3264034, 38.2361571 ] } },
{ "type": "Feature", "properties": { "内容": "社会福祉法人　山形市社会福祉協議会　グループホーム鈴川【認知症対応型共同生活介護】山形県山形市大野目一丁目4番62号", "url2": "https://www.kaigokensaku.mhlw.go.jp/06/index.php?action_kouhyou_detail_004_kani=true&JigyosyoCd=0690100771-00&ServiceCd=320&Type=search" }, "geometry": { "type": "Point", "coordinates": [ 140.357782899999961, 38.2735037 ] } },
{ "type": "Feature", "properties": { "内容": "グループホームもも太郎さん　黄金【認知症対応型共同生活介護】山形市黄金　81-1", "url2": "https://www.kaigokensaku.mhlw.go.jp/06/index.php?action_kouhyou_detail_004_kani=true&JigyosyoCd=0670102128-00&ServiceCd=320&Type=search" }, "geometry": { "type": "Point", "coordinates": [ 140.3015749, 38.2635345 ] } },
{ "type": "Feature", "properties": { "内容": "やすらぎ苑　山形【認知症対応型共同生活介護】山形県山形市東山形1丁目4番12号", "url2": "https://www.kaigokensaku.mhlw.go.jp/06/index.php?action_kouhyou_detail_004_kani=true&JigyosyoCd=0670100940-00&ServiceCd=320&Type=search" }, "geometry": { "type": "Point", "coordinates": [ 140.370757599999934, 38.241988300000031 ] } },
{ "type": "Feature", "properties": { "内容": "指定認知症対応型共同生活介護事業所　グループホームなごみの里【認知症対応型共同生活介護】山形県山形市飯塚町1447番地4", "url2": "https://www.kaigokensaku.mhlw.go.jp/06/index.php?action_kouhyou_detail_004_kani=true&JigyosyoCd=0690100912-00&ServiceCd=320&Type=search" }, "geometry": { "type": "Point", "coordinates": [ 140.300820919712834, 38.255255615274642 ] } },
{ "type": "Feature", "properties": { "内容": "グループホームおおさと【認知症対応型共同生活介護】山形県山形市大字中野469番6グループホームおおさと", "url2": "https://www.kaigokensaku.mhlw.go.jp/06/index.php?action_kouhyou_detail_004_kani=true&JigyosyoCd=0690100763-00&ServiceCd=320&Type=search" }, "geometry": { "type": "Point", "coordinates": [ 140.304904062565583, 38.305082478984161 ] } },
{ "type": "Feature", "properties": { "内容": "人生の楽園【認知症対応型共同生活介護】山形市大字風間１２６１番１", "url2": "https://www.kaigokensaku.mhlw.go.jp/06/index.php?action_kouhyou_detail_004_kani=true&JigyosyoCd=0670102169-00&ServiceCd=320&Type=search" }, "geometry": { "type": "Point", "coordinates": [ 140.368937499999987, 38.3032847 ] } },
{ "type": "Feature", "properties": { "内容": "オークランドホーム南原町木洩れ陽【認知症対応型共同生活介護】山形市南原町三丁目11-1", "url2": "https://www.kaigokensaku.mhlw.go.jp/06/index.php?action_kouhyou_detail_004_kani=true&JigyosyoCd=0670101674-00&ServiceCd=320&Type=search" }, "geometry": { "type": "Point", "coordinates": [ 140.343935399999964, 38.232833 ] } },
{ "type": "Feature", "properties": { "内容": "オークランドホーム　荒楯町　さくら苑【認知症対応型共同生活介護】山形県山形市荒楯町二丁目18-7", "url2": "https://www.kaigokensaku.mhlw.go.jp/06/index.php?action_kouhyou_detail_004_kani=true&JigyosyoCd=0670101179-00&ServiceCd=320&Type=search" }, "geometry": { "type": "Point", "coordinates": [ 140.336663899999962, 38.2309829 ] } },
{ "type": "Feature", "properties": { "内容": "認知症高齢者グループホーム沼木敬寿園【認知症対応型共同生活介護】山形市沼木６９番地", "url2": "https://www.kaigokensaku.mhlw.go.jp/06/index.php?action_kouhyou_detail_004_kani=true&JigyosyoCd=0690100334-00&ServiceCd=320&Type=search" }, "geometry": { "type": "Point", "coordinates": [ 140.29111, 38.2449442 ] } },
{ "type": "Feature", "properties": { "内容": "認知症高齢者グループホーム敬寿園【認知症対応型共同生活介護】山形市大字妙見寺５００－１", "url2": "https://www.kaigokensaku.mhlw.go.jp/06/index.php?action_kouhyou_detail_004_kani=true&JigyosyoCd=0670100627-00&ServiceCd=320&Type=search" }, "geometry": { "type": "Point", "coordinates": [ 140.377843200000029, 38.2370975 ] } },
{ "type": "Feature", "properties": { "内容": "グループホームつばさ金井【認知症対応型共同生活介護】山形県山形市大字志戸田1685番地１", "url2": "https://www.kaigokensaku.mhlw.go.jp/06/index.php?action_kouhyou_detail_004_kani=true&JigyosyoCd=0690100888-00&ServiceCd=320&Type=search" }, "geometry": { "type": "Point", "coordinates": [ 140.28018079602225, 38.289269102984683 ] } },
{ "type": "Feature", "properties": { "内容": "グループホームとかみ楽生苑【認知症対応型共同生活介護】山形県山形市富神前11番地", "url2": "https://www.kaigokensaku.mhlw.go.jp/06/index.php?action_kouhyou_detail_004_kani=true&JigyosyoCd=0670101112-00&ServiceCd=320&Type=search" }, "geometry": { "type": "Point", "coordinates": [ 140.262506600000052, 38.2366357 ] } },
{ "type": "Feature", "properties": { "内容": "グループホームはなみずき【認知症対応型共同生活介護】山形市深町一丁目9-14ケアセンターはなみずき", "url2": "https://www.kaigokensaku.mhlw.go.jp/06/index.php?action_kouhyou_detail_004_kani=true&JigyosyoCd=0670101476-00&ServiceCd=320&Type=search" }, "geometry": { "type": "Point", "coordinates": [ 140.3182071, 38.2341793 ] } },
{ "type": "Feature", "properties": { "内容": "愛の家グループホーム山形北町【認知症対応型共同生活介護】山形県山形市北町3丁目4-10", "url2": "https://www.kaigokensaku.mhlw.go.jp/06/index.php?action_kouhyou_detail_004_kani=true&JigyosyoCd=0690101019-00&ServiceCd=320&Type=search" }, "geometry": { "type": "Point", "coordinates": [ 140.3282648, 38.274103 ] } },
{ "type": "Feature", "properties": { "内容": "グループホームあすなろ窪田【認知症対応型共同生活介護】山形県米沢市窪田町窪田1421-1", "url2": "https://www.kaigokensaku.mhlw.go.jp/06/index.php?action_kouhyou_detail_004_kani=true&JigyosyoCd=0690400304-00&ServiceCd=320&Type=search" }, "geometry": { "type": "Point", "coordinates": [ 140.125976731877131, 37.95787340053699 ] } },
{ "type": "Feature", "properties": { "内容": "グループホームあすなろ白旗【認知症対応型共同生活介護】山形県米沢市大字三沢白旗壱八－26113番地65", "url2": "https://www.kaigokensaku.mhlw.go.jp/06/index.php?action_kouhyou_detail_004_kani=true&JigyosyoCd=0690400312-00&ServiceCd=320&Type=search" }, "geometry": { "type": "Point", "coordinates": [ 140.13629, 37.877254 ] } },
{ "type": "Feature", "properties": { "内容": "グループホーム成島園【認知症対応型共同生活介護】山形県米沢市広幡町成島字窪平山2120番地5", "url2": "https://www.kaigokensaku.mhlw.go.jp/06/index.php?action_kouhyou_detail_004_kani=true&JigyosyoCd=0670401181-00&ServiceCd=320&Type=search" }, "geometry": { "type": "Point", "coordinates": [ 140.077845499999967, 37.9346819 ] } },
{ "type": "Feature", "properties": { "内容": "グループホームふきのとう【認知症対応型共同生活介護】山形県米沢市塩井町塩野2057", "url2": "https://www.kaigokensaku.mhlw.go.jp/06/index.php?action_kouhyou_detail_004_kani=true&JigyosyoCd=0670400928-00&ServiceCd=320&Type=search" }, "geometry": { "type": "Point", "coordinates": [ 140.101956736245711, 37.935841409159295 ] } },
{ "type": "Feature", "properties": { "内容": "グループホーム楓の家【認知症対応型共同生活介護】山形県米沢市金池6丁目8番26号", "url2": "https://www.kaigokensaku.mhlw.go.jp/06/index.php?action_kouhyou_detail_004_kani=true&JigyosyoCd=0670400910-00&ServiceCd=320&Type=search" }, "geometry": { "type": "Point", "coordinates": [ 140.1158474, 37.9276283 ] } },
{ "type": "Feature", "properties": { "内容": "さんゆうグループホーム　ふぃりあ【認知症対応型共同生活介護】山形県米沢市万世町桑山4660番地", "url2": "https://www.kaigokensaku.mhlw.go.jp/06/index.php?action_kouhyou_detail_004_kani=true&JigyosyoCd=0670400738-00&ServiceCd=320&Type=search" }, "geometry": { "type": "Point", "coordinates": [ 140.155142399999932, 37.9000856 ] } },
{ "type": "Feature", "properties": { "内容": "グループホームもも太郎さん米沢【認知症対応型共同生活介護】米沢市通町5丁目3-46", "url2": "https://www.kaigokensaku.mhlw.go.jp/06/index.php?action_kouhyou_detail_004_kani=true&JigyosyoCd=0670400969-00&ServiceCd=320&Type=search" }, "geometry": { "type": "Point", "coordinates": [ 140.131176200000027, 37.8935745 ] } },
{ "type": "Feature", "properties": { "内容": "グループホーム結いのき【認知症対応型共同生活介護】山形県米沢市花沢町2695番地の4", "url2": "https://www.kaigokensaku.mhlw.go.jp/06/index.php?action_kouhyou_detail_004_kani=true&JigyosyoCd=0690400346-00&ServiceCd=320&Type=search" }, "geometry": { "type": "Point", "coordinates": [ 140.1211427, 37.9190642 ] } },
{ "type": "Feature", "properties": { "内容": "グループホーム　ピュアフォレスト【認知症対応型共同生活介護】米沢市大字三沢26106-14", "url2": "https://www.kaigokensaku.mhlw.go.jp/06/index.php?action_kouhyou_detail_004_kani=true&JigyosyoCd=0670400746-00&ServiceCd=320&Type=search" }, "geometry": { "type": "Point", "coordinates": [ 140.142956, 37.8820901 ] } },
{ "type": "Feature", "properties": { "内容": "グループホーム　ピュアグローブ【認知症対応型共同生活介護】山形県米沢市通町２丁目５番地６２", "url2": "https://www.kaigokensaku.mhlw.go.jp/06/index.php?action_kouhyou_detail_004_kani=true&JigyosyoCd=0670400530-00&ServiceCd=320&Type=search" }, "geometry": { "type": "Point", "coordinates": [ 140.1312266, 37.8855116 ] } },
{ "type": "Feature", "properties": { "内容": "グループホーム東陽館【認知症対応型共同生活介護】山形県米沢市城北1丁目2番5号地域ケアセンター東陽館", "url2": "https://www.kaigokensaku.mhlw.go.jp/06/index.php?action_kouhyou_detail_004_kani=true&JigyosyoCd=0670401231-00&ServiceCd=320&Type=search" }, "geometry": { "type": "Point", "coordinates": [ 140.106158746696451, 37.914187189457145 ] } },
{ "type": "Feature", "properties": { "内容": "グループホーム　こもれびの家【認知症対応型共同生活介護】山形県米沢市大字花沢３６１２番地の１", "url2": "https://www.kaigokensaku.mhlw.go.jp/06/index.php?action_kouhyou_detail_004_kani=true&JigyosyoCd=0670400803-00&ServiceCd=320&Type=search" }, "geometry": { "type": "Point", "coordinates": [ 140.122710711257895, 37.926857684211576 ] } },
{ "type": "Feature", "properties": { "内容": "グループホームやまぼうし【認知症対応型共同生活介護】山形県米沢市直江町１番５号", "url2": "https://www.kaigokensaku.mhlw.go.jp/06/index.php?action_kouhyou_detail_004_kani=true&JigyosyoCd=0670400936-00&ServiceCd=320&Type=search" }, "geometry": { "type": "Point", "coordinates": [ 140.0899038, 37.9167455 ] } },
{ "type": "Feature", "properties": { "内容": "グループホームかたくり荘【認知症対応型共同生活介護】山形県鶴岡市熊出字東村157-2", "url2": "https://www.kaigokensaku.mhlw.go.jp/06/index.php?action_kouhyou_detail_004_kani=true&JigyosyoCd=0673000550-00&ServiceCd=320&Type=search" }, "geometry": { "type": "Point", "coordinates": [ 139.850026800000023, 38.6339112 ] } },
{ "type": "Feature", "properties": { "内容": "グループホームいろ花の里【認知症対応型共同生活介護】山形県鶴岡市下山添字中通39-1いろ花の里", "url2": "https://www.kaigokensaku.mhlw.go.jp/06/index.php?action_kouhyou_detail_004_kani=true&JigyosyoCd=0690700299-00&ServiceCd=320&Type=search" }, "geometry": { "type": "Point", "coordinates": [ 139.839711299999976, 38.6921289 ] } },
{ "type": "Feature", "properties": { "内容": "ニチイケアセンターこまぎはら【認知症対応型共同生活介護】山形県鶴岡市日枝字鳥居上38-1", "url2": "https://www.kaigokensaku.mhlw.go.jp/06/index.php?action_kouhyou_detail_004_kani=true&JigyosyoCd=0690700273-00&ServiceCd=320&Type=search" }, "geometry": { "type": "Point", "coordinates": [ 139.816988, 38.710921 ] } },
{ "type": "Feature", "properties": { "内容": "グループホーム　はもれび【認知症対応型共同生活介護】山形県鶴岡市下山添字茶屋川原75番地", "url2": "https://www.kaigokensaku.mhlw.go.jp/06/index.php?action_kouhyou_detail_004_kani=true&JigyosyoCd=0690700398-00&ServiceCd=320&Type=search" }, "geometry": { "type": "Point", "coordinates": [ 139.837782800000014, 38.6879204 ] } },
{ "type": "Feature", "properties": { "内容": "グループホームねずがせき【認知症対応型共同生活介護】山形県鶴岡市鼠ヶ関字横路9番3号", "url2": "https://www.kaigokensaku.mhlw.go.jp/06/index.php?action_kouhyou_detail_004_kani=true&JigyosyoCd=0673100087-00&ServiceCd=320&Type=search" }, "geometry": { "type": "Point", "coordinates": [ 139.551743627482892, 38.567477474866905 ] } },
{ "type": "Feature", "properties": { "内容": "グループホーム和楽居【認知症対応型共同生活介護】日枝字海老島63番5", "url2": "https://www.kaigokensaku.mhlw.go.jp/06/index.php?action_kouhyou_detail_004_kani=true&JigyosyoCd=0690700281-00&ServiceCd=320&Type=search" }, "geometry": { "type": "Point", "coordinates": [ 139.827186303843746, 38.712774578360495 ] } },
{ "type": "Feature", "properties": { "内容": "グループホームひだまりの家【認知症対応型共同生活介護】山形県鶴岡市茅原町27－1", "url2": "https://www.kaigokensaku.mhlw.go.jp/06/index.php?action_kouhyou_detail_004_kani=true&JigyosyoCd=0670700426-00&ServiceCd=320&Type=search" }, "geometry": { "type": "Point", "coordinates": [ 139.842156299999942, 38.7537248 ] } },
{ "type": "Feature", "properties": { "内容": "グループホームそよ風の森【認知症対応型共同生活介護】山形県鶴岡市下川字龍花崎41番1035号", "url2": "https://www.kaigokensaku.mhlw.go.jp/06/index.php?action_kouhyou_detail_004_kani=true&JigyosyoCd=0690700463-00&ServiceCd=320&Type=search" }, "geometry": { "type": "Point", "coordinates": [ 139.7843337, 38.781287 ] } },
{ "type": "Feature", "properties": { "内容": "グループホーム愛あい館【認知症対応型共同生活介護】鶴岡市大山字中道92-2", "url2": "https://www.kaigokensaku.mhlw.go.jp/06/index.php?action_kouhyou_detail_004_kani=true&JigyosyoCd=0690700455-00&ServiceCd=320&Type=search" }, "geometry": { "type": "Point", "coordinates": [ 139.7697377, 38.7502795 ] } },
{ "type": "Feature", "properties": { "内容": "グループホームひまわり【認知症対応型共同生活介護】山形県鶴岡市稲生一丁目3番5号", "url2": "https://www.kaigokensaku.mhlw.go.jp/06/index.php?action_kouhyou_detail_004_kani=true&JigyosyoCd=0670700608-00&ServiceCd=320&Type=search" }, "geometry": { "type": "Point", "coordinates": [ 139.81246550000003, 38.7206169 ] } },
{ "type": "Feature", "properties": { "内容": "グループホーム　はぐろの里【認知症対応型共同生活介護】山形県鶴岡市羽黒町荒川字谷地堰42番地1", "url2": "https://www.kaigokensaku.mhlw.go.jp/06/index.php?action_kouhyou_detail_004_kani=true&JigyosyoCd=0673000618-00&ServiceCd=320&Type=search" }, "geometry": { "type": "Point", "coordinates": [ 139.899158299999954, 38.7184718 ] } },
{ "type": "Feature", "properties": { "内容": "グループホーム　なでしこ【認知症対応型共同生活介護】鶴岡市斎藤川原字間々下３５", "url2": "https://www.kaigokensaku.mhlw.go.jp/06/index.php?action_kouhyou_detail_004_kani=true&JigyosyoCd=0670700574-00&ServiceCd=320&Type=search" }, "geometry": { "type": "Point", "coordinates": [ 139.845844212303177, 38.707588526328408 ] } },
{ "type": "Feature", "properties": { "内容": "グループホームなずな【認知症対応型共同生活介護】鶴岡市神明町15-15", "url2": "https://www.kaigokensaku.mhlw.go.jp/06/index.php?action_kouhyou_detail_004_kani=true&JigyosyoCd=0670700525-00&ServiceCd=320&Type=search" }, "geometry": { "type": "Point", "coordinates": [ 139.836081554626617, 38.720472790170277 ] } },
{ "type": "Feature", "properties": { "内容": "グループホームなな草【認知症対応型共同生活介護】山形県鶴岡市外内島字石名田82-23", "url2": "https://www.kaigokensaku.mhlw.go.jp/06/index.php?action_kouhyou_detail_004_kani=true&JigyosyoCd=0690700133-00&ServiceCd=320&Type=search" }, "geometry": { "type": "Point", "coordinates": [ 139.832170972101039, 38.705966133402306 ] } },
{ "type": "Feature", "properties": { "内容": "グループホームふじの花荘【認知症対応型共同生活介護】山形県鶴岡市藤の花１丁目18－1", "url2": "https://www.kaigokensaku.mhlw.go.jp/06/index.php?action_kouhyou_detail_004_kani=true&JigyosyoCd=0673000469-00&ServiceCd=320&Type=search" }, "geometry": { "type": "Point", "coordinates": [ 139.908230300000014, 38.7730652 ] } },
{ "type": "Feature", "properties": { "内容": "グループホームかけはし南館【認知症対応型共同生活介護】山形県鶴岡市民田字船附193", "url2": "https://www.kaigokensaku.mhlw.go.jp/06/index.php?action_kouhyou_detail_004_kani=true&JigyosyoCd=0690700414-00&ServiceCd=320&Type=search" }, "geometry": { "type": "Point", "coordinates": [ 139.8209051, 38.7061613 ] } },
{ "type": "Feature", "properties": { "内容": "グループホームかけはし【認知症対応型共同生活介護】鶴岡市民田字代家田１００－１", "url2": "https://www.kaigokensaku.mhlw.go.jp/06/index.php?action_kouhyou_detail_004_kani=true&JigyosyoCd=0670700418-00&ServiceCd=320&Type=search" }, "geometry": { "type": "Point", "coordinates": [ 139.8265814, 38.7047771 ] } },
{ "type": "Feature", "properties": { "内容": "グループホームはちもり【認知症対応型共同生活介護】山形県鶴岡市三瀬字菖蒲田64番2", "url2": "https://www.kaigokensaku.mhlw.go.jp/06/index.php?action_kouhyou_detail_004_kani=true&JigyosyoCd=0690700174-00&ServiceCd=320&Type=search" }, "geometry": { "type": "Point", "coordinates": [ 139.675832815390976, 38.701802502542357 ] } },
{ "type": "Feature", "properties": { "内容": "認知症高齢者グループホームなごみ【認知症対応型共同生活介護】山形県鶴岡市羽黒町赤川字熊坂47番３", "url2": "https://www.kaigokensaku.mhlw.go.jp/06/index.php?action_kouhyou_detail_004_kani=true&JigyosyoCd=0673000642-00&ServiceCd=320&Type=search" }, "geometry": { "type": "Point", "coordinates": [ 139.862074799999959, 38.7256895 ] } },
{ "type": "Feature", "properties": { "内容": "グループホームなごみ２号館【認知症対応型共同生活介護】山形県鶴岡市羽黒町三ツ橋字向田46番３", "url2": "https://www.kaigokensaku.mhlw.go.jp/06/index.php?action_kouhyou_detail_004_kani=true&JigyosyoCd=0690700224-00&ServiceCd=320&Type=search" }, "geometry": { "type": "Point", "coordinates": [ 139.862884242991584, 38.728019054296659 ] } },
{ "type": "Feature", "properties": { "内容": "グループホーム「ママ家」【認知症対応型共同生活介護】山形県鶴岡市常盤木字関口１０３‐３", "url2": "https://www.kaigokensaku.mhlw.go.jp/06/index.php?action_kouhyou_detail_004_kani=true&JigyosyoCd=0673000519-00&ServiceCd=320&Type=search" }, "geometry": { "type": "Point", "coordinates": [ 139.843595599999958, 38.6661349 ] } },
{ "type": "Feature", "properties": { "内容": "コミュニティママ家【認知症対応型共同生活介護】鶴岡市中田字追分162-2", "url2": "https://www.kaigokensaku.mhlw.go.jp/06/index.php?action_kouhyou_detail_004_kani=true&JigyosyoCd=0673000675-00&ServiceCd=320&Type=search" }, "geometry": { "type": "Point", "coordinates": [ 139.845673199999965, 38.666085 ] } },
{ "type": "Feature", "properties": { "内容": "あった家きゃっと【認知症対応型共同生活介護】山形県鶴岡市藤島字笹花48-12", "url2": "https://www.kaigokensaku.mhlw.go.jp/06/index.php?action_kouhyou_detail_004_kani=true&JigyosyoCd=0670700954-00&ServiceCd=320&Type=search" }, "geometry": { "type": "Point", "coordinates": [ 139.906647600000042, 38.7664995 ] } },
{ "type": "Feature", "properties": { "内容": "認知症高齢者グループホーム「和心」ふじ荘【認知症対応型共同生活介護】山形県鶴岡市八色木字西野３３５－１", "url2": "https://www.kaigokensaku.mhlw.go.jp/06/index.php?action_kouhyou_detail_004_kani=true&JigyosyoCd=0670700939-00&ServiceCd=320&Type=search" }, "geometry": { "type": "Point", "coordinates": [ 139.901055600000063, 38.7838195 ] } },
{ "type": "Feature", "properties": { "内容": "グループホームこもれび【認知症対応型共同生活介護】山形県鶴岡市八色木字西野３３５－1", "url2": "https://www.kaigokensaku.mhlw.go.jp/06/index.php?action_kouhyou_detail_004_kani=true&JigyosyoCd=0690700117-00&ServiceCd=320&Type=search" }, "geometry": { "type": "Point", "coordinates": [ 139.901241700000014, 38.7833863 ] } },
{ "type": "Feature", "properties": { "内容": "グループホーム　こうらく【認知症対応型共同生活介護】山形県酒田市小泉字前田44番地グループホームこうらく", "url2": "https://www.kaigokensaku.mhlw.go.jp/06/index.php?action_kouhyou_detail_004_kani=true&JigyosyoCd=0673200309-00&ServiceCd=320&Type=search" }, "geometry": { "type": "Point", "coordinates": [ 139.9358731, 38.9695406 ] } },
{ "type": "Feature", "properties": { "内容": "グループホームはまゆう【認知症対応型共同生活介護】山形県酒田市宮野浦３丁目２０－１", "url2": "https://www.kaigokensaku.mhlw.go.jp/06/index.php?action_kouhyou_detail_004_kani=true&JigyosyoCd=0670800655-00&ServiceCd=320&Type=search" }, "geometry": { "type": "Point", "coordinates": [ 139.811261599999966, 38.9141242 ] } },
{ "type": "Feature", "properties": { "内容": "グループホーム　まいづる【認知症対応型共同生活介護】山形県酒田市麓字横道10-8", "url2": "https://www.kaigokensaku.mhlw.go.jp/06/index.php?action_kouhyou_detail_004_kani=true&JigyosyoCd=0670801109-00&ServiceCd=320&Type=search" }, "geometry": { "type": "Point", "coordinates": [ 139.946435552114849, 38.969865887186565 ] } },
{ "type": "Feature", "properties": { "内容": "グループホーム眺海【認知症対応型共同生活介護】酒田市山寺字宅地１５９番地", "url2": "https://www.kaigokensaku.mhlw.go.jp/06/index.php?action_kouhyou_detail_004_kani=true&JigyosyoCd=0673200374-00&ServiceCd=320&Type=search" }, "geometry": { "type": "Point", "coordinates": [ 139.961984, 38.8481327 ] } },
{ "type": "Feature", "properties": { "内容": "グループホームふれんど【認知症対応型共同生活介護】山形県酒田市古湊町9番8号", "url2": "https://www.kaigokensaku.mhlw.go.jp/06/index.php?action_kouhyou_detail_004_kani=true&JigyosyoCd=0670801125-00&ServiceCd=320&Type=search" }, "geometry": { "type": "Point", "coordinates": [ 139.828825700000039, 38.9490435 ] } },
{ "type": "Feature", "properties": { "内容": "グループホームみどり【認知症対応型共同生活介護】山形県酒田市砂越緑町5-43", "url2": "https://www.kaigokensaku.mhlw.go.jp/06/index.php?action_kouhyou_detail_004_kani=true&JigyosyoCd=0673200283-00&ServiceCd=320&Type=search" }, "geometry": { "type": "Point", "coordinates": [ 139.9092561, 38.894184500000016 ] } },
{ "type": "Feature", "properties": { "内容": "グループホームまつやま【認知症対応型共同生活介護】山形県酒田市字西田１２－５", "url2": "https://www.kaigokensaku.mhlw.go.jp/06/index.php?action_kouhyou_detail_004_kani=true&JigyosyoCd=0673200416-00&ServiceCd=320&Type=search" }, "geometry": { "type": "Point", "coordinates": [ 139.953234299999963, 38.8567344 ] } },
{ "type": "Feature", "properties": { "内容": "グループホーム亀ヶ崎【認知症対応型共同生活介護】山形県酒田市亀ヶ崎4丁目1番14号", "url2": "https://www.kaigokensaku.mhlw.go.jp/06/index.php?action_kouhyou_detail_004_kani=true&JigyosyoCd=0690800305-00&ServiceCd=320&Type=search" }, "geometry": { "type": "Point", "coordinates": [ 139.840134900000066, 38.9028898 ] } },
{ "type": "Feature", "properties": { "内容": "グループホームサン・シティ【認知症対応型共同生活介護】山形県酒田市曙町二丁目２８－５", "url2": "https://www.kaigokensaku.mhlw.go.jp/06/index.php?action_kouhyou_detail_004_kani=true&JigyosyoCd=0690800347-00&ServiceCd=320&Type=search" }, "geometry": { "type": "Point", "coordinates": [ 139.863059504893499, 38.919346979953581 ] } },
{ "type": "Feature", "properties": { "内容": "グループホーム　明日葉【認知症対応型共同生活介護】酒田市曙町２－２４－２", "url2": "https://www.kaigokensaku.mhlw.go.jp/06/index.php?action_kouhyou_detail_004_kani=true&JigyosyoCd=0670800770-00&ServiceCd=320&Type=search" }, "geometry": { "type": "Point", "coordinates": [ 139.865318500000058, 38.9194501 ] } },
{ "type": "Feature", "properties": { "内容": "グループホームライフケア黒森【認知症対応型共同生活介護】山形県酒田市黒森字葭葉山54番１０", "url2": "https://www.kaigokensaku.mhlw.go.jp/06/index.php?action_kouhyou_detail_004_kani=true&JigyosyoCd=0690800297-00&ServiceCd=320&Type=search" }, "geometry": { "type": "Point", "coordinates": [ 139.816974100000039, 38.853046 ] } },
{ "type": "Feature", "properties": { "内容": "グループホーム　結ぶ【認知症対応型共同生活介護】山形県酒田市熊手島字道の下熊興屋17番1", "url2": "https://www.kaigokensaku.mhlw.go.jp/06/index.php?action_kouhyou_detail_004_kani=true&JigyosyoCd=0690800404-00&ServiceCd=320&Type=search" }, "geometry": { "type": "Point", "coordinates": [ 139.893317211919651, 38.90647410225705 ] } },
{ "type": "Feature", "properties": { "内容": "グループホーム　結い【認知症対応型共同生活介護】山形県酒田市千日町4-4", "url2": "https://www.kaigokensaku.mhlw.go.jp/06/index.php?action_kouhyou_detail_004_kani=true&JigyosyoCd=0690800362-00&ServiceCd=320&Type=search" }, "geometry": { "type": "Point", "coordinates": [ 139.840539600000056, 38.9295513 ] } },
{ "type": "Feature", "properties": { "内容": "グループホーム大手町　和心【認知症対応型共同生活介護】新庄市大手町１－２５", "url2": "https://www.kaigokensaku.mhlw.go.jp/06/index.php?action_kouhyou_detail_004_kani=true&JigyosyoCd=0691100051-00&ServiceCd=320&Type=search" }, "geometry": { "type": "Point", "coordinates": [ 140.299208499999963, 38.7671373 ] } },
{ "type": "Feature", "properties": { "内容": "グループホーム大手町【認知症対応型共同生活介護】新庄市大手町2番８３号", "url2": "https://www.kaigokensaku.mhlw.go.jp/06/index.php?action_kouhyou_detail_004_kani=true&JigyosyoCd=0671100337-00&ServiceCd=320&Type=search" }, "geometry": { "type": "Point", "coordinates": [ 140.298178099999973, 38.7660402 ] } },
{ "type": "Feature", "properties": { "内容": "認知症対応型共同生活介護　グループホームふきのとう【認知症対応型共同生活介護】山形県新庄市大字鳥越字駒場４５１９－２", "url2": "https://www.kaigokensaku.mhlw.go.jp/06/index.php?action_kouhyou_detail_004_kani=true&JigyosyoCd=0671100444-00&ServiceCd=320&Type=search" }, "geometry": { "type": "Point", "coordinates": [ 140.311380900000017, 38.7382994 ] } },
{ "type": "Feature", "properties": { "内容": "グループホームあしたば【認知症対応型共同生活介護】山形県寒河江市大字西根字石川西２９４－３", "url2": "https://www.kaigokensaku.mhlw.go.jp/06/index.php?action_kouhyou_detail_004_kani=true&JigyosyoCd=0671200301-00&ServiceCd=320&Type=search" }, "geometry": { "type": "Point", "coordinates": [ 140.2775636, 38.3879877 ] } },
{ "type": "Feature", "properties": { "内容": "フラワーさがえ【認知症対応型共同生活介護】山形県寒河江市大字寒河江字小和田41-5", "url2": "https://www.kaigokensaku.mhlw.go.jp/06/index.php?action_kouhyou_detail_004_kani=true&JigyosyoCd=0691200141-00&ServiceCd=320&Type=search" }, "geometry": { "type": "Point", "coordinates": [ 140.2657791, 38.3747072 ] } },
{ "type": "Feature", "properties": { "内容": "グループホーム　スマイルしばはし【認知症対応型共同生活介護】大字柴橋1634番地の6", "url2": "https://www.kaigokensaku.mhlw.go.jp/06/index.php?action_kouhyou_detail_004_kani=true&JigyosyoCd=0691200083-00&ServiceCd=320&Type=search" }, "geometry": { "type": "Point", "coordinates": [ 140.2322481, 38.3718556 ] } },
{ "type": "Feature", "properties": { "内容": "寒河江やすらぎの里　認知症高齢者グループホーム【認知症対応型共同生活介護】山形県寒河江市本楯二丁目24番地1", "url2": "https://www.kaigokensaku.mhlw.go.jp/06/index.php?action_kouhyou_detail_004_kani=true&JigyosyoCd=0671200210-00&ServiceCd=320&Type=search" }, "geometry": { "type": "Point", "coordinates": [ 140.292274, 38.3637076 ] } },
{ "type": "Feature", "properties": { "内容": "グループホームつばさ栄町【認知症対応型共同生活介護】山形県寒河江市大字寒河江字横道13-2", "url2": "https://www.kaigokensaku.mhlw.go.jp/06/index.php?action_kouhyou_detail_004_kani=true&JigyosyoCd=0691200042-00&ServiceCd=320&Type=search" }, "geometry": { "type": "Point", "coordinates": [ 140.28071305145113, 38.367632276064086 ] } },
{ "type": "Feature", "properties": { "内容": "グループホーム笑顔【認知症対応型共同生活介護】山形県上山市弁天二丁目2番45号", "url2": "https://www.kaigokensaku.mhlw.go.jp/06/index.php?action_kouhyou_detail_004_kani=true&JigyosyoCd=0671300333-00&ServiceCd=320&Type=search" }, "geometry": { "type": "Point", "coordinates": [ 140.2918707, 38.1689021 ] } },
{ "type": "Feature", "properties": { "内容": "グループホームみずほ【認知症対応型共同生活介護】山形県上山市牧野字妻神１６１５", "url2": "https://www.kaigokensaku.mhlw.go.jp/06/index.php?action_kouhyou_detail_004_kani=true&JigyosyoCd=0671300259-00&ServiceCd=320&Type=search" }, "geometry": { "type": "Point", "coordinates": [ 140.300603700000011, 38.1153335 ] } },
{ "type": "Feature", "properties": { "内容": "グループホームながすず【認知症対応型共同生活介護】山形県上山市長清水二丁目５番１９号", "url2": "https://www.kaigokensaku.mhlw.go.jp/06/index.php?action_kouhyou_detail_004_kani=true&JigyosyoCd=0691300065-00&ServiceCd=320&Type=search" }, "geometry": { "type": "Point", "coordinates": [ 140.273581775167003, 38.140986740344282 ] } },
{ "type": "Feature", "properties": { "内容": "グループホーム　美咲の木【認知症対応型共同生活介護】山形県上山市美咲町一丁目2番18号", "url2": "https://www.kaigokensaku.mhlw.go.jp/06/index.php?action_kouhyou_detail_004_kani=true&JigyosyoCd=0691300099-00&ServiceCd=320&Type=search" }, "geometry": { "type": "Point", "coordinates": [ 140.2795075, 38.1503247 ] } },
{ "type": "Feature", "properties": { "内容": "グループホーム村山【認知症対応型共同生活介護】山形県村山市大字富並1469-9", "url2": "https://www.kaigokensaku.mhlw.go.jp/06/index.php?action_kouhyou_detail_004_kani=true&JigyosyoCd=0691400030-00&ServiceCd=320&Type=search" }, "geometry": { "type": "Point", "coordinates": [ 140.34402990000001, 38.5453776 ] } },
{ "type": "Feature", "properties": { "内容": "グループホーム香紅の里【認知症対応型共同生活介護】山形県村山市楯岡俵町20番19号", "url2": "https://www.kaigokensaku.mhlw.go.jp/06/index.php?action_kouhyou_detail_004_kani=true&JigyosyoCd=0671400281-00&ServiceCd=320&Type=search" }, "geometry": { "type": "Point", "coordinates": [ 140.3854328, 38.4753529 ] } },
{ "type": "Feature", "properties": { "内容": "グループホーム　風ぐるま【認知症対応型共同生活介護】山形県長井市今泉2945-3", "url2": "https://www.kaigokensaku.mhlw.go.jp/06/index.php?action_kouhyou_detail_004_kani=true&JigyosyoCd=0691500029-00&ServiceCd=320&Type=search" }, "geometry": { "type": "Point", "coordinates": [ 140.046023200000036, 38.052897 ] } },
{ "type": "Feature", "properties": { "内容": "グループホームリバーヒル長井【認知症対応型共同生活介護】山形県長井市寺泉3081-21", "url2": "https://www.kaigokensaku.mhlw.go.jp/06/index.php?action_kouhyou_detail_004_kani=true&JigyosyoCd=0671500288-00&ServiceCd=320&Type=search" }, "geometry": { "type": "Point", "coordinates": [ 140.0019135, 38.1058371 ] } },
{ "type": "Feature", "properties": { "内容": "グループホームリバーヒル長井　館町【認知症対応型共同生活介護】山形県長井市館町南9-72-10", "url2": "https://www.kaigokensaku.mhlw.go.jp/06/index.php?action_kouhyou_detail_004_kani=true&JigyosyoCd=0691500060-00&ServiceCd=320&Type=search" }, "geometry": { "type": "Point", "coordinates": [ 140.042223099882023, 38.093594605912521 ] } },
{ "type": "Feature", "properties": { "内容": "グループホームすずな【認知症対応型共同生活介護】山形県長井市寺泉６４１番地", "url2": "https://www.kaigokensaku.mhlw.go.jp/06/index.php?action_kouhyou_detail_004_kani=true&JigyosyoCd=0691500102-00&ServiceCd=320&Type=search" }, "geometry": { "type": "Point", "coordinates": [ 140.017741599999965, 38.1207302 ] } },
{ "type": "Feature", "properties": { "内容": "グループホーム「さくらの家」認知症対応型共同生活介護事業所【認知症対応型共同生活介護】長井市平山911番地21", "url2": "https://www.kaigokensaku.mhlw.go.jp/06/index.php?action_kouhyou_detail_004_kani=true&JigyosyoCd=0671500254-00&ServiceCd=320&Type=search" }, "geometry": { "type": "Point", "coordinates": [ 140.013345699999945, 38.107204 ] } },
{ "type": "Feature", "properties": { "内容": "ケアステーション２１清池（グループホーム）【認知症対応型共同生活介護】天童市大字清池３８－３", "url2": "https://www.kaigokensaku.mhlw.go.jp/06/index.php?action_kouhyou_detail_004_kani=true&JigyosyoCd=0671600328-00&ServiceCd=320&Type=search" }, "geometry": { "type": "Point", "coordinates": [ 140.352155, 38.3269397 ] } },
{ "type": "Feature", "properties": { "内容": "ライフステーション寺津（グループホーム）【認知症対応型共同生活介護】天童市大字藤内新田字天神塚２０６－４", "url2": "https://www.kaigokensaku.mhlw.go.jp/06/index.php?action_kouhyou_detail_004_kani=true&JigyosyoCd=0671600484-00&ServiceCd=320&Type=search" }, "geometry": { "type": "Point", "coordinates": [ 140.322806799999967, 38.3542504 ] } },
{ "type": "Feature", "properties": { "内容": "ハートステーション西原（グループホーム）【認知症対応型共同生活介護】天童市大字乱川１５７９－５３", "url2": "https://www.kaigokensaku.mhlw.go.jp/06/index.php?action_kouhyou_detail_004_kani=true&JigyosyoCd=0671600427-00&ServiceCd=320&Type=search" }, "geometry": { "type": "Point", "coordinates": [ 140.372954400000026, 38.3909117 ] } },
{ "type": "Feature", "properties": { "内容": "グループホーム鎌田【認知症対応型共同生活介護】山形県天童市鎌田一丁目6番36号", "url2": "https://www.kaigokensaku.mhlw.go.jp/06/index.php?action_kouhyou_detail_004_kani=true&JigyosyoCd=0691600167-00&ServiceCd=320&Type=search" }, "geometry": { "type": "Point", "coordinates": [ 140.3863538, 38.360263 ] } },
{ "type": "Feature", "properties": { "内容": "グループホームつるかめ【認知症対応型共同生活介護】山形県天童市小関1-2-37", "url2": "https://www.kaigokensaku.mhlw.go.jp/06/index.php?action_kouhyou_detail_004_kani=true&JigyosyoCd=0691600068-00&ServiceCd=320&Type=search" }, "geometry": { "type": "Point", "coordinates": [ 140.36705059999997, 38.3682278 ] } },
{ "type": "Feature", "properties": { "内容": "グループホームつばさ原町【認知症対応型共同生活介護】山形県天童市大字原町145-1", "url2": "https://www.kaigokensaku.mhlw.go.jp/06/index.php?action_kouhyou_detail_004_kani=true&JigyosyoCd=0691600043-00&ServiceCd=320&Type=search" }, "geometry": { "type": "Point", "coordinates": [ 140.37999551094515, 38.341613864440383 ] } },
{ "type": "Feature", "properties": { "内容": "グループホームきらめきの里【認知症対応型共同生活介護】山形県天童市大字山口4540番地1", "url2": "https://www.kaigokensaku.mhlw.go.jp/06/index.php?action_kouhyou_detail_004_kani=true&JigyosyoCd=0691600134-00&ServiceCd=320&Type=search" }, "geometry": { "type": "Point", "coordinates": [ 140.414407100000062, 38.3815133 ] } },
{ "type": "Feature", "properties": { "内容": "ラ・フォーレ天童グループホーム【認知症対応型共同生活介護】山形県天童市大字道満176-1", "url2": "https://www.kaigokensaku.mhlw.go.jp/06/index.php?action_kouhyou_detail_004_kani=true&JigyosyoCd=0671600260-00&ServiceCd=320&Type=search" }, "geometry": { "type": "Point", "coordinates": [ 140.389547900000025, 38.3910952 ] } },
{ "type": "Feature", "properties": { "内容": "けあビジョンホーム天童【認知症対応型共同生活介護】山形県天童市老野森3-6-8", "url2": "https://www.kaigokensaku.mhlw.go.jp/06/index.php?action_kouhyou_detail_004_kani=true&JigyosyoCd=0691600175-00&ServiceCd=320&Type=search" }, "geometry": { "type": "Point", "coordinates": [ 140.372261, 38.3637272 ] } },
{ "type": "Feature", "properties": { "内容": "グループホームとうごう【認知症対応型共同生活介護】山形県東根市泉郷386-1", "url2": "https://www.kaigokensaku.mhlw.go.jp/06/index.php?action_kouhyou_detail_004_kani=true&JigyosyoCd=0691700090-00&ServiceCd=320&Type=search" }, "geometry": { "type": "Point", "coordinates": [ 140.423598380456497, 38.422206813091982 ] } },
{ "type": "Feature", "properties": { "内容": "ニチイケアセンター神町【認知症対応型共同生活介護】東根市神町東1丁目16-58", "url2": "https://www.kaigokensaku.mhlw.go.jp/06/index.php?action_kouhyou_detail_004_kani=true&JigyosyoCd=0691700041-00&ServiceCd=320&Type=search" }, "geometry": { "type": "Point", "coordinates": [ 140.384280699999977, 38.4102484 ] } },
{ "type": "Feature", "properties": { "内容": "グループホーム　ソーレ東根【認知症対応型共同生活介護】山形県東根市温泉町二丁目5-15", "url2": "https://www.kaigokensaku.mhlw.go.jp/06/index.php?action_kouhyou_detail_004_kani=true&JigyosyoCd=0691700066-00&ServiceCd=320&Type=search" }, "geometry": { "type": "Point", "coordinates": [ 140.3880464, 38.4597682 ] } },
{ "type": "Feature", "properties": { "内容": "グループホームさくらんぼ【認知症対応型共同生活介護】山形県東根市大字野田1924番地", "url2": "https://www.kaigokensaku.mhlw.go.jp/06/index.php?action_kouhyou_detail_004_kani=true&JigyosyoCd=0671700284-00&ServiceCd=320&Type=search" }, "geometry": { "type": "Point", "coordinates": [ 140.358342, 38.4330846 ] } },
{ "type": "Feature", "properties": { "内容": "ハイマート福原グループホーム【認知症対応型共同生活介護】山形県尾花沢市大字野黒沢554-35", "url2": "https://www.kaigokensaku.mhlw.go.jp/06/index.php?action_kouhyou_detail_004_kani=true&JigyosyoCd=0671800167-00&ServiceCd=320&Type=search" }, "geometry": { "type": "Point", "coordinates": [ 140.384471599999983, 38.6296702 ] } },
{ "type": "Feature", "properties": { "内容": "NPO法人ひのき　ｸﾞﾙｰﾌﾟﾎｰﾑあすなろ南陽【認知症対応型共同生活介護】山形県南陽市宮内2767-15", "url2": "https://www.kaigokensaku.mhlw.go.jp/06/index.php?action_kouhyou_detail_004_kani=true&JigyosyoCd=0691900138-00&ServiceCd=320&Type=search" }, "geometry": { "type": "Point", "coordinates": [ 140.1354297, 38.070228 ] } },
{ "type": "Feature", "properties": { "内容": "NPO法人ひのきグランデージあすなろ川樋【認知症対応型共同生活介護】山形県南陽市新田５７７番地", "url2": "https://www.kaigokensaku.mhlw.go.jp/06/index.php?action_kouhyou_detail_004_kani=true&JigyosyoCd=0691900146-00&ServiceCd=320&Type=search" }, "geometry": { "type": "Point", "coordinates": [ 140.182847, 38.0782782 ] } },
{ "type": "Feature", "properties": { "内容": "グループホームゆらり【認知症対応型共同生活介護】山形県南陽市椚塚字１８９６－１３", "url2": "https://www.kaigokensaku.mhlw.go.jp/06/index.php?action_kouhyou_detail_004_kani=true&JigyosyoCd=0671900298-00&ServiceCd=320&Type=search" }, "geometry": { "type": "Point", "coordinates": [ 140.162775058613533, 38.049175544470401 ] } },
{ "type": "Feature", "properties": { "内容": "認知症対応型共同生活介護施設　グループホーム桜の里双葉【認知症対応型共同生活介護】山形県南陽市椚塚1632-19", "url2": "https://www.kaigokensaku.mhlw.go.jp/06/index.php?action_kouhyou_detail_004_kani=true&JigyosyoCd=0691900096-00&ServiceCd=320&Type=search" }, "geometry": { "type": "Point", "coordinates": [ 140.1603523, 38.0454118 ] } },
{ "type": "Feature", "properties": { "内容": "グループホームぬくもりの家【認知症対応型共同生活介護】南陽市椚塚９２９", "url2": "https://www.kaigokensaku.mhlw.go.jp/06/index.php?action_kouhyou_detail_004_kani=true&JigyosyoCd=0691900039-00&ServiceCd=320&Type=search" }, "geometry": { "type": "Point", "coordinates": [ 140.17326550000007, 38.0431844 ] } },
{ "type": "Feature", "properties": { "内容": "こぶし荘認知症高齢者グループホームこぶしの家【認知症対応型共同生活介護】山形県南陽市川樋508番地", "url2": "https://www.kaigokensaku.mhlw.go.jp/06/index.php?action_kouhyou_detail_004_kani=true&JigyosyoCd=0671900231-00&ServiceCd=320&Type=search" }, "geometry": { "type": "Point", "coordinates": [ 140.194028399999979, 38.0948792 ] } },
{ "type": "Feature", "properties": { "内容": "グループホーム沖郷【認知症対応型共同生活介護】山形県南陽市若狭郷屋797-3", "url2": "https://www.kaigokensaku.mhlw.go.jp/06/index.php?action_kouhyou_detail_004_kani=true&JigyosyoCd=0691900120-00&ServiceCd=320&Type=search" }, "geometry": { "type": "Point", "coordinates": [ 140.145042906475368, 38.052353526574201 ] } },
{ "type": "Feature", "properties": { "内容": "グループホームメルヘン【認知症対応型共同生活介護】東村山郡山辺町大字大寺1132番5", "url2": "https://www.kaigokensaku.mhlw.go.jp/06/index.php?action_kouhyou_detail_004_kani=true&JigyosyoCd=0672200177-00&ServiceCd=320&Type=search" }, "geometry": { "type": "Point", "coordinates": [ 140.264649700000064, 38.3065962 ] } },
{ "type": "Feature", "properties": { "内容": "リーフステーション谷地（グループホーム）【認知症対応型共同生活介護】山形県西村山郡河北町谷地字砂田115-1", "url2": "https://www.kaigokensaku.mhlw.go.jp/06/index.php?action_kouhyou_detail_004_kani=true&JigyosyoCd=0692300072-00&ServiceCd=320&Type=search" }, "geometry": { "type": "Point", "coordinates": [ 140.3066126, 38.419893600000016 ] } },
{ "type": "Feature", "properties": { "内容": "グループホームかほく【認知症対応型共同生活介護】山形県西村山郡河北町谷地字砂田２０７－１", "url2": "https://www.kaigokensaku.mhlw.go.jp/06/index.php?action_kouhyou_detail_004_kani=true&JigyosyoCd=0672300381-00&ServiceCd=320&Type=search" }, "geometry": { "type": "Point", "coordinates": [ 140.305851699999948, 38.4168383 ] } },
{ "type": "Feature", "properties": { "内容": "認知症対応型共同生活介護グループホームこころ【認知症対応型共同生活介護】山形県西村山郡河北町大字溝延字本丸８－１", "url2": "https://www.kaigokensaku.mhlw.go.jp/06/index.php?action_kouhyou_detail_004_kani=true&JigyosyoCd=0692300056-00&ServiceCd=320&Type=search" }, "geometry": { "type": "Point", "coordinates": [ 140.311771300000032, 38.3958821 ] } },
{ "type": "Feature", "properties": { "内容": "グループホームあさひ【認知症対応型共同生活介護】山形県西村山郡朝日町大字宮宿３２０番地の６", "url2": "https://www.kaigokensaku.mhlw.go.jp/06/index.php?action_kouhyou_detail_004_kani=true&JigyosyoCd=0672300431-00&ServiceCd=320&Type=search" }, "geometry": { "type": "Point", "coordinates": [ 140.153069800000026, 38.3017589 ] } },
{ "type": "Feature", "properties": { "内容": "グループホーム大江【認知症対応型共同生活介護】山形県　西村山郡大江町大字左沢５３６番地の１", "url2": "https://www.kaigokensaku.mhlw.go.jp/06/index.php?action_kouhyou_detail_004_kani=true&JigyosyoCd=0692300080-00&ServiceCd=320&Type=search" }, "geometry": { "type": "Point", "coordinates": [ 140.20550430000003, 38.3802562 ] } },
{ "type": "Feature", "properties": { "内容": "グループホームもも太郎さん（大石田）【認知症対応型共同生活介護】山形県北村山郡大石田町桂木町2-3", "url2": "https://www.kaigokensaku.mhlw.go.jp/06/index.php?action_kouhyou_detail_004_kani=true&JigyosyoCd=0692400021-00&ServiceCd=320&Type=search" }, "geometry": { "type": "Point", "coordinates": [ 140.3676719, 38.5931079 ] } },
{ "type": "Feature", "properties": { "内容": "グループホームやまなみ【認知症対応型共同生活介護】山形県最上郡最上町向町5-10", "url2": "https://www.kaigokensaku.mhlw.go.jp/06/index.php?action_kouhyou_detail_004_kani=true&JigyosyoCd=0692500051-00&ServiceCd=320&Type=search" }, "geometry": { "type": "Point", "coordinates": [ 140.5197786, 38.7549398 ] } },
{ "type": "Feature", "properties": { "内容": "グループホーム紅芭【認知症対応型共同生活介護】山形県最上郡戸沢村大字津谷字鞭打野2096-1", "url2": "https://www.kaigokensaku.mhlw.go.jp/06/index.php?action_kouhyou_detail_004_kani=true&JigyosyoCd=0692500077-00&ServiceCd=320&Type=search" }, "geometry": { "type": "Point", "coordinates": [ 140.192129599999987, 38.7363933 ] } },
{ "type": "Feature", "properties": { "内容": "山形県東置賜郡高畠町大字高畠1181-3【認知症対応型共同生活介護】山形県東置賜郡高畠町大字高畠1181-3さわやかグループホームたかはた", "url2": "https://www.kaigokensaku.mhlw.go.jp/06/index.php?action_kouhyou_detail_004_kani=true&JigyosyoCd=0692600109-00&ServiceCd=320&Type=search" }, "geometry": { "type": "Point", "coordinates": [ 140.2030815, 37.9994131 ] } },
{ "type": "Feature", "properties": { "内容": "グループホーム　はやま荘【認知症対応型共同生活介護】山形県東置賜郡高畠町大字高畠５３０－１", "url2": "https://www.kaigokensaku.mhlw.go.jp/06/index.php?action_kouhyou_detail_004_kani=true&JigyosyoCd=0672600350-00&ServiceCd=320&Type=search" }, "geometry": { "type": "Point", "coordinates": [ 140.1898711, 38.0039723 ] } },
{ "type": "Feature", "properties": { "内容": "グループホームもも太郎さん　高畠【認知症対応型共同生活介護】東置賜郡高畠町大字深沼字　191番3", "url2": "https://www.kaigokensaku.mhlw.go.jp/06/index.php?action_kouhyou_detail_004_kani=true&JigyosyoCd=0692600034-00&ServiceCd=320&Type=search" }, "geometry": { "type": "Point", "coordinates": [ 140.1744579, 38.0158429 ] } },
{ "type": "Feature", "properties": { "内容": "グループホーム　新緑の丘【認知症対応型共同生活介護】山形県東置賜郡川西町大字下奥田字穴澤平3796番地65号", "url2": "https://www.kaigokensaku.mhlw.go.jp/06/index.php?action_kouhyou_detail_004_kani=true&JigyosyoCd=0692600042-00&ServiceCd=320&Type=search" }, "geometry": { "type": "Point", "coordinates": [ 140.043313552917397, 37.988517281038234 ] } },
{ "type": "Feature", "properties": { "内容": "グループホーム　薬師温泉【認知症対応型共同生活介護】山形県東置賜郡川西町西大塚字横道1354-13", "url2": "https://www.kaigokensaku.mhlw.go.jp/06/index.php?action_kouhyou_detail_004_kani=true&JigyosyoCd=0672600319-00&ServiceCd=320&Type=search" }, "geometry": { "type": "Point", "coordinates": [ 140.084, 38.012 ] } },
{ "type": "Feature", "properties": { "内容": "グループホーム　さわやか【認知症対応型共同生活介護】山形県西置賜郡飯豊町大字萩生4284-3番地", "url2": "https://www.kaigokensaku.mhlw.go.jp/06/index.php?action_kouhyou_detail_004_kani=true&JigyosyoCd=0692700024-00&ServiceCd=320&Type=search" }, "geometry": { "type": "Point", "coordinates": [ 139.9996049, 38.06047550000001 ] } },
{ "type": "Feature", "properties": { "内容": "グループホームひめさゆり荘2号館【認知症対応型共同生活介護】山形県西置賜郡飯豊町大字椿3642番地", "url2": "https://www.kaigokensaku.mhlw.go.jp/06/index.php?action_kouhyou_detail_004_kani=true&JigyosyoCd=0692700016-00&ServiceCd=320&Type=search" }, "geometry": { "type": "Point", "coordinates": [ 139.995586900000035, 38.0445157 ] } },
{ "type": "Feature", "properties": { "内容": "グループホームひめさゆり荘【認知症対応型共同生活介護】山形県西置賜郡飯豊町大字添川3514番地82", "url2": "https://www.kaigokensaku.mhlw.go.jp/06/index.php?action_kouhyou_detail_004_kani=true&JigyosyoCd=0672700309-00&ServiceCd=320&Type=search" }, "geometry": { "type": "Point", "coordinates": [ 140.029609, 38.0297904 ] } },
{ "type": "Feature", "properties": { "内容": "グループホームのんき【認知症対応型共同生活介護】山形県東田川郡三川町大字猪子字下堀田230番地１", "url2": "https://www.kaigokensaku.mhlw.go.jp/06/index.php?action_kouhyou_detail_004_kani=true&JigyosyoCd=0673000493-00&ServiceCd=320&Type=search" }, "geometry": { "type": "Point", "coordinates": [ 139.840051, 38.8189586 ] } },
{ "type": "Feature", "properties": { "内容": "あっとホームのんき【認知症対応型共同生活介護】山形県東田川郡三川町大字猪子字大堰端３３６番地", "url2": "https://www.kaigokensaku.mhlw.go.jp/06/index.php?action_kouhyou_detail_004_kani=true&JigyosyoCd=0673000634-00&ServiceCd=320&Type=search" }, "geometry": { "type": "Point", "coordinates": [ 139.839465, 38.8183837 ] } },
{ "type": "Feature", "properties": { "内容": "グループホームみかわ【認知症対応型共同生活介護】山形県東田川郡三川町大字青山字筬元22-1", "url2": "https://www.kaigokensaku.mhlw.go.jp/06/index.php?action_kouhyou_detail_004_kani=true&JigyosyoCd=0673000683-00&ServiceCd=320&Type=search" }, "geometry": { "type": "Point", "coordinates": [ 139.840744200000017, 38.7844461 ] } },
{ "type": "Feature", "properties": { "内容": "グループホーム　ほなみ家【認知症対応型共同生活介護】山形県東田川郡庄内町余目字四ッ興野123", "url2": "https://www.kaigokensaku.mhlw.go.jp/06/index.php?action_kouhyou_detail_004_kani=true&JigyosyoCd=0693000051-00&ServiceCd=320&Type=search" }, "geometry": { "type": "Point", "coordinates": [ 139.906702900000028, 38.851734 ] } },
{ "type": "Feature", "properties": { "内容": "グループホームひまわりの丘【認知症対応型共同生活介護】山形県東田川郡庄内町松陽１－１－６", "url2": "https://www.kaigokensaku.mhlw.go.jp/06/index.php?action_kouhyou_detail_004_kani=true&JigyosyoCd=0673000477-00&ServiceCd=320&Type=search" }, "geometry": { "type": "Point", "coordinates": [ 139.894881599999962, 38.8516948 ] } },
{ "type": "Feature", "properties": { "内容": "グループホームやまゆり【認知症対応型共同生活介護】山形県東田川郡庄内町狩川字小縄3-3", "url2": "https://www.kaigokensaku.mhlw.go.jp/06/index.php?action_kouhyou_detail_004_kani=true&JigyosyoCd=0673000659-00&ServiceCd=320&Type=search" }, "geometry": { "type": "Point", "coordinates": [ 139.967383, 38.7946861 ] } },
{ "type": "Feature", "properties": { "内容": "グループホーム燦燦【認知症対応型共同生活介護】山形県飽海郡遊佐町遊佐字南大坪１２－１", "url2": "https://www.kaigokensaku.mhlw.go.jp/06/index.php?action_kouhyou_detail_004_kani=true&JigyosyoCd=0673200341-00&ServiceCd=320&Type=search" }, "geometry": { "type": "Point", "coordinates": [ 139.917059399999971, 39.0091972 ] } },
{ "type": "Feature", "properties": { "内容": "グループホーム　なごやか【認知症対応型共同生活介護】山形県飽海郡遊佐町江地字中屋敷田3番地の7", "url2": "https://www.kaigokensaku.mhlw.go.jp/06/index.php?action_kouhyou_detail_004_kani=true&JigyosyoCd=0673200333-00&ServiceCd=320&Type=search" }, "geometry": { "type": "Point", "coordinates": [ 139.887587633729595, 39.023947331206912 ] } }
]
}
