{
"type": "FeatureCollection",
"name": "geo_06_介護老人保健施設",
"crs": { "type": "name", "properties": { "name": "urn:ogc:def:crs:OGC:1.3:CRS84" } },
"features": [
{ "type": "Feature", "properties": { "内容": "介護療養型老人保健施設　木の実【介護老人保健施設】山形市旅篭町１丁目７番２３号", "url": "https://www.kaigokensaku.mhlw.go.jp/06/index.php?action_kouhyou_detail_004_kani=true&JigyosyoCd=0650180045-00&ServiceCd=520&Type=search", "url2": "http://www.shiseido-hp.jp/" }, "geometry": { "type": "Point", "coordinates": [ 140.334724300000062, 38.2550916 ] } },
{ "type": "Feature", "properties": { "内容": "介護老人保健施設さくらパレス【介護老人保健施設】山形県山形市桜田西４丁目3-26", "url": "https://www.kaigokensaku.mhlw.go.jp/06/index.php?action_kouhyou_detail_004_kani=true&JigyosyoCd=0650180011-00&ServiceCd=520&Type=search", "url2": null }, "geometry": { "type": "Point", "coordinates": [ 140.318615899999941, 38.2181835 ] } },
{ "type": "Feature", "properties": { "内容": "介護老人保健施設サニーヒル菅沢【介護老人保健施設】山形市すげさわの丘727番地20", "url": "https://www.kaigokensaku.mhlw.go.jp/06/index.php?action_kouhyou_detail_004_kani=true&JigyosyoCd=0650180003-00&ServiceCd=520&Type=search", "url2": "http://sunny91.sakura.ne.jp" }, "geometry": { "type": "Point", "coordinates": [ 140.267887299999984, 38.223354 ] } },
{ "type": "Feature", "properties": { "内容": "介護老人保健施設サニーヒル山寺【介護老人保健施設】山形県山形市大字山寺1973-335", "url": "https://www.kaigokensaku.mhlw.go.jp/06/index.php?action_kouhyou_detail_004_kani=true&JigyosyoCd=0650180037-00&ServiceCd=520&Type=search", "url2": "http://sunny91.sakura.ne.jp" }, "geometry": { "type": "Point", "coordinates": [ 140.412541199999964, 38.3119766 ] } },
{ "type": "Feature", "properties": { "内容": "介護老人保健施設フローラさいせい【介護老人保健施設】山形県山形市沖町７９番地の1山形済生病院　南館４階、５階", "url": "https://www.kaigokensaku.mhlw.go.jp/06/index.php?action_kouhyou_detail_004_kani=true&JigyosyoCd=0650180029-00&ServiceCd=520&Type=search", "url2": "http://yamagata-saiseikai.org" }, "geometry": { "type": "Point", "coordinates": [ 140.335066559541332, 38.284951845884365 ] } },
{ "type": "Feature", "properties": { "内容": "介護老人保健施設「サンファミリア米沢」【介護老人保健施設】山形県米沢市塩井町塩野520", "url": "https://www.kaigokensaku.mhlw.go.jp/06/index.php?action_kouhyou_detail_004_kani=true&JigyosyoCd=0650480023-00&ServiceCd=520&Type=search", "url2": "http://www.y-kouwakai.jp" }, "geometry": { "type": "Point", "coordinates": [ 140.110583493254126, 37.927853903990801 ] } },
{ "type": "Feature", "properties": { "内容": "介護老人保健施設サンプラザ米沢【介護老人保健施設】山形県米沢市大字簗沢３０４６番地", "url": "https://www.kaigokensaku.mhlw.go.jp/06/index.php?action_kouhyou_detail_004_kani=true&JigyosyoCd=0650480007-00&ServiceCd=520&Type=search", "url2": "ｙ－kouwakai.jp" }, "geometry": { "type": "Point", "coordinates": [ 140.051581199999987, 37.8877224 ] } },
{ "type": "Feature", "properties": { "内容": "介護老人保健施設　あづま【介護老人保健施設】山形県米沢市大字李山８１３２－１１", "url": "https://www.kaigokensaku.mhlw.go.jp/06/index.php?action_kouhyou_detail_004_kani=true&JigyosyoCd=0650480015-00&ServiceCd=520&Type=search", "url2": "http://www.y-aduma.com./" }, "geometry": { "type": "Point", "coordinates": [ 140.098095, 37.8611905 ] } },
{ "type": "Feature", "properties": { "内容": "介護療養型老人保健施設せせらぎ【介護老人保健施設】山形県鶴岡市文園町9-34", "url": "https://www.kaigokensaku.mhlw.go.jp/06/index.php?action_kouhyou_detail_004_kani=true&JigyosyoCd=0650780059-00&ServiceCd=520&Type=search", "url2": "http://www.turuoka-kyoritu-hp.or.jp/seseragi/" }, "geometry": { "type": "Point", "coordinates": [ 139.828341027122519, 38.714429143325958 ] } },
{ "type": "Feature", "properties": { "内容": "介護老人保健施設ケアホームみやはら【介護老人保健施設】鶴岡市三和町１番５３号", "url": "https://www.kaigokensaku.mhlw.go.jp/06/index.php?action_kouhyou_detail_004_kani=true&JigyosyoCd=0650780034-00&ServiceCd=520&Type=search", "url2": "http://www.miyahara-hp.jp/" }, "geometry": { "type": "Point", "coordinates": [ 139.829580599999986, 38.7213755 ] } },
{ "type": "Feature", "properties": { "内容": "老人保健施設のぞみの園【介護老人保健施設】山形県鶴岡市茅原町26番23号", "url": "https://www.kaigokensaku.mhlw.go.jp/06/index.php?action_kouhyou_detail_004_kani=true&JigyosyoCd=0650780000-00&ServiceCd=520&Type=search", "url2": "http://www.mituwakai.com" }, "geometry": { "type": "Point", "coordinates": [ 139.841217499999971, 38.753822 ] } },
{ "type": "Feature", "properties": { "内容": "サテライト老健ちわら【介護老人保健施設】山形県鶴岡市北茅原町5番10号", "url": "https://www.kaigokensaku.mhlw.go.jp/06/index.php?action_kouhyou_detail_004_kani=true&JigyosyoCd=0650780067-00&ServiceCd=520&Type=search", "url2": null }, "geometry": { "type": "Point", "coordinates": [ 139.841011179484553, 38.754768999923087 ] } },
{ "type": "Feature", "properties": { "内容": "サテライト老健のぞみ【介護老人保健施設】山形県鶴岡市日枝字小真木原116-8", "url": "https://www.kaigokensaku.mhlw.go.jp/06/index.php?action_kouhyou_detail_004_kani=true&JigyosyoCd=0650780042-00&ServiceCd=520&Type=search", "url2": null }, "geometry": { "type": "Point", "coordinates": [ 139.812570827415925, 38.711592609585281 ] } },
{ "type": "Feature", "properties": { "内容": "介護老人保健施設かけはし【介護老人保健施設】鶴岡市民田字代家田１００－１", "url": "https://www.kaigokensaku.mhlw.go.jp/06/index.php?action_kouhyou_detail_004_kani=true&JigyosyoCd=0650780018-00&ServiceCd=520&Type=search", "url2": "https://niji-kakehashi.or.jp" }, "geometry": { "type": "Point", "coordinates": [ 139.8265814, 38.7047771 ] } },
{ "type": "Feature", "properties": { "内容": "介護老人保健施設　みずばしょう【介護老人保健施設】鶴岡市羽黒町後田字谷地田191-4", "url": "https://www.kaigokensaku.mhlw.go.jp/06/index.php?action_kouhyou_detail_004_kani=true&JigyosyoCd=0653080044-00&ServiceCd=520&Type=search", "url2": "https://www.tsuruoka-rm.jp" }, "geometry": { "type": "Point", "coordinates": [ 139.880340599999954, 38.7147469 ] } },
{ "type": "Feature", "properties": { "内容": "介護老人保健施設シェ・モワ【介護老人保健施設】酒田市緑町13-37", "url": "https://www.kaigokensaku.mhlw.go.jp/06/index.php?action_kouhyou_detail_004_kani=true&JigyosyoCd=0650880008-00&ServiceCd=520&Type=search", "url2": "http://www.koufukai.or.jp" }, "geometry": { "type": "Point", "coordinates": [ 139.852522799999946, 38.9106422 ] } },
{ "type": "Feature", "properties": { "内容": "介護老人保健施設　ひだまり【介護老人保健施設】酒田市中町３丁目５－２３", "url": "https://www.kaigokensaku.mhlw.go.jp/06/index.php?action_kouhyou_detail_004_kani=true&JigyosyoCd=0650880032-00&ServiceCd=520&Type=search", "url2": "http://www.kenyukai-sakata.jp" }, "geometry": { "type": "Point", "coordinates": [ 139.834332, 38.9168828 ] } },
{ "type": "Feature", "properties": { "内容": "医療法人　徳洲会　介護老人保健施設　徳田山【介護老人保健施設】山形県酒田市相沢字道脇7番地", "url": "https://www.kaigokensaku.mhlw.go.jp/06/index.php?action_kouhyou_detail_004_kani=true&JigyosyoCd=0653280008-00&ServiceCd=520&Type=search", "url2": "tokudayama.com" }, "geometry": { "type": "Point", "coordinates": [ 139.939465199999972, 38.8763348 ] } },
{ "type": "Feature", "properties": { "内容": "老人保健施設　明日葉【介護老人保健施設】山形県酒田市曙町２－１８－６", "url": "https://www.kaigokensaku.mhlw.go.jp/06/index.php?action_kouhyou_detail_004_kani=true&JigyosyoCd=0650880016-00&ServiceCd=520&Type=search", "url2": "https://www.satsuki-ashitaba.jp/" }, "geometry": { "type": "Point", "coordinates": [ 139.864415799999961, 38.9199279 ] } },
{ "type": "Feature", "properties": { "内容": "介護老人保健施設　新庄薬師園【介護老人保健施設】山形県新庄市金沢字西ノ山3027-4", "url": "https://www.kaigokensaku.mhlw.go.jp/06/index.php?action_kouhyou_detail_004_kani=true&JigyosyoCd=0651180010-00&ServiceCd=520&Type=search", "url2": "https://katsuroku.jp/" }, "geometry": { "type": "Point", "coordinates": [ 140.337402699999984, 38.7729627 ] } },
{ "type": "Feature", "properties": { "内容": "医療法人社団清明会　介護老人保健施設　ＰＦＣエーデルワイス【介護老人保健施設】山形県新庄市大字本合海字福田界1802番地3", "url": "https://www.kaigokensaku.mhlw.go.jp/06/index.php?action_kouhyou_detail_004_kani=true&JigyosyoCd=0651180002-00&ServiceCd=520&Type=search", "url2": "https://ew.seimei-kai.or.jp/" }, "geometry": { "type": "Point", "coordinates": [ 140.229392599999983, 38.7285178 ] } },
{ "type": "Feature", "properties": { "内容": "介護老人保健施設寒河江やすらぎの里【介護老人保健施設】山形県寒河江市本楯二丁目24番地1", "url": "https://www.kaigokensaku.mhlw.go.jp/06/index.php?action_kouhyou_detail_004_kani=true&JigyosyoCd=0651280000-00&ServiceCd=520&Type=search", "url2": "hittp://care-net,biz/06/s-yasuragi/" }, "geometry": { "type": "Point", "coordinates": [ 140.292274, 38.3637076 ] } },
{ "type": "Feature", "properties": { "内容": "介護老人保健施設みゆきの丘【介護老人保健施設】山形県上山市弁天二丁目2番11号", "url": "https://www.kaigokensaku.mhlw.go.jp/06/index.php?action_kouhyou_detail_004_kani=true&JigyosyoCd=0651380008-00&ServiceCd=520&Type=search", "url2": "http://www.miyuki.or.jp" }, "geometry": { "type": "Point", "coordinates": [ 140.292603900000017, 38.1699242 ] } },
{ "type": "Feature", "properties": { "内容": "介護老人保健施設　かなやの里【介護老人保健施設】山形県上山市金谷字下河原1370", "url": "https://www.kaigokensaku.mhlw.go.jp/06/index.php?action_kouhyou_detail_004_kani=true&JigyosyoCd=0671300580-00&ServiceCd=520&Type=search", "url2": "http://www.nihonmatsukai.or.jp" }, "geometry": { "type": "Point", "coordinates": [ 140.301129586508182, 38.172321098569647 ] } },
{ "type": "Feature", "properties": { "内容": "介護老人保健施設ローズむらやま【介護老人保健施設】大字本飯田字柳堤2486番地の65", "url": "https://www.kaigokensaku.mhlw.go.jp/06/index.php?action_kouhyou_detail_004_kani=true&JigyosyoCd=0651480014-00&ServiceCd=520&Type=search", "url2": "https://www.kodama-hp.com" }, "geometry": { "type": "Point", "coordinates": [ 140.3912087, 38.5191 ] } },
{ "type": "Feature", "properties": { "内容": "介護老人保健施設リバーヒル長井【介護老人保健施設】山形県長井市寺泉３５２５－１", "url": "https://www.kaigokensaku.mhlw.go.jp/06/index.php?action_kouhyou_detail_004_kani=true&JigyosyoCd=0651580003-00&ServiceCd=520&Type=search", "url2": "https://www.riverhill.jp" }, "geometry": { "type": "Point", "coordinates": [ 140.000894099999982, 38.1057177 ] } },
{ "type": "Feature", "properties": { "内容": "介護老人保健施設あこがれ【介護老人保健施設】山形県天童市大字荒谷　1973-884", "url": "https://www.kaigokensaku.mhlw.go.jp/06/index.php?action_kouhyou_detail_004_kani=true&JigyosyoCd=0651680019-00&ServiceCd=520&Type=search", "url2": "http://www.yuuaikai-yamagata.or.jp" }, "geometry": { "type": "Point", "coordinates": [ 140.387688600000047, 38.3270324 ] } },
{ "type": "Feature", "properties": { "内容": "介護老人保健施設ラ・フォーレ天童【介護老人保健施設】山形県天童市大字道満１９３－１", "url": "https://www.kaigokensaku.mhlw.go.jp/06/index.php?action_kouhyou_detail_004_kani=true&JigyosyoCd=0651680001-00&ServiceCd=520&Type=search", "url2": "http://www.laforet-tendo.com/" }, "geometry": { "type": "Point", "coordinates": [ 140.3885924, 38.3916062 ] } },
{ "type": "Feature", "properties": { "内容": "介護老人保健施設ナーシングホームさくらんぼ【介護老人保健施設】東根市大字野田1921", "url": "https://www.kaigokensaku.mhlw.go.jp/06/index.php?action_kouhyou_detail_004_kani=true&JigyosyoCd=0651780009-00&ServiceCd=520&Type=search", "url2": "http://kjg-net.jp/" }, "geometry": { "type": "Point", "coordinates": [ 140.357942, 38.433557442189375 ] } },
{ "type": "Feature", "properties": { "内容": "介護老人保健施設ハイマート福原【介護老人保健施設】山形県尾花沢市大字野黒沢５５４番地２９", "url": "https://www.kaigokensaku.mhlw.go.jp/06/index.php?action_kouhyou_detail_004_kani=true&JigyosyoCd=0651880007-00&ServiceCd=520&Type=search", "url2": "http://www.haimart-kaigo.com" }, "geometry": { "type": "Point", "coordinates": [ 140.383739683467041, 38.629191131759157 ] } },
{ "type": "Feature", "properties": { "内容": "介護老人保健施設ドミール南陽【介護老人保健施設】山形県南陽市椚塚940", "url": "https://www.kaigokensaku.mhlw.go.jp/06/index.php?action_kouhyou_detail_004_kani=true&JigyosyoCd=0651980005-00&ServiceCd=520&Type=search", "url2": "http://www.koutoku.or.jp" }, "geometry": { "type": "Point", "coordinates": [ 140.173082099999988, 38.0434232 ] } },
{ "type": "Feature", "properties": { "内容": "介護老人保健施設ほなみ荘【介護老人保健施設】山形県南陽市宮内３７５０－１", "url": "https://www.kaigokensaku.mhlw.go.jp/06/index.php?action_kouhyou_detail_004_kani=true&JigyosyoCd=0651980013-00&ServiceCd=520&Type=search", "url2": "http://nanyohonami.or.jp" }, "geometry": { "type": "Point", "coordinates": [ 140.13526939999997, 38.0771997 ] } },
{ "type": "Feature", "properties": { "内容": "介護老人保健施設メルヘン【介護老人保健施設】山形県東村山郡山辺町大字大寺1152番1", "url": "https://www.kaigokensaku.mhlw.go.jp/06/index.php?action_kouhyou_detail_004_kani=true&JigyosyoCd=0652280009-00&ServiceCd=520&Type=search", "url2": null }, "geometry": { "type": "Point", "coordinates": [ 140.2650774, 38.3069517 ] } },
{ "type": "Feature", "properties": { "内容": "介護老人保健施設　紅寿の里【介護老人保健施設】山形県西村山郡河北町大字溝延字本丸８－１", "url": "https://www.kaigokensaku.mhlw.go.jp/06/index.php?action_kouhyou_detail_004_kani=true&JigyosyoCd=0652380023-00&ServiceCd=520&Type=search", "url2": "http://www.miyuki.or.jp/kouju/" }, "geometry": { "type": "Point", "coordinates": [ 140.311771300000032, 38.3958821 ] } },
{ "type": "Feature", "properties": { "内容": "最上町介護老人保健施設やすらぎ【介護老人保健施設】山形県最上郡最上町大字向町64-3", "url": "https://www.kaigokensaku.mhlw.go.jp/06/index.php?action_kouhyou_detail_004_kani=true&JigyosyoCd=0652580002-00&ServiceCd=520&Type=search", "url2": null }, "geometry": { "type": "Point", "coordinates": [ 140.516334700000016, 38.7530427 ] } },
{ "type": "Feature", "properties": { "内容": "医療法人徳洲会　介護老人保健施設　舟形徳洲苑【介護老人保健施設】山形県最上郡舟形町富田字富田135-1", "url": "https://www.kaigokensaku.mhlw.go.jp/06/index.php?action_kouhyou_detail_004_kani=true&JigyosyoCd=0652580010-00&ServiceCd=520&Type=search", "url2": "http://care-net.biz/06/funatoku/" }, "geometry": { "type": "Point", "coordinates": [ 140.274737504017196, 38.669925547789617 ] } },
{ "type": "Feature", "properties": { "内容": "医療法人徳洲会　介護老人保健施設　梅花苑【介護老人保健施設】山形県最上郡真室川町大字木ノ下字片渕山1125-286", "url": "https://www.kaigokensaku.mhlw.go.jp/06/index.php?action_kouhyou_detail_004_kani=true&JigyosyoCd=0652580036-00&ServiceCd=520&Type=search", "url2": "http://care-net.biz/06/baikaen/" }, "geometry": { "type": "Point", "coordinates": [ 140.241787299999942, 38.8634694 ] } },
{ "type": "Feature", "properties": { "内容": "介護老人保健施設かがやきの丘【介護老人保健施設】山形県東置賜郡川西町大字下奥田字穴澤平３７９６番地２０号", "url": "https://www.kaigokensaku.mhlw.go.jp/06/index.php?action_kouhyou_detail_004_kani=true&JigyosyoCd=0652680000-00&ServiceCd=520&Type=search", "url2": "http://www.ryokuaikai.com" }, "geometry": { "type": "Point", "coordinates": [ 140.042326499999945, 37.9896588 ] } },
{ "type": "Feature", "properties": { "内容": "介護老人保健施設　白鷹あゆみの園【介護老人保健施設】山形県西置賜郡白鷹町大字十王5087番地1", "url": "https://www.kaigokensaku.mhlw.go.jp/06/index.php?action_kouhyou_detail_004_kani=true&JigyosyoCd=0652780016-00&ServiceCd=520&Type=search", "url2": "http://soumeikai.jp/" }, "geometry": { "type": "Point", "coordinates": [ 140.1230157, 38.1926504 ] } },
{ "type": "Feature", "properties": { "内容": "飯豊町介護老人保健施設「美の里」【介護老人保健施設】山形県西置賜郡飯豊町大字椿3654番1", "url": "https://www.kaigokensaku.mhlw.go.jp/06/index.php?action_kouhyou_detail_004_kani=true&JigyosyoCd=0652780024-00&ServiceCd=520&Type=search", "url2": null }, "geometry": { "type": "Point", "coordinates": [ 139.9942926, 38.0453628 ] } },
{ "type": "Feature", "properties": { "内容": "医療法人徳洲会　介護老人保健施設　ほのか【介護老人保健施設】山形県東田川郡三川町大字押切新田字深田1番地", "url": "https://www.kaigokensaku.mhlw.go.jp/06/index.php?action_kouhyou_detail_004_kani=true&JigyosyoCd=0653080051-00&ServiceCd=520&Type=search", "url2": "https://www.tokushukai.or.jp/" }, "geometry": { "type": "Point", "coordinates": [ 139.85602, 38.8072239 ] } },
{ "type": "Feature", "properties": { "内容": "医療法人徳洲会介護老人保健施設余目徳洲苑【介護老人保健施設】山形県東田川郡庄内町松陽1丁目1-6", "url": "https://www.kaigokensaku.mhlw.go.jp/06/index.php?action_kouhyou_detail_004_kani=true&JigyosyoCd=0653080010-00&ServiceCd=520&Type=search", "url2": "http://www.amarume-tokushuen.com" }, "geometry": { "type": "Point", "coordinates": [ 139.894881599999962, 38.8516948 ] } },
{ "type": "Feature", "properties": { "内容": "医療法人　徳洲会　介護老人保健施設　あかね【介護老人保健施設】山形県東田川郡庄内町添津字家の下97", "url": "https://www.kaigokensaku.mhlw.go.jp/06/index.php?action_kouhyou_detail_004_kani=true&JigyosyoCd=0653080002-00&ServiceCd=520&Type=search", "url2": "http://www.rouken-akane.com/index.html" }, "geometry": { "type": "Point", "coordinates": [ 139.955959500000063, 38.7683723 ] } }
]
}
