{
"type": "FeatureCollection",
"name": "geo_06_各種学校",
"crs": { "type": "name", "properties": { "name": "urn:ogc:def:crs:EPSG::6668" } },
"features": [
{ "type": "Feature", "properties": { "P29_001": "06201", "P29_002": "H206320181017", "P29_003": "16015", "P29_004": "山形理容学校", "P29_005": "山形県山形市相生町8-52", "P29_006": "4", "P29_007": "0", "P29_008": "00", "P29_009": null }, "geometry": { "type": "Point", "coordinates": [ 140.338390166037044, 38.259625678806209 ] } },
{ "type": "Feature", "properties": { "P29_001": "06201", "P29_002": "H206320181035", "P29_003": "16015", "P29_004": "明徳予備校", "P29_005": "山形県山形市旅篭町3-2-14", "P29_006": "4", "P29_007": "0", "P29_008": "00", "P29_009": null }, "geometry": { "type": "Point", "coordinates": [ 140.339796587236862, 38.258801883116021 ] } },
{ "type": "Feature", "properties": { "P29_001": "06210", "P29_002": "H206321081016", "P29_003": "16015", "P29_004": "第一貨物流通技能専門校", "P29_005": "山形県天童市芳賀895", "P29_006": "4", "P29_007": "0", "P29_008": "00", "P29_009": null }, "geometry": { "type": "Point", "coordinates": [ 140.371297441953544, 38.333581172302601 ] } }
]
}
