{
"type": "FeatureCollection",
"name": "geo_06_訪問看護",
"crs": { "type": "name", "properties": { "name": "urn:ogc:def:crs:OGC:1.3:CRS84" } },
"features": [
{ "type": "Feature", "properties": { "内容": "訪問看護ステーション和来やまがた【訪問看護】山形県山形市江俣４丁目18番29号サニーメゾン1F", "url2": "https://www.kaigokensaku.mhlw.go.jp/06/index.php?action_kouhyou_detail_004_kani=true&JigyosyoCd=0660190380-00&ServiceCd=130&Type=search" }, "geometry": { "type": "Point", "coordinates": [ 140.318056, 38.2779352 ] } },
{ "type": "Feature", "properties": { "内容": "アイノア訪問看護ステーション【訪問看護】山形県山形市南原町二丁目8番47号南原アネックス2階北", "url2": "https://www.kaigokensaku.mhlw.go.jp/06/index.php?action_kouhyou_detail_004_kani=true&JigyosyoCd=0660190406-00&ServiceCd=130&Type=search" }, "geometry": { "type": "Point", "coordinates": [ 140.3401984, 38.2343467 ] } },
{ "type": "Feature", "properties": { "内容": "いちまる訪問看護ステーション【訪問看護】山形県山形市若宮2丁目17-1", "url2": "https://www.kaigokensaku.mhlw.go.jp/06/index.php?action_kouhyou_detail_004_kani=true&JigyosyoCd=0660190281-00&ServiceCd=130&Type=search" }, "geometry": { "type": "Point", "coordinates": [ 140.310506723792145, 38.226013332500386 ] } },
{ "type": "Feature", "properties": { "内容": "医心館訪問看護ステーション山形Ⅱ【訪問看護】山形県山形市南栄町二丁目14番2号", "url2": "https://www.kaigokensaku.mhlw.go.jp/06/index.php?action_kouhyou_detail_004_kani=true&JigyosyoCd=0660190364-00&ServiceCd=130&Type=search" }, "geometry": { "type": "Point", "coordinates": [ 140.31915810000001, 38.2311622 ] } },
{ "type": "Feature", "properties": { "内容": "訪問看護ステーションいぶき【訪問看護】山形県山形市落合町337", "url2": "https://www.kaigokensaku.mhlw.go.jp/06/index.php?action_kouhyou_detail_004_kani=true&JigyosyoCd=0660190273-00&ServiceCd=130&Type=search" }, "geometry": { "type": "Point", "coordinates": [ 140.351201107501083, 38.283457066572311 ] } },
{ "type": "Feature", "properties": { "内容": "萬屋薬局訪問看護ステーション松の実【訪問看護】山形県山形市七日町一丁目2番35号ピノスビル2階", "url2": "https://www.kaigokensaku.mhlw.go.jp/06/index.php?action_kouhyou_detail_004_kani=true&JigyosyoCd=0660190349-00&ServiceCd=130&Type=search" }, "geometry": { "type": "Point", "coordinates": [ 140.3383646, 38.2522745 ] } },
{ "type": "Feature", "properties": { "内容": "訪問看護ステーションやまがた【訪問看護】山形市松栄一丁目５番６３号", "url2": "https://www.kaigokensaku.mhlw.go.jp/06/index.php?action_kouhyou_detail_004_kani=true&JigyosyoCd=0660190018-00&ServiceCd=130&Type=search" }, "geometry": { "type": "Point", "coordinates": [ 140.294048800000041, 38.2384865 ] } },
{ "type": "Feature", "properties": { "内容": "リニエ訪問看護ステーション山形【訪問看護】山形県山形市城南町1丁目15番17", "url2": "https://www.kaigokensaku.mhlw.go.jp/06/index.php?action_kouhyou_detail_004_kani=true&JigyosyoCd=0660190463-00&ServiceCd=130&Type=search" }, "geometry": { "type": "Point", "coordinates": [ 140.3258266, 38.251781 ] } },
{ "type": "Feature", "properties": { "内容": "訪問看護ステーションなないろ【訪問看護】山形県山形市平清水2-7-20", "url2": "https://www.kaigokensaku.mhlw.go.jp/06/index.php?action_kouhyou_detail_004_kani=true&JigyosyoCd=0660190315-00&ServiceCd=130&Type=search" }, "geometry": { "type": "Point", "coordinates": [ 140.3490042, 38.2286226 ] } },
{ "type": "Feature", "properties": { "内容": "篠田訪問看護ステーション【訪問看護】山形市桜町2番68号", "url2": "https://www.kaigokensaku.mhlw.go.jp/06/index.php?action_kouhyou_detail_004_kani=true&JigyosyoCd=0660190042-00&ServiceCd=130&Type=search" }, "geometry": { "type": "Point", "coordinates": [ 140.331122, 38.2516613 ] } },
{ "type": "Feature", "properties": { "内容": "至誠堂訪問サービスセンターコスモス【訪問看護】山形市桜町7番44号", "url2": "https://www.kaigokensaku.mhlw.go.jp/06/index.php?action_kouhyou_detail_004_kani=true&JigyosyoCd=0660190000-00&ServiceCd=130&Type=search" }, "geometry": { "type": "Point", "coordinates": [ 140.334724300000062, 38.2550916 ] } },
{ "type": "Feature", "properties": { "内容": "訪問看護ステーションあやめ山形【訪問看護】七日町5丁目13番23号VESTA七日町105号室", "url2": "https://www.kaigokensaku.mhlw.go.jp/06/index.php?action_kouhyou_detail_004_kani=true&JigyosyoCd=0660190471-00&ServiceCd=130&Type=search" }, "geometry": { "type": "Point", "coordinates": [ 140.3448773, 38.2498842 ] } },
{ "type": "Feature", "properties": { "内容": "リクラス山形メディフル訪問看護ステーション【訪問看護】山形県山形市馬見ヶ崎一丁目１３番２０号", "url2": "https://www.kaigokensaku.mhlw.go.jp/06/index.php?action_kouhyou_detail_004_kani=true&JigyosyoCd=0660190489-00&ServiceCd=130&Type=search" }, "geometry": { "type": "Point", "coordinates": [ 140.3319727, 38.281469 ] } },
{ "type": "Feature", "properties": { "内容": "訪問看護ステーションバウンス【訪問看護】山形県山形市大字村木沢426番地1", "url2": "https://www.kaigokensaku.mhlw.go.jp/06/index.php?action_kouhyou_detail_004_kani=true&JigyosyoCd=0660190497-00&ServiceCd=130&Type=search" }, "geometry": { "type": "Point", "coordinates": [ 140.2648294, 38.258333 ] } },
{ "type": "Feature", "properties": { "内容": "訪問看護ステーションこころ【訪問看護】山家町2-7-17", "url2": "https://www.kaigokensaku.mhlw.go.jp/06/index.php?action_kouhyou_detail_004_kani=true&JigyosyoCd=0660190455-00&ServiceCd=130&Type=search" }, "geometry": { "type": "Point", "coordinates": [ 140.361606, 38.2632234 ] } },
{ "type": "Feature", "properties": { "内容": "訪問看護ステーションふれあい【訪問看護】山形県山形市桜田西４丁目1-14", "url2": "https://www.kaigokensaku.mhlw.go.jp/06/index.php?action_kouhyou_detail_004_kani=true&JigyosyoCd=0660190026-00&ServiceCd=130&Type=search" }, "geometry": { "type": "Point", "coordinates": [ 140.319143599999961, 38.2185446 ] } },
{ "type": "Feature", "properties": { "内容": "済生会山形訪問看護ステーション【訪問看護】山形県山形市沖町７９－１", "url2": "https://www.kaigokensaku.mhlw.go.jp/06/index.php?action_kouhyou_detail_004_kani=true&JigyosyoCd=0660190059-00&ServiceCd=130&Type=search" }, "geometry": { "type": "Point", "coordinates": [ 140.334948899999972, 38.2851301 ] } },
{ "type": "Feature", "properties": { "内容": "訪問看護ステーション　樫の木【訪問看護】山形市上町４丁目６-２４", "url2": "https://www.kaigokensaku.mhlw.go.jp/06/index.php?action_kouhyou_detail_004_kani=true&JigyosyoCd=0660190133-00&ServiceCd=130&Type=search" }, "geometry": { "type": "Point", "coordinates": [ 140.313329599999946, 38.2444227 ] } },
{ "type": "Feature", "properties": { "内容": "ツクイ山形訪問看護ステーション【訪問看護】山形県山形市香澄町3丁目1-7朝日生命山形ビル3階", "url2": "https://www.kaigokensaku.mhlw.go.jp/06/index.php?action_kouhyou_detail_004_kani=true&JigyosyoCd=0660190448-00&ServiceCd=130&Type=search" }, "geometry": { "type": "Point", "coordinates": [ 140.330755235581961, 38.247020155309833 ] } },
{ "type": "Feature", "properties": { "内容": "訪問看護リハビリステーション敬寿園【訪問看護】山形県山形市南原町3-16-1佐藤ビル102", "url2": "https://www.kaigokensaku.mhlw.go.jp/06/index.php?action_kouhyou_detail_004_kani=true&JigyosyoCd=0660190257-00&ServiceCd=130&Type=search" }, "geometry": { "type": "Point", "coordinates": [ 140.342105, 38.2320385 ] } },
{ "type": "Feature", "properties": { "内容": "ナースケア山形【訪問看護】山形市嶋南２-２-７", "url2": "https://www.kaigokensaku.mhlw.go.jp/06/index.php?action_kouhyou_detail_004_kani=true&JigyosyoCd=0660190141-00&ServiceCd=130&Type=search" }, "geometry": { "type": "Point", "coordinates": [ 140.318486600000028, 38.2786778 ] } },
{ "type": "Feature", "properties": { "内容": "オールケア山形【訪問看護】山形県山形市西田三丁目3-15", "url2": "https://www.kaigokensaku.mhlw.go.jp/06/index.php?action_kouhyou_detail_004_kani=true&JigyosyoCd=0660190224-00&ServiceCd=130&Type=search" }, "geometry": { "type": "Point", "coordinates": [ 140.315170399999943, 38.2666568 ] } },
{ "type": "Feature", "properties": { "内容": "在宅リハビリ看護ステーションつばさ【訪問看護】山形県山形市青田南6番13号", "url2": "https://www.kaigokensaku.mhlw.go.jp/06/index.php?action_kouhyou_detail_004_kani=true&JigyosyoCd=0660190117-00&ServiceCd=130&Type=search" }, "geometry": { "type": "Point", "coordinates": [ 140.329759299999978, 38.2199226 ] } },
{ "type": "Feature", "properties": { "内容": "訪問看護ステーションおはな【訪問看護】山形県山形市大字鮨洗460番地6アヴァンシーB", "url2": "https://www.kaigokensaku.mhlw.go.jp/06/index.php?action_kouhyou_detail_004_kani=true&JigyosyoCd=0660190505-00&ServiceCd=130&Type=search" }, "geometry": { "type": "Point", "coordinates": [ 140.280154399999986, 38.2912636 ] } },
{ "type": "Feature", "properties": { "内容": "社会福祉法人山形　　サンシャイン訪問看護ステーション【訪問看護】山形県山形市大字大森2139番地1", "url2": "https://www.kaigokensaku.mhlw.go.jp/06/index.php?action_kouhyou_detail_004_kani=true&JigyosyoCd=0660190307-00&ServiceCd=130&Type=search" }, "geometry": { "type": "Point", "coordinates": [ 140.386537800000013, 38.3065956 ] } },
{ "type": "Feature", "properties": { "内容": "リハビリ特化型　訪問看護ステーション菜の花【訪問看護】山形県山形市印役町4丁目5番23号", "url2": "https://www.kaigokensaku.mhlw.go.jp/06/index.php?action_kouhyou_detail_004_kani=true&JigyosyoCd=0660190232-00&ServiceCd=130&Type=search" }, "geometry": { "type": "Point", "coordinates": [ 140.349889299999973, 38.2680792 ] } },
{ "type": "Feature", "properties": { "内容": "訪問看護ステーションYONEKI【訪問看護】山形県山形市あかねヶ丘2-1-4ＹＯＮＥＫＩプレミアム", "url2": "https://www.kaigokensaku.mhlw.go.jp/06/index.php?action_kouhyou_detail_004_kani=true&JigyosyoCd=0660190331-00&ServiceCd=130&Type=search" }, "geometry": { "type": "Point", "coordinates": [ 140.312046, 38.244914 ] } },
{ "type": "Feature", "properties": { "内容": "セントケア訪問看護ステーション山形【訪問看護】山形県山形市十日町3丁目6番43号ほうゆうキャピタル", "url2": "https://www.kaigokensaku.mhlw.go.jp/06/index.php?action_kouhyou_detail_004_kani=true&JigyosyoCd=0660190182-00&ServiceCd=130&Type=search" }, "geometry": { "type": "Point", "coordinates": [ 140.334038599999985, 38.2437288 ] } },
{ "type": "Feature", "properties": { "内容": "訪問看護ステーション　ライズ【訪問看護】山形県山形市大字松原下河原300−51", "url2": "https://www.kaigokensaku.mhlw.go.jp/06/index.php?action_kouhyou_detail_004_kani=true&JigyosyoCd=0660190240-00&ServiceCd=130&Type=search" }, "geometry": { "type": "Point", "coordinates": [ 140.30951170000003, 38.2086619 ] } },
{ "type": "Feature", "properties": { "内容": "医療法人よこやまクリニック【訪問看護】東１－３－２１", "url2": "https://www.kaigokensaku.mhlw.go.jp/06/index.php?action_kouhyou_detail_004_kani=true&JigyosyoCd=0610411688-00&ServiceCd=130&Type=search" }, "geometry": { "type": "Point", "coordinates": [ 139.708289900000011, 35.6574163 ] } },
{ "type": "Feature", "properties": { "内容": "医療法人舟山病院米沢訪問看護ステーション【訪問看護】山形県米沢市駅前二丁目４番８号", "url2": "https://www.kaigokensaku.mhlw.go.jp/06/index.php?action_kouhyou_detail_004_kani=true&JigyosyoCd=0660490004-00&ServiceCd=130&Type=search" }, "geometry": { "type": "Point", "coordinates": [ 140.12152889999993, 37.9095917 ] } },
{ "type": "Feature", "properties": { "内容": "ひばり訪問看護ステーション米沢【訪問看護】山形県米沢市泉町2丁目3-10", "url2": "https://www.kaigokensaku.mhlw.go.jp/06/index.php?action_kouhyou_detail_004_kani=true&JigyosyoCd=0660490111-00&ServiceCd=130&Type=search" }, "geometry": { "type": "Point", "coordinates": [ 140.1038623, 37.8913647 ] } },
{ "type": "Feature", "properties": { "内容": "ぬくもり訪問看護ステーション【訪問看護】山形県米沢市松が岬2-6-16", "url2": "https://www.kaigokensaku.mhlw.go.jp/06/index.php?action_kouhyou_detail_004_kani=true&JigyosyoCd=0660490079-00&ServiceCd=130&Type=search" }, "geometry": { "type": "Point", "coordinates": [ 140.099215644860834, 37.910394349924395 ] } },
{ "type": "Feature", "properties": { "内容": "三友堂訪問看護ステーション【訪問看護】山形県米沢市大字塩野2755番地の3", "url2": "https://www.kaigokensaku.mhlw.go.jp/06/index.php?action_kouhyou_detail_004_kani=true&JigyosyoCd=0660490012-00&ServiceCd=130&Type=search" }, "geometry": { "type": "Point", "coordinates": [ 140.091126147360256, 37.923799595827397 ] } },
{ "type": "Feature", "properties": { "内容": "訪問看護ステーションシャンティさんゆう【訪問看護】山形県米沢市西大通二丁目2-30", "url2": "https://www.kaigokensaku.mhlw.go.jp/06/index.php?action_kouhyou_detail_004_kani=true&JigyosyoCd=0660490095-00&ServiceCd=130&Type=search" }, "geometry": { "type": "Point", "coordinates": [ 140.0986438, 37.9162678 ] } },
{ "type": "Feature", "properties": { "内容": "訪問看護ステーション　ナーシングなごみ【訪問看護】山形県米沢市門東町2丁目8番34号", "url2": "https://www.kaigokensaku.mhlw.go.jp/06/index.php?action_kouhyou_detail_004_kani=true&JigyosyoCd=0660490020-00&ServiceCd=130&Type=search" }, "geometry": { "type": "Point", "coordinates": [ 140.108440150262481, 37.909340113731282 ] } },
{ "type": "Feature", "properties": { "内容": "訪問看護ステーション　ナーシングケアこもれび【訪問看護】山形県米沢市花沢3069－2", "url2": "https://www.kaigokensaku.mhlw.go.jp/06/index.php?action_kouhyou_detail_004_kani=true&JigyosyoCd=0660490129-00&ServiceCd=130&Type=search" }, "geometry": { "type": "Point", "coordinates": [ 140.126685, 37.9254808 ] } },
{ "type": "Feature", "properties": { "内容": "合同会社在宅ケアサービスえーる【訪問看護】山形県鶴岡市湯田川乙107-3", "url2": "https://www.kaigokensaku.mhlw.go.jp/06/index.php?action_kouhyou_detail_004_kani=true&JigyosyoCd=0660790148-00&ServiceCd=130&Type=search" }, "geometry": { "type": "Point", "coordinates": [ 139.7710132, 38.693603 ] } },
{ "type": "Feature", "properties": { "内容": "訪問看護ステーション　タカラ【訪問看護】山形県鶴岡市切添町５番８号", "url2": "https://www.kaigokensaku.mhlw.go.jp/06/index.php?action_kouhyou_detail_004_kani=true&JigyosyoCd=0660790072-00&ServiceCd=130&Type=search" }, "geometry": { "type": "Point", "coordinates": [ 139.844443725509677, 38.734105432702336 ] } },
{ "type": "Feature", "properties": { "内容": "藤吉内科医院【訪問看護】山形県鶴岡市山王町14-15", "url2": "https://www.kaigokensaku.mhlw.go.jp/06/index.php?action_kouhyou_detail_004_kani=true&JigyosyoCd=0610712705-00&ServiceCd=130&Type=search" }, "geometry": { "type": "Point", "coordinates": [ 139.836465500000031, 38.7297493 ] } },
{ "type": "Feature", "properties": { "内容": "訪問看護ステーション　きずな【訪問看護】鶴岡市日枝字海老島159-1", "url2": "https://www.kaigokensaku.mhlw.go.jp/06/index.php?action_kouhyou_detail_004_kani=true&JigyosyoCd=0660790015-00&ServiceCd=130&Type=search" }, "geometry": { "type": "Point", "coordinates": [ 139.826161700000057, 38.7131513 ] } },
{ "type": "Feature", "properties": { "内容": "いのちの華　訪問看護ステーション【訪問看護】山形県鶴岡市城北町1－26", "url2": "https://www.kaigokensaku.mhlw.go.jp/06/index.php?action_kouhyou_detail_004_kani=true&JigyosyoCd=0660790106-00&ServiceCd=130&Type=search" }, "geometry": { "type": "Point", "coordinates": [ 139.822991, 38.7387679 ] } },
{ "type": "Feature", "properties": { "内容": "茅原クリニック【訪問看護】山形県鶴岡市茅原町26-23", "url2": "https://www.kaigokensaku.mhlw.go.jp/06/index.php?action_kouhyou_detail_004_kani=true&JigyosyoCd=0610711541-00&ServiceCd=130&Type=search" }, "geometry": { "type": "Point", "coordinates": [ 139.841217499999971, 38.753822 ] } },
{ "type": "Feature", "properties": { "内容": "一般社団法人鶴岡地区医師会　訪問看護ステーションハローナース【訪問看護】山形県鶴岡市馬場町1番34号鶴岡地区医師会館", "url2": "https://www.kaigokensaku.mhlw.go.jp/06/index.php?action_kouhyou_detail_004_kani=true&JigyosyoCd=0660790007-00&ServiceCd=130&Type=search" }, "geometry": { "type": "Point", "coordinates": [ 139.829360899999983, 38.7290054 ] } },
{ "type": "Feature", "properties": { "内容": "訪問看護ステーション　とるて【訪問看護】山形県鶴岡市みどり町２１番２９号", "url2": "https://www.kaigokensaku.mhlw.go.jp/06/index.php?action_kouhyou_detail_004_kani=true&JigyosyoCd=0660790098-00&ServiceCd=130&Type=search" }, "geometry": { "type": "Point", "coordinates": [ 139.808741919537852, 38.732342816812327 ] } },
{ "type": "Feature", "properties": { "内容": "訪問看護ステーション奏【訪問看護】山形県鶴岡市藤沢字石渡15-16", "url2": "https://www.kaigokensaku.mhlw.go.jp/06/index.php?action_kouhyou_detail_004_kani=true&JigyosyoCd=0660790130-00&ServiceCd=130&Type=search" }, "geometry": { "type": "Point", "coordinates": [ 139.7884558, 38.6857512 ] } },
{ "type": "Feature", "properties": { "内容": "リハビリ訪問看護ステーションみどり【訪問看護】山形県鶴岡市みどり町6番41‐1号", "url2": "https://www.kaigokensaku.mhlw.go.jp/06/index.php?action_kouhyou_detail_004_kani=true&JigyosyoCd=0660790049-00&ServiceCd=130&Type=search" }, "geometry": { "type": "Point", "coordinates": [ 139.813190084061489, 38.732410172571527 ] } },
{ "type": "Feature", "properties": { "内容": "ラポール訪問看護ステーション【訪問看護】山形県酒田市亀ヶ崎2丁目26番地41", "url2": "https://www.kaigokensaku.mhlw.go.jp/06/index.php?action_kouhyou_detail_004_kani=true&JigyosyoCd=0660890153-00&ServiceCd=130&Type=search" }, "geometry": { "type": "Point", "coordinates": [ 139.8449041, 38.9051861 ] } },
{ "type": "Feature", "properties": { "内容": "合同会社　訪問看護ずっと【訪問看護】山形県酒田市東両羽町165番地の1デルタビル2階A号", "url2": "https://www.kaigokensaku.mhlw.go.jp/06/index.php?action_kouhyou_detail_004_kani=true&JigyosyoCd=0660890120-00&ServiceCd=130&Type=search" }, "geometry": { "type": "Point", "coordinates": [ 139.846187758665025, 38.895802587565122 ] } },
{ "type": "Feature", "properties": { "内容": "訪問看護ステーション　アムザ酒田【訪問看護】山形県酒田市緑ヶ丘1-19-8", "url2": "https://www.kaigokensaku.mhlw.go.jp/06/index.php?action_kouhyou_detail_004_kani=true&JigyosyoCd=0660890161-00&ServiceCd=130&Type=search" }, "geometry": { "type": "Point", "coordinates": [ 139.812772700000011, 38.8955128 ] } },
{ "type": "Feature", "properties": { "内容": "訪問看護ステーションらいふ【訪問看護】山形県酒田市こがね町2丁目23番地の3", "url2": "https://www.kaigokensaku.mhlw.go.jp/06/index.php?action_kouhyou_detail_004_kani=true&JigyosyoCd=0660890138-00&ServiceCd=130&Type=search" }, "geometry": { "type": "Point", "coordinates": [ 139.857648499999982, 38.8981823 ] } },
{ "type": "Feature", "properties": { "内容": "訪問看護ステーション　スワン【訪問看護】山形県酒田市中町３－５－２３", "url2": "https://www.kaigokensaku.mhlw.go.jp/06/index.php?action_kouhyou_detail_004_kani=true&JigyosyoCd=0660890146-00&ServiceCd=130&Type=search" }, "geometry": { "type": "Point", "coordinates": [ 139.834151, 38.9170304 ] } },
{ "type": "Feature", "properties": { "内容": "コンフォート樫の木【訪問看護】山形県酒田市こあら２丁目４番地の６", "url2": "https://www.kaigokensaku.mhlw.go.jp/06/index.php?action_kouhyou_detail_004_kani=true&JigyosyoCd=0660890062-00&ServiceCd=130&Type=search" }, "geometry": { "type": "Point", "coordinates": [ 139.862515767597984, 38.914911774743885 ] } },
{ "type": "Feature", "properties": { "内容": "ワン・ライフ訪問看護リハビリステーション庄内【訪問看護】山形県酒田市あきほ町654-1", "url2": "https://www.kaigokensaku.mhlw.go.jp/06/index.php?action_kouhyou_detail_004_kani=true&JigyosyoCd=0660890187-00&ServiceCd=130&Type=search" }, "geometry": { "type": "Point", "coordinates": [ 139.8503575, 38.890499900000016 ] } },
{ "type": "Feature", "properties": { "内容": "訪問看護ステーションやわた【訪問看護】山形県酒田市小泉字前田37番地", "url2": "https://www.kaigokensaku.mhlw.go.jp/06/index.php?action_kouhyou_detail_004_kani=true&JigyosyoCd=0660890104-00&ServiceCd=130&Type=search" }, "geometry": { "type": "Point", "coordinates": [ 139.935741376057422, 38.968983760252563 ] } },
{ "type": "Feature", "properties": { "内容": "訪問看護ステーションあらた【訪問看護】山形県酒田市東町一丁目15番地の25", "url2": "https://www.kaigokensaku.mhlw.go.jp/06/index.php?action_kouhyou_detail_004_kani=true&JigyosyoCd=0660890112-00&ServiceCd=130&Type=search" }, "geometry": { "type": "Point", "coordinates": [ 139.864865099999946, 38.9092788 ] } },
{ "type": "Feature", "properties": { "内容": "医療法人　丸岡医院【訪問看護】山形県酒田市松原南15-1", "url2": "https://www.kaigokensaku.mhlw.go.jp/06/index.php?action_kouhyou_detail_004_kani=true&JigyosyoCd=0610811788-00&ServiceCd=130&Type=search" }, "geometry": { "type": "Point", "coordinates": [ 139.852128099999987, 38.9000875 ] } },
{ "type": "Feature", "properties": { "内容": "ひばり訪問看護ステーション酒田【訪問看護】山形県酒田市亀ケ崎5丁目7番10号", "url2": "https://www.kaigokensaku.mhlw.go.jp/06/index.php?action_kouhyou_detail_004_kani=true&JigyosyoCd=0660890179-00&ServiceCd=130&Type=search" }, "geometry": { "type": "Point", "coordinates": [ 139.848046936557779, 38.900529484088416 ] } },
{ "type": "Feature", "properties": { "内容": "健生ふれあいクリニック【訪問看護】山形県酒田市泉町１番地１６", "url2": "https://www.kaigokensaku.mhlw.go.jp/06/index.php?action_kouhyou_detail_004_kani=true&JigyosyoCd=0610812067-00&ServiceCd=130&Type=search" }, "geometry": { "type": "Point", "coordinates": [ 139.8472088, 38.9337807 ] } },
{ "type": "Feature", "properties": { "内容": "訪問看護　すずらん【訪問看護】山形県酒田市上安町３丁目７番１１号", "url2": "https://www.kaigokensaku.mhlw.go.jp/06/index.php?action_kouhyou_detail_004_kani=true&JigyosyoCd=0660890047-00&ServiceCd=130&Type=search" }, "geometry": { "type": "Point", "coordinates": [ 139.866115400000012, 38.9299353 ] } },
{ "type": "Feature", "properties": { "内容": "訪問看護ステーションアーユス新庄【訪問看護】山形県新庄市金沢1964番地1", "url2": "https://www.kaigokensaku.mhlw.go.jp/06/index.php?action_kouhyou_detail_004_kani=true&JigyosyoCd=0661190041-00&ServiceCd=130&Type=search" }, "geometry": { "type": "Point", "coordinates": [ 140.314930301852428, 38.750479879313474 ] } },
{ "type": "Feature", "properties": { "内容": "医療法人徳洲会　新庄徳洲会訪問看護ステーション【訪問看護】山形県新庄市大字鳥越字駒場4623", "url2": "https://www.kaigokensaku.mhlw.go.jp/06/index.php?action_kouhyou_detail_004_kani=true&JigyosyoCd=0661190025-00&ServiceCd=130&Type=search" }, "geometry": { "type": "Point", "coordinates": [ 140.311380900000017, 38.7382994 ] } },
{ "type": "Feature", "properties": { "内容": "訪問看護ステーション　あたしん家【訪問看護】山形県新庄市住吉町1番12号", "url2": "https://www.kaigokensaku.mhlw.go.jp/06/index.php?action_kouhyou_detail_004_kani=true&JigyosyoCd=0661190033-00&ServiceCd=130&Type=search" }, "geometry": { "type": "Point", "coordinates": [ 140.303766599999989, 38.76622090000005 ] } },
{ "type": "Feature", "properties": { "内容": "公益社団法人山形県看護協会訪問看護ステーション新庄【訪問看護】山形県新庄市金沢1835-82ユニオン新庄ビル201", "url2": "https://www.kaigokensaku.mhlw.go.jp/06/index.php?action_kouhyou_detail_004_kani=true&JigyosyoCd=0661190009-00&ServiceCd=130&Type=search" }, "geometry": { "type": "Point", "coordinates": [ 140.3075834, 38.7537419 ] } },
{ "type": "Feature", "properties": { "内容": "かけはし訪問看護ステーション【訪問看護】山形県寒河江市元町四丁目３－３カーサシャンティE", "url2": "https://www.kaigokensaku.mhlw.go.jp/06/index.php?action_kouhyou_detail_004_kani=true&JigyosyoCd=0661290023-00&ServiceCd=130&Type=search" }, "geometry": { "type": "Point", "coordinates": [ 140.271992, 38.3687435 ] } },
{ "type": "Feature", "properties": { "内容": "訪問看護つつじ【訪問看護】山形県寒河江市大字寒河江字塩水6-1", "url2": "https://www.kaigokensaku.mhlw.go.jp/06/index.php?action_kouhyou_detail_004_kani=true&JigyosyoCd=0661290015-00&ServiceCd=130&Type=search" }, "geometry": { "type": "Point", "coordinates": [ 140.261465962951661, 38.379473117623 ] } },
{ "type": "Feature", "properties": { "内容": "寒河江市西村山郡訪問看護ステーション【訪問看護】寒河江市中央二丁目2番1号寒河江市総合福祉保健センター2階(ﾊｰﾄﾌﾙｾﾝﾀｰ内)", "url2": "https://www.kaigokensaku.mhlw.go.jp/06/index.php?action_kouhyou_detail_004_kani=true&JigyosyoCd=0661290007-00&ServiceCd=130&Type=search" }, "geometry": { "type": "Point", "coordinates": [ 140.277252699999963, 38.3829216 ] } },
{ "type": "Feature", "properties": { "内容": "訪問看護・リハビリステーションりんくす【訪問看護】山形県寒河江市大字日田字後田72番地の3", "url2": "https://www.kaigokensaku.mhlw.go.jp/06/index.php?action_kouhyou_detail_004_kani=true&JigyosyoCd=0661290031-00&ServiceCd=130&Type=search" }, "geometry": { "type": "Point", "coordinates": [ 140.300557199999986, 38.379846800000017 ] } },
{ "type": "Feature", "properties": { "内容": "かみのやま訪問看護ステーション【訪問看護】山形県上山市弁天2丁目2番11号みゆき会病院内", "url2": "https://www.kaigokensaku.mhlw.go.jp/06/index.php?action_kouhyou_detail_004_kani=true&JigyosyoCd=0661390005-00&ServiceCd=130&Type=search" }, "geometry": { "type": "Point", "coordinates": [ 140.292603900000017, 38.1699242 ] } },
{ "type": "Feature", "properties": { "内容": "訪問看護ステーション「あららぎ」【訪問看護】上山市金谷字下河原1370", "url2": "https://www.kaigokensaku.mhlw.go.jp/06/index.php?action_kouhyou_detail_004_kani=true&JigyosyoCd=0661390013-00&ServiceCd=130&Type=search" }, "geometry": { "type": "Point", "coordinates": [ 140.301768052253664, 38.172291577695162 ] } },
{ "type": "Feature", "properties": { "内容": "訪問看護ステーションなぎのわ【訪問看護】山形県上山市朝日台１丁目５番１１号", "url2": "https://www.kaigokensaku.mhlw.go.jp/06/index.php?action_kouhyou_detail_004_kani=true&JigyosyoCd=0661390021-00&ServiceCd=130&Type=search" }, "geometry": { "type": "Point", "coordinates": [ 140.281851, 38.1666212 ] } },
{ "type": "Feature", "properties": { "内容": "訪問看護ステーションむらやま【訪問看護】山形県村山市楯岡俵町２０番１６号", "url2": "https://www.kaigokensaku.mhlw.go.jp/06/index.php?action_kouhyou_detail_004_kani=true&JigyosyoCd=0661490003-00&ServiceCd=130&Type=search" }, "geometry": { "type": "Point", "coordinates": [ 140.385094, 38.4753085 ] } },
{ "type": "Feature", "properties": { "内容": "訪問看護ステーション和来おいたま【訪問看護】緑町6番11-1号", "url2": "https://www.kaigokensaku.mhlw.go.jp/06/index.php?action_kouhyou_detail_004_kani=true&JigyosyoCd=0661590034-00&ServiceCd=130&Type=search" }, "geometry": { "type": "Point", "coordinates": [ 139.770319699999988, 35.9741584 ] } },
{ "type": "Feature", "properties": { "内容": "長井市訪問看護ステーション【訪問看護】山形県長井市屋城町2番1号公立置賜長井病院内", "url2": "https://www.kaigokensaku.mhlw.go.jp/06/index.php?action_kouhyou_detail_004_kani=true&JigyosyoCd=0661590000-00&ServiceCd=130&Type=search" }, "geometry": { "type": "Point", "coordinates": [ 140.040903398624096, 38.111286173867761 ] } },
{ "type": "Feature", "properties": { "内容": "ほうもんかんごすてーしょんれんと【訪問看護】山形県天童市東久野本3丁目4-24", "url2": "https://www.kaigokensaku.mhlw.go.jp/06/index.php?action_kouhyou_detail_004_kani=true&JigyosyoCd=0661690032-00&ServiceCd=130&Type=search" }, "geometry": { "type": "Point", "coordinates": [ 140.38198538822229, 38.369546545759 ] } },
{ "type": "Feature", "properties": { "内容": "訪問看護ステーション　デューン天童【訪問看護】山形県天童市老野森1丁目4番7号老野森須藤ビル2F", "url2": "https://www.kaigokensaku.mhlw.go.jp/06/index.php?action_kouhyou_detail_004_kani=true&JigyosyoCd=0661690040-00&ServiceCd=130&Type=search" }, "geometry": { "type": "Point", "coordinates": [ 140.377271034937536, 38.363288601927934 ] } },
{ "type": "Feature", "properties": { "内容": "天童訪問看護ステーション【訪問看護】天童市鎌田本町三丁目6番11号", "url2": "https://www.kaigokensaku.mhlw.go.jp/06/index.php?action_kouhyou_detail_004_kani=true&JigyosyoCd=0661690008-00&ServiceCd=130&Type=search" }, "geometry": { "type": "Point", "coordinates": [ 140.380404684200386, 38.357064348821481 ] } },
{ "type": "Feature", "properties": { "内容": "ラ・フォーレ天童訪問看護ステーション【訪問看護】山形県天童市大字道満１９３－１", "url2": "https://www.kaigokensaku.mhlw.go.jp/06/index.php?action_kouhyou_detail_004_kani=true&JigyosyoCd=0661690024-00&ServiceCd=130&Type=search" }, "geometry": { "type": "Point", "coordinates": [ 140.388817705557187, 38.391164721173929 ] } },
{ "type": "Feature", "properties": { "内容": "訪問看護ステーション　もり【訪問看護】本丸西4-1-48", "url2": "https://www.kaigokensaku.mhlw.go.jp/06/index.php?action_kouhyou_detail_004_kani=true&JigyosyoCd=0661790063-00&ServiceCd=130&Type=search" }, "geometry": { "type": "Point", "coordinates": [ 140.3938576, 38.4467616 ] } },
{ "type": "Feature", "properties": { "内容": "訪問看護ステーション　にじ【訪問看護】山形県東根市温泉町三丁目4－38－110", "url2": "https://www.kaigokensaku.mhlw.go.jp/06/index.php?action_kouhyou_detail_004_kani=true&JigyosyoCd=0661790014-00&ServiceCd=130&Type=search" }, "geometry": { "type": "Point", "coordinates": [ 140.386617947438026, 38.461206173344046 ] } },
{ "type": "Feature", "properties": { "内容": "医療法人財団明理会　山形ロイヤル訪問看護ステーション【訪問看護】山形県東根市大森二丁目3番6号", "url2": "https://www.kaigokensaku.mhlw.go.jp/06/index.php?action_kouhyou_detail_004_kani=true&JigyosyoCd=0661790055-00&ServiceCd=130&Type=search" }, "geometry": { "type": "Point", "coordinates": [ 140.385155312303169, 38.429987066152513 ] } },
{ "type": "Feature", "properties": { "内容": "南陽訪問看護ステーション【訪問看護】山形県南陽市椚塚1180-2トータルヘルス複合施設3F", "url2": "https://www.kaigokensaku.mhlw.go.jp/06/index.php?action_kouhyou_detail_004_kani=true&JigyosyoCd=0661990002-00&ServiceCd=130&Type=search" }, "geometry": { "type": "Point", "coordinates": [ 140.172641744705203, 38.044174179477352 ] } },
{ "type": "Feature", "properties": { "内容": "公立置賜南陽病院　訪問看護事業所【訪問看護】山形県南陽市宮内1204番地", "url2": "https://www.kaigokensaku.mhlw.go.jp/06/index.php?action_kouhyou_detail_004_kani=true&JigyosyoCd=0671900439-00&ServiceCd=130&Type=search" }, "geometry": { "type": "Point", "coordinates": [ 140.144277500000044, 38.0700366 ] } },
{ "type": "Feature", "properties": { "内容": "訪問看護ステーションメルヘン【訪問看護】東村山郡山辺町大字大寺1152番1", "url2": "https://www.kaigokensaku.mhlw.go.jp/06/index.php?action_kouhyou_detail_004_kani=true&JigyosyoCd=0662290006-00&ServiceCd=130&Type=search" }, "geometry": { "type": "Point", "coordinates": [ 140.2650774, 38.3069517 ] } },
{ "type": "Feature", "properties": { "内容": "青空訪問看護事業所【訪問看護】山形県西村山郡河北町西里字白山堂737番地の1", "url2": "https://www.kaigokensaku.mhlw.go.jp/06/index.php?action_kouhyou_detail_004_kani=true&JigyosyoCd=0662390012-00&ServiceCd=130&Type=search" }, "geometry": { "type": "Point", "coordinates": [ 140.287316143727224, 38.418236827573587 ] } },
{ "type": "Feature", "properties": { "内容": "朝日町立病院【訪問看護】山形県西村山郡朝日町大字宮宿843", "url2": "https://www.kaigokensaku.mhlw.go.jp/06/index.php?action_kouhyou_detail_004_kani=true&JigyosyoCd=0612310193-00&ServiceCd=130&Type=search" }, "geometry": { "type": "Point", "coordinates": [ 140.1435371, 38.2995061 ] } },
{ "type": "Feature", "properties": { "内容": "鮭川訪問看護ステーションともり【訪問看護】山形県最上郡鮭川村大字川口2839-33", "url2": "https://www.kaigokensaku.mhlw.go.jp/06/index.php?action_kouhyou_detail_004_kani=true&JigyosyoCd=0662590025-00&ServiceCd=130&Type=search" }, "geometry": { "type": "Point", "coordinates": [ 140.219486, 38.7888676 ] } },
{ "type": "Feature", "properties": { "内容": "高畠町訪問看護ステーション【訪問看護】山形県東置賜郡高畠町大字高畠379-1", "url2": "https://www.kaigokensaku.mhlw.go.jp/06/index.php?action_kouhyou_detail_004_kani=true&JigyosyoCd=0662690015-00&ServiceCd=130&Type=search" }, "geometry": { "type": "Point", "coordinates": [ 140.18864080000003, 38.0011948 ] } },
{ "type": "Feature", "properties": { "内容": "湖山病院訪問看護ステーション【訪問看護】東置賜郡川西町大字下奥田3796番地20号", "url2": "https://www.kaigokensaku.mhlw.go.jp/06/index.php?action_kouhyou_detail_004_kani=true&JigyosyoCd=0662690031-00&ServiceCd=130&Type=search" }, "geometry": { "type": "Point", "coordinates": [ 140.043082882942144, 37.989206422388321 ] } },
{ "type": "Feature", "properties": { "内容": "おぐに訪問看護ステーション【訪問看護】山形県西置賜郡小国町大字あけぼの一丁目１番地小国町立病院　内", "url2": "https://www.kaigokensaku.mhlw.go.jp/06/index.php?action_kouhyou_detail_004_kani=true&JigyosyoCd=0662790013-00&ServiceCd=130&Type=search" }, "geometry": { "type": "Point", "coordinates": [ 139.755904255819701, 38.058511632769843 ] } },
{ "type": "Feature", "properties": { "内容": "白鷹町立病院【訪問看護】山形県西置賜郡白鷹町大字荒砥甲501", "url2": "https://www.kaigokensaku.mhlw.go.jp/06/index.php?action_kouhyou_detail_004_kani=true&JigyosyoCd=0672700440-00&ServiceCd=130&Type=search" }, "geometry": { "type": "Point", "coordinates": [ 140.0940051, 38.1790147 ] } },
{ "type": "Feature", "properties": { "内容": "飯豊町訪問看護ステーション【訪問看護】山形県西置賜郡飯豊町大字椿3654番地1飯豊町健康福祉センター", "url2": "https://www.kaigokensaku.mhlw.go.jp/06/index.php?action_kouhyou_detail_004_kani=true&JigyosyoCd=0662790021-00&ServiceCd=130&Type=search" }, "geometry": { "type": "Point", "coordinates": [ 139.994217826458737, 38.045324953649917 ] } },
{ "type": "Feature", "properties": { "内容": "医療法人徳洲会訪問看護ステーションひまわり【訪問看護】山形県東田川郡庄内町松陽1-1-6", "url2": "https://www.kaigokensaku.mhlw.go.jp/06/index.php?action_kouhyou_detail_004_kani=true&JigyosyoCd=0663090009-00&ServiceCd=130&Type=search" }, "geometry": { "type": "Point", "coordinates": [ 139.894881599999962, 38.8516948 ] } },
{ "type": "Feature", "properties": { "内容": "訪問看護ステーションゆざ【訪問看護】山形県飽海郡遊佐町遊佐字石田７", "url2": "https://www.kaigokensaku.mhlw.go.jp/06/index.php?action_kouhyou_detail_004_kani=true&JigyosyoCd=0673200473-00&ServiceCd=130&Type=search" }, "geometry": { "type": "Point", "coordinates": [ 139.906224400000042, 39.0178211 ] } }
]
}
