{
"type": "FeatureCollection",
"name": "geo_06_義務教育学校",
"crs": { "type": "name", "properties": { "name": "urn:ogc:def:crs:EPSG::6668" } },
"features": [
{ "type": "Feature", "properties": { "P29_001": "06205", "P29_002": "C206220540016", "P29_003": "16014", "P29_004": "新庄市立萩野学園", "P29_005": "山形県新庄市大字泉田字往還東398-1", "P29_006": "3", "P29_007": "1", "P29_008": "00", "P29_009": null }, "geometry": { "type": "Point", "coordinates": [ 140.331274888051297, 38.812167757116242 ] } },
{ "type": "Feature", "properties": { "P29_001": "06205", "P29_002": "C206220540025", "P29_003": "16014", "P29_004": "新庄市立明倫学園", "P29_005": "山形県新庄市十日町2675-3", "P29_006": "3", "P29_007": "1", "P29_008": "00", "P29_009": null }, "geometry": { "type": "Point", "coordinates": [ 140.295675303257354, 38.774425374549345 ] } },
{ "type": "Feature", "properties": { "P29_001": "06367", "P29_002": "C206236740010", "P29_003": "16014", "P29_004": "戸沢村立戸沢学園", "P29_005": "山形県最上郡戸沢村大字蔵岡2905-7", "P29_006": "3", "P29_007": "1", "P29_008": "00", "P29_009": null }, "geometry": { "type": "Point", "coordinates": [ 140.173831862740457, 38.731284075260348 ] } }
]
}
