{
"type": "FeatureCollection",
"name": "geo_06_通所介護",
"crs": { "type": "name", "properties": { "name": "urn:ogc:def:crs:OGC:1.3:CRS84" } },
"features": [
{ "type": "Feature", "properties": { "内容": "ソーレホーム江俣デイサービス【通所介護】山形市嶋南一丁目１番２号", "url": "https://www.kaigokensaku.mhlw.go.jp/06/index.php?action_kouhyou_detail_004_kani=true&JigyosyoCd=0670102391-00&ServiceCd=150&Type=search", "url2": "http://www.sole.ne.jp" }, "geometry": { "type": "Point", "coordinates": [ 140.321344599999946, 38.2777891 ] } },
{ "type": "Feature", "properties": { "内容": "ウェルハウス成沢【通所介護】山形県山形市成沢西四丁目3番30号", "url": "https://www.kaigokensaku.mhlw.go.jp/06/index.php?action_kouhyou_detail_004_kani=true&JigyosyoCd=0670104025-00&ServiceCd=150&Type=search", "url2": "http://www.t-fukushi-service.co.jp" }, "geometry": { "type": "Point", "coordinates": [ 140.318510699999933, 38.2060957 ] } },
{ "type": "Feature", "properties": { "内容": "ウェルハウス桜田【通所介護】山形県山形市桜田西三丁目6番12号", "url": "https://www.kaigokensaku.mhlw.go.jp/06/index.php?action_kouhyou_detail_004_kani=true&JigyosyoCd=0670104009-00&ServiceCd=150&Type=search", "url2": "http://www.t-fukushi-service.co.jp" }, "geometry": { "type": "Point", "coordinates": [ 140.313441499999954, 38.2193944 ] } },
{ "type": "Feature", "properties": { "内容": "ウェルハウス大野目【通所介護】山形県山形市早乙女46番1", "url": "https://www.kaigokensaku.mhlw.go.jp/06/index.php?action_kouhyou_detail_004_kani=true&JigyosyoCd=0670103993-00&ServiceCd=150&Type=search", "url2": "http://www.t-fukushi-service.co.jp" }, "geometry": { "type": "Point", "coordinates": [ 140.361146500000018, 38.2751676 ] } },
{ "type": "Feature", "properties": { "内容": "宅老所いんやく【通所介護】山形市印役町二丁目5番5号", "url": "https://www.kaigokensaku.mhlw.go.jp/06/index.php?action_kouhyou_detail_004_kani=true&JigyosyoCd=0670104041-00&ServiceCd=150&Type=search", "url2": "http://www.t-fukushi-service.co.jp" }, "geometry": { "type": "Point", "coordinates": [ 140.353065650262465, 38.264560549646873 ] } },
{ "type": "Feature", "properties": { "内容": "宅老所飯田【通所介護】山形市飯田西4-5-30", "url": "https://www.kaigokensaku.mhlw.go.jp/06/index.php?action_kouhyou_detail_004_kani=true&JigyosyoCd=0670103084-00&ServiceCd=150&Type=search", "url2": "http://www.t-fukushi-service.co.jp" }, "geometry": { "type": "Point", "coordinates": [ 140.32145669999997, 38.2141972 ] } },
{ "type": "Feature", "properties": { "内容": "ウェルハウス嶋【通所介護】山形県山形市嶋南一丁目2番14号", "url": "https://www.kaigokensaku.mhlw.go.jp/06/index.php?action_kouhyou_detail_004_kani=true&JigyosyoCd=0670104017-00&ServiceCd=150&Type=search", "url2": "http://www.t-fukushi-service.co.jp" }, "geometry": { "type": "Point", "coordinates": [ 140.32024750000005, 38.2789501 ] } },
{ "type": "Feature", "properties": { "内容": "宅老所嶋【通所介護】山形県山形市嶋南一丁目10番13号", "url": "https://www.kaigokensaku.mhlw.go.jp/06/index.php?action_kouhyou_detail_004_kani=true&JigyosyoCd=0670102888-00&ServiceCd=150&Type=search", "url2": "http://www.t‐fukushi‐service.co.jp" }, "geometry": { "type": "Point", "coordinates": [ 140.3208641, 38.2800361 ] } },
{ "type": "Feature", "properties": { "内容": "あかねヶ丘ケアセンター【通所介護】山形県山形市あかねヶ丘3丁目15-8", "url": "https://www.kaigokensaku.mhlw.go.jp/06/index.php?action_kouhyou_detail_004_kani=true&JigyosyoCd=0670101500-00&ServiceCd=150&Type=search", "url2": "http://rakusei-kai.or.jp/service/day/akane-day" }, "geometry": { "type": "Point", "coordinates": [ 140.31128158650813, 38.241053806302268 ] } },
{ "type": "Feature", "properties": { "内容": "ほっとin福寿草【通所介護】山形市飯田５丁目1-53", "url": "https://www.kaigokensaku.mhlw.go.jp/06/index.php?action_kouhyou_detail_004_kani=true&JigyosyoCd=0670104322-00&ServiceCd=150&Type=search", "url2": "www.fukujukai.ｊｐ" }, "geometry": { "type": "Point", "coordinates": [ 140.323373899999979, 38.2130452 ] } },
{ "type": "Feature", "properties": { "内容": "ニチイケアセンター山形五十鈴【通所介護】山形県山形市五十鈴２丁目２-６８", "url": "https://www.kaigokensaku.mhlw.go.jp/06/index.php?action_kouhyou_detail_004_kani=true&JigyosyoCd=0670100585-00&ServiceCd=150&Type=search", "url2": "http://www.nichiigakkan.co.jp" }, "geometry": { "type": "Point", "coordinates": [ 140.3528417, 38.2733675 ] } },
{ "type": "Feature", "properties": { "内容": "ニチイケアセンター山形【通所介護】山形市上町三丁目12-6", "url": "https://www.kaigokensaku.mhlw.go.jp/06/index.php?action_kouhyou_detail_004_kani=true&JigyosyoCd=0670100486-00&ServiceCd=150&Type=search", "url2": "http://www/nichiigakkan.co.jp" }, "geometry": { "type": "Point", "coordinates": [ 140.319406800000024, 38.2400066 ] } },
{ "type": "Feature", "properties": { "内容": "ニチイケアセンター山形中央【通所介護】山形市城西町四丁目18番30号", "url": "https://www.kaigokensaku.mhlw.go.jp/06/index.php?action_kouhyou_detail_004_kani=true&JigyosyoCd=0670100924-00&ServiceCd=150&Type=search", "url2": "http://www.nichiigakkan.co.jp" }, "geometry": { "type": "Point", "coordinates": [ 140.32228090000001, 38.2598132 ] } },
{ "type": "Feature", "properties": { "内容": "ＳＯＭＰＯケア　山形あかねヶ丘　デイサービス【通所介護】山形県山形市あかねヶ丘一丁目2番33号結城貸店舗　1Ｆ", "url": "https://www.kaigokensaku.mhlw.go.jp/06/index.php?action_kouhyou_detail_004_kani=true&JigyosyoCd=0670104538-00&ServiceCd=150&Type=search", "url2": "http://www.sompocare.com" }, "geometry": { "type": "Point", "coordinates": [ 140.310605303161196, 38.252300552747883 ] } },
{ "type": "Feature", "properties": { "内容": "デイサービス「ぬくもりの里」【通所介護】山形市上柳28番地", "url": "https://www.kaigokensaku.mhlw.go.jp/06/index.php?action_kouhyou_detail_004_kani=true&JigyosyoCd=0670103001-00&ServiceCd=150&Type=search", "url2": null }, "geometry": { "type": "Point", "coordinates": [ 140.35984940000003, 38.3006625 ] } },
{ "type": "Feature", "properties": { "内容": "デイサービスセンター馬見ヶ崎【通所介護】山形県山形市桧町1丁目17-23", "url": "https://www.kaigokensaku.mhlw.go.jp/06/index.php?action_kouhyou_detail_004_kani=true&JigyosyoCd=0670104553-00&ServiceCd=150&Type=search", "url2": "http://kjg-net.jp" }, "geometry": { "type": "Point", "coordinates": [ 140.335968200000025, 38.2783031 ] } },
{ "type": "Feature", "properties": { "内容": "デイサービス虹【通所介護】山形県山形市北町三丁目1-37協同の家虹", "url": "https://www.kaigokensaku.mhlw.go.jp/06/index.php?action_kouhyou_detail_004_kani=true&JigyosyoCd=0670104330-00&ServiceCd=150&Type=search", "url2": "http://y-mcoop.com/" }, "geometry": { "type": "Point", "coordinates": [ 140.329260400000067, 38.2720399 ] } },
{ "type": "Feature", "properties": { "内容": "介護予防センターさくら山形【通所介護】山形市嶋北三丁目14-24", "url": "https://www.kaigokensaku.mhlw.go.jp/06/index.php?action_kouhyou_detail_004_kani=true&JigyosyoCd=0670103555-00&ServiceCd=150&Type=search", "url2": "http://www.sakura-welfare.jp/" }, "geometry": { "type": "Point", "coordinates": [ 140.3195336, 38.2908403 ] } },
{ "type": "Feature", "properties": { "内容": "介護福祉施設　燦燦【通所介護】山形県山形市大字十文字字大原848番1", "url": "https://www.kaigokensaku.mhlw.go.jp/06/index.php?action_kouhyou_detail_004_kani=true&JigyosyoCd=0670102235-00&ServiceCd=150&Type=search", "url2": "http://san-san.jp" }, "geometry": { "type": "Point", "coordinates": [ 140.377667777384886, 38.310026311456802 ] } },
{ "type": "Feature", "properties": { "内容": "デイサービスセンター友結【通所介護】山形県山形市桜田西1丁目13番9号", "url": "https://www.kaigokensaku.mhlw.go.jp/06/index.php?action_kouhyou_detail_004_kani=true&JigyosyoCd=0670101583-00&ServiceCd=150&Type=search", "url2": "http:/www.ryokuaikai.com/" }, "geometry": { "type": "Point", "coordinates": [ 140.31603, 38.220561 ] } },
{ "type": "Feature", "properties": { "内容": "ＪＡやまがた福祉センター青田【通所介護】山形市青田一丁目４番２１号", "url": "https://www.kaigokensaku.mhlw.go.jp/06/index.php?action_kouhyou_detail_004_kani=true&JigyosyoCd=0670103159-00&ServiceCd=150&Type=search", "url2": "http://www.jayamagata.or.jp" }, "geometry": { "type": "Point", "coordinates": [ 140.329464700000017, 38.2261331 ] } },
{ "type": "Feature", "properties": { "内容": "シャイン下条【通所介護】山形県山形市下条町三丁目13番14号シャイン下条", "url": "https://www.kaigokensaku.mhlw.go.jp/06/index.php?action_kouhyou_detail_004_kani=true&JigyosyoCd=0670104413-00&ServiceCd=150&Type=search", "url2": "kirakira-life.care" }, "geometry": { "type": "Point", "coordinates": [ 140.322994500641698, 38.26764898018736 ] } },
{ "type": "Feature", "properties": { "内容": "指定通所介護事業所ながまち荘【通所介護】山形市長町751番地", "url": "https://www.kaigokensaku.mhlw.go.jp/06/index.php?action_kouhyou_detail_004_kani=true&JigyosyoCd=0670100460-00&ServiceCd=150&Type=search", "url2": "http://www.yamagata-saiseikai.org" }, "geometry": { "type": "Point", "coordinates": [ 140.333860100000038, 38.2907628 ] } },
{ "type": "Feature", "properties": { "内容": "デイサービスセンター小白川【通所介護】山形県山形市小白川町二丁目３番１号　小白川ケアセンター内", "url": "https://www.kaigokensaku.mhlw.go.jp/06/index.php?action_kouhyou_detail_004_kani=true&JigyosyoCd=0670100411-00&ServiceCd=150&Type=search", "url2": "https://yamagata-saiseikai.org/" }, "geometry": { "type": "Point", "coordinates": [ 140.350365950782873, 38.249636411754224 ] } },
{ "type": "Feature", "properties": { "内容": "なごみの里指定通所介護事業所【通所介護】山形県山形市吉原三丁目10番8号", "url": "https://www.kaigokensaku.mhlw.go.jp/06/index.php?action_kouhyou_detail_004_kani=true&JigyosyoCd=0670101062-00&ServiceCd=150&Type=search", "url2": "http://www.jifukai.org" }, "geometry": { "type": "Point", "coordinates": [ 140.306816900000058, 38.2305487 ] } },
{ "type": "Feature", "properties": { "内容": "ツクイ山形江俣【通所介護】山形県山形市江俣4-6-15", "url": "https://www.kaigokensaku.mhlw.go.jp/06/index.php?action_kouhyou_detail_004_kani=true&JigyosyoCd=0670104793-00&ServiceCd=150&Type=search", "url2": "https://www.tsukui.net/home-care/2256/" }, "geometry": { "type": "Point", "coordinates": [ 140.3187217, 38.276985 ] } },
{ "type": "Feature", "properties": { "内容": "ツクイ山形東青田【通所介護】山形県山形市東青田1-4-15", "url": "https://www.kaigokensaku.mhlw.go.jp/06/index.php?action_kouhyou_detail_004_kani=true&JigyosyoCd=0670104801-00&ServiceCd=150&Type=search", "url2": "https://www.tsukui.net/home-care/2208/" }, "geometry": { "type": "Point", "coordinates": [ 140.3396147, 38.2260563 ] } },
{ "type": "Feature", "properties": { "内容": "デイサービス樫の木【通所介護】山形市上町４丁目６-２４", "url": "https://www.kaigokensaku.mhlw.go.jp/06/index.php?action_kouhyou_detail_004_kani=true&JigyosyoCd=0670103100-00&ServiceCd=150&Type=search", "url2": "https://daiwa-med.co.jp" }, "geometry": { "type": "Point", "coordinates": [ 140.313329599999946, 38.2444227 ] } },
{ "type": "Feature", "properties": { "内容": "デイサービスグランドホーム樫の木【通所介護】山形県山形市桧町一丁目１０番１０号", "url": "https://www.kaigokensaku.mhlw.go.jp/06/index.php?action_kouhyou_detail_004_kani=true&JigyosyoCd=0670103860-00&ServiceCd=150&Type=search", "url2": "https://daiwa-med.co.jp" }, "geometry": { "type": "Point", "coordinates": [ 140.3377792, 38.2750034 ] } },
{ "type": "Feature", "properties": { "内容": "げんきサロン　Gillnexus【通所介護】山形県山形市北町二丁目２番４５号山形ファミリーボウル内", "url": "https://www.kaigokensaku.mhlw.go.jp/06/index.php?action_kouhyou_detail_004_kani=true&JigyosyoCd=0670104033-00&ServiceCd=150&Type=search", "url2": "http://www.maruwi.co.jp/genki_salon.html" }, "geometry": { "type": "Point", "coordinates": [ 140.329605305557237, 38.268797751841412 ] } },
{ "type": "Feature", "properties": { "内容": "蔵王やすらぎの里　指定通所介護事業所【通所介護】山形県山形市蔵王上野９２０番地", "url": "https://www.kaigokensaku.mhlw.go.jp/06/index.php?action_kouhyou_detail_004_kani=true&JigyosyoCd=0670100346-00&ServiceCd=150&Type=search", "url2": "http://care-net.biz/06/z-yasuragi/" }, "geometry": { "type": "Point", "coordinates": [ 140.316854199999966, 38.1759214 ] } },
{ "type": "Feature", "properties": { "内容": "やすらぎの里半郷指定通所介護事業所【通所介護】山形市蔵王半郷７９番地７", "url": "https://www.kaigokensaku.mhlw.go.jp/06/index.php?action_kouhyou_detail_004_kani=true&JigyosyoCd=0670102342-00&ServiceCd=150&Type=search", "url2": "http://care-net.biz06/yasuragi-h/" }, "geometry": { "type": "Point", "coordinates": [ 140.317844899999955, 38.1898948 ] } },
{ "type": "Feature", "properties": { "内容": "天然温泉老人デイサービスセンターくろさわ【通所介護】山形市大字黒沢440番地", "url": "https://www.kaigokensaku.mhlw.go.jp/06/index.php?action_kouhyou_detail_004_kani=true&JigyosyoCd=0670102052-00&ServiceCd=150&Type=search", "url2": "http://www.yuuai-kai.or.jp/" }, "geometry": { "type": "Point", "coordinates": [ 140.304329699999982, 38.1936685 ] } },
{ "type": "Feature", "properties": { "内容": "天然温泉　湯の郷くろさわ【通所介護】山形市大字黒沢547番地67", "url": "https://www.kaigokensaku.mhlw.go.jp/06/index.php?action_kouhyou_detail_004_kani=true&JigyosyoCd=0670102987-00&ServiceCd=150&Type=search", "url2": "http://www.yuuai-kai.or.jp/" }, "geometry": { "type": "Point", "coordinates": [ 140.30409910000003, 38.1934023 ] } },
{ "type": "Feature", "properties": { "内容": "特定非営利活動法人エンジェル・ハート「通所介護サービス事業所」【通所介護】山形県山形市松波一丁目１１-８", "url": "https://www.kaigokensaku.mhlw.go.jp/06/index.php?action_kouhyou_detail_004_kani=true&JigyosyoCd=0670102789-00&ServiceCd=150&Type=search", "url2": null }, "geometry": { "type": "Point", "coordinates": [ 140.358212297705904, 38.238335181083066 ] } },
{ "type": "Feature", "properties": { "内容": "介護ホーム　みのりの里【通所介護】山形市漆山１８３５介護ホーム　みのりの里", "url": "https://www.kaigokensaku.mhlw.go.jp/06/index.php?action_kouhyou_detail_004_kani=true&JigyosyoCd=0670101815-00&ServiceCd=150&Type=search", "url2": "http://aiwacc.com/" }, "geometry": { "type": "Point", "coordinates": [ 140.354426735395805, 38.316728662974839 ] } },
{ "type": "Feature", "properties": { "内容": "宅老所ど～む中野【通所介護】山形市大字中野３２７番地", "url": "https://www.kaigokensaku.mhlw.go.jp/06/index.php?action_kouhyou_detail_004_kani=true&JigyosyoCd=0670102771-00&ServiceCd=150&Type=search", "url2": "http://do-mu.seesaa.net" }, "geometry": { "type": "Point", "coordinates": [ 140.308540099999959, 38.3053998 ] } },
{ "type": "Feature", "properties": { "内容": "ソーレホーム吉原デイサービス【通所介護】山形市若宮二丁目9-12", "url": "https://www.kaigokensaku.mhlw.go.jp/06/index.php?action_kouhyou_detail_004_kani=true&JigyosyoCd=0670102383-00&ServiceCd=150&Type=search", "url2": "https://www.sole.ne.jp" }, "geometry": { "type": "Point", "coordinates": [ 140.310819400000014, 38.2246105 ] } },
{ "type": "Feature", "properties": { "内容": "ソーレホーム前田デイサービス【通所介護】山形市前田町１４－８", "url": "https://www.kaigokensaku.mhlw.go.jp/06/index.php?action_kouhyou_detail_004_kani=true&JigyosyoCd=0670102219-00&ServiceCd=150&Type=search", "url2": "http://www.sole.ne.jp" }, "geometry": { "type": "Point", "coordinates": [ 140.351428899999974, 38.238802 ] } },
{ "type": "Feature", "properties": { "内容": "ソーレヒルズ花楯デイサービス【通所介護】山形市花楯二丁目18番78-101号", "url": "https://www.kaigokensaku.mhlw.go.jp/06/index.php?action_kouhyou_detail_004_kani=true&JigyosyoCd=0670102813-00&ServiceCd=150&Type=search", "url2": "https://www.sole.ne.jp" }, "geometry": { "type": "Point", "coordinates": [ 140.352894500000048, 38.2755896 ] } },
{ "type": "Feature", "properties": { "内容": "敬寿園通所介護事業所【通所介護】山形県山形市大字妙見寺５００－１", "url": "https://www.kaigokensaku.mhlw.go.jp/06/index.php?action_kouhyou_detail_004_kani=true&JigyosyoCd=0670100577-00&ServiceCd=150&Type=search", "url2": "http://www.keijuen.or.jp" }, "geometry": { "type": "Point", "coordinates": [ 140.377843200000029, 38.2370975 ] } },
{ "type": "Feature", "properties": { "内容": "デイドリームセンター笑顔のたね【通所介護】山形市西田1丁目2-5", "url": "https://www.kaigokensaku.mhlw.go.jp/06/index.php?action_kouhyou_detail_004_kani=true&JigyosyoCd=0670103738-00&ServiceCd=150&Type=search", "url2": "http://www.egao-tane.com/" }, "geometry": { "type": "Point", "coordinates": [ 140.317227710961333, 38.262272039544406 ] } },
{ "type": "Feature", "properties": { "内容": "楽しく元気になれるデイサービス笑顔のたね【通所介護】山形市あかねヶ丘二丁目12番15号", "url": "https://www.kaigokensaku.mhlw.go.jp/06/index.php?action_kouhyou_detail_004_kani=true&JigyosyoCd=0670103985-00&ServiceCd=150&Type=search", "url2": "http://www.egao-tane.com/" }, "geometry": { "type": "Point", "coordinates": [ 140.310178815869079, 38.243418055367087 ] } },
{ "type": "Feature", "properties": { "内容": "山形ケアセンターそよ風【通所介護】山形市荒楯町1丁目4-1", "url": "https://www.kaigokensaku.mhlw.go.jp/06/index.php?action_kouhyou_detail_004_kani=true&JigyosyoCd=0670102367-00&ServiceCd=150&Type=search", "url2": "http://www.sykz.co.jp" }, "geometry": { "type": "Point", "coordinates": [ 140.335772099999986, 38.2340826 ] } },
{ "type": "Feature", "properties": { "内容": "とかみ共生苑デイサービスセンター【通所介護】山形県山形市富神前６番地", "url": "https://www.kaigokensaku.mhlw.go.jp/06/index.php?action_kouhyou_detail_004_kani=true&JigyosyoCd=0670100601-00&ServiceCd=150&Type=search", "url2": "http://www.y-shiminhukushikai.org" }, "geometry": { "type": "Point", "coordinates": [ 140.2633399, 38.237519 ] } },
{ "type": "Feature", "properties": { "内容": "総合福祉施設いきいきの郷【通所介護】山形県山形市大字成安425番地2", "url": "https://www.kaigokensaku.mhlw.go.jp/06/index.php?action_kouhyou_detail_004_kani=true&JigyosyoCd=0670100114-00&ServiceCd=150&Type=search", "url2": "https://kagayakinokai.or.jp/rouday/" }, "geometry": { "type": "Point", "coordinates": [ 140.310952, 38.3232722 ] } },
{ "type": "Feature", "properties": { "内容": "サンシャイン大森デイサービスセンター【通所介護】山形市大字大森２１３９番地１", "url": "https://www.kaigokensaku.mhlw.go.jp/06/index.php?action_kouhyou_detail_004_kani=true&JigyosyoCd=0670100312-00&ServiceCd=150&Type=search", "url2": "https://sunshine-oomori.jp/" }, "geometry": { "type": "Point", "coordinates": [ 140.38657760000001, 38.3069126 ] } },
{ "type": "Feature", "properties": { "内容": "みこころの園指定通所介護事業所【通所介護】山形県山形市大字沼木字下河原1129-1", "url": "https://www.kaigokensaku.mhlw.go.jp/06/index.php?action_kouhyou_detail_004_kani=true&JigyosyoCd=0670100288-00&ServiceCd=150&Type=search", "url2": "http://www.mikokoronosono.or.jp" }, "geometry": { "type": "Point", "coordinates": [ 140.285698707023613, 38.250544057349614 ] } },
{ "type": "Feature", "properties": { "内容": "指定通所介護事業所　菅沢デイサービスセンター【通所介護】山形県山形市すげさわの丘４６", "url": "https://www.kaigokensaku.mhlw.go.jp/06/index.php?action_kouhyou_detail_004_kani=true&JigyosyoCd=0670100544-00&ServiceCd=150&Type=search", "url2": "yamagatashi-si.or.jp" }, "geometry": { "type": "Point", "coordinates": [ 140.26767330000007, 38.2265453 ] } },
{ "type": "Feature", "properties": { "内容": "通所介護事業所　六日町あいあい【通所介護】山形県山形市六日町２－７", "url": "https://www.kaigokensaku.mhlw.go.jp/06/index.php?action_kouhyou_detail_004_kani=true&JigyosyoCd=0670101765-00&ServiceCd=150&Type=search", "url2": "https://aiai-yamagata.org/" }, "geometry": { "type": "Point", "coordinates": [ 140.340684799999963, 38.2604744 ] } },
{ "type": "Feature", "properties": { "内容": "ほほえみデイ七日町【通所介護】七日町二丁目7番43号", "url": "https://www.kaigokensaku.mhlw.go.jp/06/index.php?action_kouhyou_detail_004_kani=true&JigyosyoCd=0670103753-00&ServiceCd=150&Type=search", "url2": "https://hohoemi-yamagata.com/" }, "geometry": { "type": "Point", "coordinates": [ 140.340057300000012, 38.2526364 ] } },
{ "type": "Feature", "properties": { "内容": "つつじの里浄光苑【通所介護】山形県山形市八日町二丁目4番10号", "url": "https://www.kaigokensaku.mhlw.go.jp/06/index.php?action_kouhyou_detail_004_kani=true&JigyosyoCd=0670103951-00&ServiceCd=150&Type=search", "url2": "http://joukouen.jp/about.html" }, "geometry": { "type": "Point", "coordinates": [ 140.331225099999983, 38.2413484 ] } },
{ "type": "Feature", "properties": { "内容": "くつろ木吉の原通所介護事業所【通所介護】山形県山形市若宮四丁目1番1号", "url": "https://www.kaigokensaku.mhlw.go.jp/06/index.php?action_kouhyou_detail_004_kani=true&JigyosyoCd=0670104447-00&ServiceCd=150&Type=search", "url2": "https://kutsurogi-home.net/" }, "geometry": { "type": "Point", "coordinates": [ 140.308402900000033, 38.228049 ] } },
{ "type": "Feature", "properties": { "内容": "笑楽び塾【通所介護】山形県米沢市東大通一丁目２番３４号２", "url": "https://www.kaigokensaku.mhlw.go.jp/06/index.php?action_kouhyou_detail_004_kani=true&JigyosyoCd=0670401835-00&ServiceCd=150&Type=search", "url2": "https://nagomi-calm.com" }, "geometry": { "type": "Point", "coordinates": [ 140.136331400000017, 37.8883225 ] } },
{ "type": "Feature", "properties": { "内容": "JA山形おきたまデイサービスセンター愛遊【通所介護】山形県米沢市広幡町上小菅638-4", "url": "https://www.kaigokensaku.mhlw.go.jp/06/index.php?action_kouhyou_detail_004_kani=true&JigyosyoCd=0670401017-00&ServiceCd=150&Type=search", "url2": "https://www.okitama-yt-ja.or.jp/" }, "geometry": { "type": "Point", "coordinates": [ 140.078719699999965, 37.9458112 ] } },
{ "type": "Feature", "properties": { "内容": "成島園デイサービスセンター【通所介護】山形県米沢市広幡町成島字窪平山2120番地5", "url": "https://www.kaigokensaku.mhlw.go.jp/06/index.php?action_kouhyou_detail_004_kani=true&JigyosyoCd=0670400308-00&ServiceCd=150&Type=search", "url2": "http://narusimaen.org/" }, "geometry": { "type": "Point", "coordinates": [ 140.077845499999967, 37.934681900000015 ] } },
{ "type": "Feature", "properties": { "内容": "ニチイケアセンター米沢【通所介護】米沢市金池５丁目１３－２１", "url": "https://www.kaigokensaku.mhlw.go.jp/06/index.php?action_kouhyou_detail_004_kani=true&JigyosyoCd=0670400357-00&ServiceCd=150&Type=search", "url2": "http://www.nichiigakkan.co.jp" }, "geometry": { "type": "Point", "coordinates": [ 140.119108399999959, 37.9251676 ] } },
{ "type": "Feature", "properties": { "内容": "ニチイケアセンター西米沢【通所介護】山形県米沢市成島町2丁目1-110-16", "url": "https://www.kaigokensaku.mhlw.go.jp/06/index.php?action_kouhyou_detail_004_kani=true&JigyosyoCd=0670400811-00&ServiceCd=150&Type=search", "url2": "http://www.nichiigakkan.jp" }, "geometry": { "type": "Point", "coordinates": [ 140.0852678, 37.9210976 ] } },
{ "type": "Feature", "properties": { "内容": "デイサービスひいらぎ【通所介護】山形県米沢市徳町210-1", "url": "https://www.kaigokensaku.mhlw.go.jp/06/index.php?action_kouhyou_detail_004_kani=true&JigyosyoCd=0670402239-00&ServiceCd=150&Type=search", "url2": null }, "geometry": { "type": "Point", "coordinates": [ 140.09695, 37.92182 ] } },
{ "type": "Feature", "properties": { "内容": "スマート倶楽部【通所介護】山形県米沢市駅前1丁目1番110号", "url": "https://www.kaigokensaku.mhlw.go.jp/06/index.php?action_kouhyou_detail_004_kani=true&JigyosyoCd=0670401843-00&ServiceCd=150&Type=search", "url2": "http://www.smartlife-jpn.co.jp/smartclub/" }, "geometry": { "type": "Point", "coordinates": [ 140.129682540891991, 37.908518079864542 ] } },
{ "type": "Feature", "properties": { "内容": "デイサービスセンター　楓の家【通所介護】山形県米沢市金池6丁目8番26号", "url": "https://www.kaigokensaku.mhlw.go.jp/06/index.php?action_kouhyou_detail_004_kani=true&JigyosyoCd=0670400902-00&ServiceCd=150&Type=search", "url2": "http://www.ryokuaikai.com/" }, "geometry": { "type": "Point", "coordinates": [ 140.1158474, 37.9276283 ] } },
{ "type": "Feature", "properties": { "内容": "デイサービス回春堂花沢【通所介護】米沢市大字花沢2986番地の1", "url": "https://www.kaigokensaku.mhlw.go.jp/06/index.php?action_kouhyou_detail_004_kani=true&JigyosyoCd=0670401629-00&ServiceCd=150&Type=search", "url2": "https://kaisyundo.jp/" }, "geometry": { "type": "Point", "coordinates": [ 140.123869199999945, 37.9221709 ] } },
{ "type": "Feature", "properties": { "内容": "デイサービスセンターサンファミリア米沢【通所介護】山形県米沢市塩井町塩野５２０番地", "url": "https://www.kaigokensaku.mhlw.go.jp/06/index.php?action_kouhyou_detail_004_kani=true&JigyosyoCd=0670400704-00&ServiceCd=150&Type=search", "url2": "http://y-kowakaijp/sannfamiria-kaigo" }, "geometry": { "type": "Point", "coordinates": [ 140.110420111639456, 37.928257160161365 ] } },
{ "type": "Feature", "properties": { "内容": "デイサービスセンター「さんデイケア」【通所介護】米沢市大字簗沢３４６３", "url": "https://www.kaigokensaku.mhlw.go.jp/06/index.php?action_kouhyou_detail_004_kani=true&JigyosyoCd=0670400332-00&ServiceCd=150&Type=search", "url2": "http://kouwakai.jp/" }, "geometry": { "type": "Point", "coordinates": [ 140.051989400000025, 37.8886862 ] } },
{ "type": "Feature", "properties": { "内容": "ラベンダーの丘　れんげ草【通所介護】山形県米沢市直江石堤２８－２", "url": "https://www.kaigokensaku.mhlw.go.jp/06/index.php?action_kouhyou_detail_004_kani=true&JigyosyoCd=0670401132-00&ServiceCd=150&Type=search", "url2": null }, "geometry": { "type": "Point", "coordinates": [ 140.117284400000017, 37.8747846 ] } },
{ "type": "Feature", "properties": { "内容": "デイサービスセンター　夢のみずうみ村　すまいる【通所介護】山形県米沢市成島町３丁目２番９１号", "url": "https://www.kaigokensaku.mhlw.go.jp/06/index.php?action_kouhyou_detail_004_kani=true&JigyosyoCd=0670401884-00&ServiceCd=150&Type=search", "url2": "http://care-net.biz/06/yasuragi/" }, "geometry": { "type": "Point", "coordinates": [ 140.089580977493227, 37.923537403786405 ] } },
{ "type": "Feature", "properties": { "内容": "おいたまの郷指定通所介護事業所【通所介護】米沢市下新田２８番地", "url": "https://www.kaigokensaku.mhlw.go.jp/06/index.php?action_kouhyou_detail_004_kani=true&JigyosyoCd=0670400449-00&ServiceCd=150&Type=search", "url2": "http://oitamanosato.jp" }, "geometry": { "type": "Point", "coordinates": [ 140.148228300000028, 37.9595032 ] } },
{ "type": "Feature", "properties": { "内容": "ツクイ米沢【通所介護】山形県米沢市栄町1-4", "url": "https://www.kaigokensaku.mhlw.go.jp/06/index.php?action_kouhyou_detail_004_kani=true&JigyosyoCd=0670402056-00&ServiceCd=150&Type=search", "url2": "http://tsukui-hd.co.jp" }, "geometry": { "type": "Point", "coordinates": [ 140.114475588360619, 37.916169226569714 ] } },
{ "type": "Feature", "properties": { "内容": "万世園デイサービスセンター【通所介護】山形県米沢市万世町牛森4172-5", "url": "https://www.kaigokensaku.mhlw.go.jp/06/index.php?action_kouhyou_detail_004_kani=true&JigyosyoCd=0670400274-00&ServiceCd=150&Type=search", "url2": null }, "geometry": { "type": "Point", "coordinates": [ 140.205770499999971, 37.8853267 ] } },
{ "type": "Feature", "properties": { "内容": "ディサービスセンター結いのき【通所介護】山形県米沢市花沢町2686-4", "url": "https://www.kaigokensaku.mhlw.go.jp/06/index.php?action_kouhyou_detail_004_kani=true&JigyosyoCd=0670401413-00&ServiceCd=150&Type=search", "url2": "https://yuinoki.or.jp" }, "geometry": { "type": "Point", "coordinates": [ 140.122722296375116, 37.918763255627042 ] } },
{ "type": "Feature", "properties": { "内容": "デイサービスセンター東陽館【通所介護】山形県米沢市城北1丁目2-5地域ケアセンター東陽館", "url": "https://www.kaigokensaku.mhlw.go.jp/06/index.php?action_kouhyou_detail_004_kani=true&JigyosyoCd=0670401223-00&ServiceCd=150&Type=search", "url2": "http://care-net.biz/06/touyoukan/" }, "geometry": { "type": "Point", "coordinates": [ 140.106043411708811, 37.914198246194367 ] } },
{ "type": "Feature", "properties": { "内容": "いちごのこころ【通所介護】山形県米沢市泉町２丁目１番６号", "url": "https://www.kaigokensaku.mhlw.go.jp/06/index.php?action_kouhyou_detail_004_kani=true&JigyosyoCd=0670401264-00&ServiceCd=150&Type=search", "url2": "https://nagomi-calm.com" }, "geometry": { "type": "Point", "coordinates": [ 140.10294137591859, 37.895470993957765 ] } },
{ "type": "Feature", "properties": { "内容": "チャレンジ×ケア【通所介護】山形県米沢市徳町225-1", "url": "https://www.kaigokensaku.mhlw.go.jp/06/index.php?action_kouhyou_detail_004_kani=true&JigyosyoCd=0670402098-00&ServiceCd=150&Type=search", "url2": "sakizaki-anshin.com" }, "geometry": { "type": "Point", "coordinates": [ 140.1021747, 37.9260706 ] } },
{ "type": "Feature", "properties": { "内容": "デイサービスみんなの家【通所介護】山形県鶴岡市齋藤川原字林俣234-28有料老人ホームみんなの家", "url": "https://www.kaigokensaku.mhlw.go.jp/06/index.php?action_kouhyou_detail_004_kani=true&JigyosyoCd=0670702091-00&ServiceCd=150&Type=search", "url2": null }, "geometry": { "type": "Point", "coordinates": [ 139.8459479, 38.7105791 ] } },
{ "type": "Feature", "properties": { "内容": "デイサービス　ぽぽろ【通所介護】山形県鶴岡市大東町３番１７号", "url": "https://www.kaigokensaku.mhlw.go.jp/06/index.php?action_kouhyou_detail_004_kani=true&JigyosyoCd=0670701655-00&ServiceCd=150&Type=search", "url2": null }, "geometry": { "type": "Point", "coordinates": [ 139.836316416810604, 38.726575430019139 ] } },
{ "type": "Feature", "properties": { "内容": "指定通所介護事業所「デイサービスセンターであい」【通所介護】山形県鶴岡市熊出字東村１５７－２", "url": "https://www.kaigokensaku.mhlw.go.jp/06/index.php?action_kouhyou_detail_004_kani=true&JigyosyoCd=0673000253-00&ServiceCd=150&Type=search", "url2": "httb://care-net.biz/o6/bunanoki/" }, "geometry": { "type": "Point", "coordinates": [ 139.85006020000003, 38.6339028 ] } },
{ "type": "Feature", "properties": { "内容": "デイサービス　すずらん・ケア【通所介護】鶴岡市柳田字田中30番地1", "url": "https://www.kaigokensaku.mhlw.go.jp/06/index.php?action_kouhyou_detail_004_kani=true&JigyosyoCd=0670701663-00&ServiceCd=150&Type=search", "url2": null }, "geometry": { "type": "Point", "coordinates": [ 139.80888276655881, 38.722974372082568 ] } },
{ "type": "Feature", "properties": { "内容": "ニチイケアセンター鶴岡【通所介護】山形県鶴岡市若葉町23番38号", "url": "https://www.kaigokensaku.mhlw.go.jp/06/index.php?action_kouhyou_detail_004_kani=true&JigyosyoCd=0670700376-00&ServiceCd=150&Type=search", "url2": "http://www.nichiigakkan.co.jp" }, "geometry": { "type": "Point", "coordinates": [ 139.827036099999987, 38.731752300000011 ] } },
{ "type": "Feature", "properties": { "内容": "ニチイケアセンター鶴岡みさき【通所介護】山形県鶴岡市美咲町７－１６", "url": "https://www.kaigokensaku.mhlw.go.jp/06/index.php?action_kouhyou_detail_004_kani=true&JigyosyoCd=0670700491-00&ServiceCd=150&Type=search", "url2": "http://www.nichiigakkan.co.jp" }, "geometry": { "type": "Point", "coordinates": [ 139.80043, 38.7359652 ] } },
{ "type": "Feature", "properties": { "内容": "あかり【通所介護】山形県鶴岡市小真木原町10－17", "url": "https://www.kaigokensaku.mhlw.go.jp/06/index.php?action_kouhyou_detail_004_kani=true&JigyosyoCd=0670700707-00&ServiceCd=150&Type=search", "url2": "http://www.mutumi-kaigo.jp/" }, "geometry": { "type": "Point", "coordinates": [ 139.817081899999948, 38.7159841 ] } },
{ "type": "Feature", "properties": { "内容": "デイサービスセンター西目【通所介護】山形県鶴岡市西目123－8", "url": "https://www.kaigokensaku.mhlw.go.jp/06/index.php?action_kouhyou_detail_004_kani=true&JigyosyoCd=0670700772-00&ServiceCd=150&Type=search", "url2": "http://www.mutumi-kaigo.jp" }, "geometry": { "type": "Point", "coordinates": [ 139.730027299999961, 38.734014 ] } },
{ "type": "Feature", "properties": { "内容": "デイサービス温寿荘【通所介護】山形県鶴岡市槙代丁５３番地１", "url": "https://www.kaigokensaku.mhlw.go.jp/06/index.php?action_kouhyou_detail_004_kani=true&JigyosyoCd=0673100046-00&ServiceCd=150&Type=search", "url2": "http://atsumifukusikai.jp" }, "geometry": { "type": "Point", "coordinates": [ 139.593908, 38.6012141 ] } },
{ "type": "Feature", "properties": { "内容": "デイサービスかみじ荘【通所介護】山形県鶴岡市羽黒町手向字薬師沢198番地３", "url": "https://www.kaigokensaku.mhlw.go.jp/06/index.php?action_kouhyou_detail_004_kani=true&JigyosyoCd=0673000402-00&ServiceCd=150&Type=search", "url2": "https://www.kamiji.or.jp/" }, "geometry": { "type": "Point", "coordinates": [ 139.941135300000042, 38.7180786 ] } },
{ "type": "Feature", "properties": { "内容": "永寿荘デイサービスセンター【通所介護】山形県鶴岡市茅原町２８番１０号", "url": "https://www.kaigokensaku.mhlw.go.jp/06/index.php?action_kouhyou_detail_004_kani=true&JigyosyoCd=0670700244-00&ServiceCd=150&Type=search", "url2": "http://www.keisen-swc.jp" }, "geometry": { "type": "Point", "coordinates": [ 139.842456299999981, 38.7526249 ] } },
{ "type": "Feature", "properties": { "内容": "デイサービスセンター　そよ風の森【通所介護】山形県鶴岡市下川字龍花崎41番1039号", "url": "https://www.kaigokensaku.mhlw.go.jp/06/index.php?action_kouhyou_detail_004_kani=true&JigyosyoCd=0670700699-00&ServiceCd=150&Type=search", "url2": "https://care-net.biz/06/soyokazenomori/" }, "geometry": { "type": "Point", "coordinates": [ 139.774580900000046, 38.7840419 ] } },
{ "type": "Feature", "properties": { "内容": "銀座夢ハウスデイサービスステーション【通所介護】山形県鶴岡市本町一丁目5番6号", "url": "https://www.kaigokensaku.mhlw.go.jp/06/index.php?action_kouhyou_detail_004_kani=true&JigyosyoCd=0670701895-00&ServiceCd=150&Type=search", "url2": null }, "geometry": { "type": "Point", "coordinates": [ 139.831901390876737, 38.728336288563192 ] } },
{ "type": "Feature", "properties": { "内容": "デイサービスセンター澄花【通所介護】山形県鶴岡市友江字川向６１番地８", "url": "https://www.kaigokensaku.mhlw.go.jp/06/index.php?action_kouhyou_detail_004_kani=true&JigyosyoCd=0670701911-00&ServiceCd=150&Type=search", "url2": "http://third-stage.net" }, "geometry": { "type": "Point", "coordinates": [ 139.77888663386841, 38.748138323065298 ] } },
{ "type": "Feature", "properties": { "内容": "老人保健施設のぞみの園【通所介護】山形県鶴岡市茅原町２６－２３", "url": "https://www.kaigokensaku.mhlw.go.jp/06/index.php?action_kouhyou_detail_004_kani=true&JigyosyoCd=0650780000-00&ServiceCd=150&Type=search", "url2": "http://www.mituwakai.com" }, "geometry": { "type": "Point", "coordinates": [ 139.841217499999971, 38.753822 ] } },
{ "type": "Feature", "properties": { "内容": "デイサービスひまわりいいずん【通所介護】山形県鶴岡市稲生一丁目３番４５号", "url": "https://www.kaigokensaku.mhlw.go.jp/06/index.php?action_kouhyou_detail_004_kani=true&JigyosyoCd=0670701291-00&ServiceCd=150&Type=search", "url2": "https://www.himawari-s.co.jp" }, "geometry": { "type": "Point", "coordinates": [ 139.811915499999941, 38.720503 ] } },
{ "type": "Feature", "properties": { "内容": "デイサービスひまわりアプラ【通所介護】山形県鶴岡市稲生一丁目4番53号", "url": "https://www.kaigokensaku.mhlw.go.jp/06/index.php?action_kouhyou_detail_004_kani=true&JigyosyoCd=0670701762-00&ServiceCd=150&Type=search", "url2": "https://himawari-s.co.jp" }, "geometry": { "type": "Point", "coordinates": [ 139.811431326458774, 38.720668143853771 ] } },
{ "type": "Feature", "properties": { "内容": "福祉のひろば　いなおい【通所介護】鶴岡市稲生2丁目39番4号", "url": "https://www.kaigokensaku.mhlw.go.jp/06/index.php?action_kouhyou_detail_004_kani=true&JigyosyoCd=0670701119-00&ServiceCd=150&Type=search", "url2": "http:/www.f-hiroba.co.jp/" }, "geometry": { "type": "Point", "coordinates": [ 139.804441399999973, 38.713009 ] } },
{ "type": "Feature", "properties": { "内容": "指定通所デイサービスセンターふじの花荘【通所介護】山形県鶴岡市藤の花１丁目１８番地-1", "url": "https://www.kaigokensaku.mhlw.go.jp/06/index.php?action_kouhyou_detail_004_kani=true&JigyosyoCd=0673000121-00&ServiceCd=150&Type=search", "url2": "http://www.fujino-sato.or.jp/dayservice/" }, "geometry": { "type": "Point", "coordinates": [ 139.908058638623061, 38.772575872223371 ] } },
{ "type": "Feature", "properties": { "内容": "デイサービスセンター健楽園【通所介護】山形県鶴岡市美原町４番４０号", "url": "https://www.kaigokensaku.mhlw.go.jp/06/index.php?action_kouhyou_detail_004_kani=true&JigyosyoCd=0670700319-00&ServiceCd=150&Type=search", "url2": "http://www.ikkoukai.or.jp" }, "geometry": { "type": "Point", "coordinates": [ 139.821573, 38.7220309 ] } },
{ "type": "Feature", "properties": { "内容": "JA鶴岡げんき館デイサービスセンター【通所介護】山形県鶴岡市青龍寺字村下34-1", "url": "https://www.kaigokensaku.mhlw.go.jp/06/index.php?action_kouhyou_detail_004_kani=true&JigyosyoCd=0670700590-00&ServiceCd=150&Type=search", "url2": "https:/www.ja-tsuruoka.or.jp" }, "geometry": { "type": "Point", "coordinates": [ 139.81868529999997, 38.6908757 ] } },
{ "type": "Feature", "properties": { "内容": "デイサービスセンターくしびき【通所介護】山形県鶴岡市上山添字成田２１－９櫛", "url": "https://www.kaigokensaku.mhlw.go.jp/06/index.php?action_kouhyou_detail_004_kani=true&JigyosyoCd=0673000105-00&ServiceCd=150&Type=search", "url2": "http://www.shk01.jp/shisetsu_14_ksbk_sukoyaka.html" }, "geometry": { "type": "Point", "coordinates": [ 139.848435356559833, 38.678550211026241 ] } },
{ "type": "Feature", "properties": { "内容": "デイサービスセンターなえづ【通所介護】山形県鶴岡市ほなみ町3番1号地域福祉センターなえづ", "url": "https://www.kaigokensaku.mhlw.go.jp/06/index.php?action_kouhyou_detail_004_kani=true&JigyosyoCd=0670700186-00&ServiceCd=150&Type=search", "url2": "http://www.shk01.jp/" }, "geometry": { "type": "Point", "coordinates": [ 139.8440266, 38.718365 ] } },
{ "type": "Feature", "properties": { "内容": "デイサービスセンターふれあい【通所介護】山形県鶴岡市西新斎町14番26号", "url": "https://www.kaigokensaku.mhlw.go.jp/06/index.php?action_kouhyou_detail_004_kani=true&JigyosyoCd=0670700517-00&ServiceCd=150&Type=search", "url2": "http://www.shk01.jp/" }, "geometry": { "type": "Point", "coordinates": [ 139.814420400000017, 38.73784040000001 ] } },
{ "type": "Feature", "properties": { "内容": "デイサービスセンターおおやま【通所介護】鶴岡市大山3丁目34番1号", "url": "https://www.kaigokensaku.mhlw.go.jp/06/index.php?action_kouhyou_detail_004_kani=true&JigyosyoCd=0670700848-00&ServiceCd=150&Type=search", "url2": "http://www.shk01.jp/" }, "geometry": { "type": "Point", "coordinates": [ 139.763872842852805, 38.751372692702233 ] } },
{ "type": "Feature", "properties": { "内容": "デイサービスセンターたかだて【通所介護】山形県鶴岡市友江町23番14号", "url": "https://www.kaigokensaku.mhlw.go.jp/06/index.php?action_kouhyou_detail_004_kani=true&JigyosyoCd=0670700178-00&ServiceCd=150&Type=search", "url2": "http://www/.biz.biglobe.ne.jp/~t-shakyo." }, "geometry": { "type": "Point", "coordinates": [ 139.769782299999946, 38.7499209 ] } },
{ "type": "Feature", "properties": { "内容": "デイサービスセンターとようら【通所介護】鶴岡市三瀬字菖蒲田67-1", "url": "https://www.kaigokensaku.mhlw.go.jp/06/index.php?action_kouhyou_detail_004_kani=true&JigyosyoCd=0670700368-00&ServiceCd=150&Type=search", "url2": "http://www1.biz.biglobe.ne.jp/^t-shakyo" }, "geometry": { "type": "Point", "coordinates": [ 139.674104400000033, 38.7011536 ] } },
{ "type": "Feature", "properties": { "内容": "瑞穂の郷　デイサービスセンター本館【通所介護】鶴岡市羽黒町細谷字北田１２８－１", "url": "https://www.kaigokensaku.mhlw.go.jp/06/index.php?action_kouhyou_detail_004_kani=true&JigyosyoCd=0670701218-00&ServiceCd=150&Type=search", "url2": "http://www.hcp-net.co.jp" }, "geometry": { "type": "Point", "coordinates": [ 139.8616022, 38.737413 ] } },
{ "type": "Feature", "properties": { "内容": "デイサービスセンター　みどり【通所介護】山形県鶴岡市大西町3番35号", "url": "https://www.kaigokensaku.mhlw.go.jp/06/index.php?action_kouhyou_detail_004_kani=true&JigyosyoCd=0670701432-00&ServiceCd=150&Type=search", "url2": "http://yamagata.koureikyou.or.jp" }, "geometry": { "type": "Point", "coordinates": [ 139.810931820762079, 38.728521444542274 ] } },
{ "type": "Feature", "properties": { "内容": "オープンハウス　奏【通所介護】山形県鶴岡市藤沢字石渡15-13", "url": "https://www.kaigokensaku.mhlw.go.jp/06/index.php?action_kouhyou_detail_004_kani=true&JigyosyoCd=0670701481-00&ServiceCd=150&Type=search", "url2": "http://www.toyomi-rd.jp/" }, "geometry": { "type": "Point", "coordinates": [ 139.775649700000031, 38.6974712 ] } },
{ "type": "Feature", "properties": { "内容": "デイサービスきらり【通所介護】山形県鶴岡市日枝字海老島３６番４号", "url": "https://www.kaigokensaku.mhlw.go.jp/06/index.php?action_kouhyou_detail_004_kani=true&JigyosyoCd=0670701184-00&ServiceCd=150&Type=search", "url2": "http://shonai-niji.jp/" }, "geometry": { "type": "Point", "coordinates": [ 139.826161700000057, 38.7131513 ] } },
{ "type": "Feature", "properties": { "内容": "デイサービスセンターキャット藤島【通所介護】山形県鶴岡市藤島字笹花48-12", "url": "https://www.kaigokensaku.mhlw.go.jp/06/index.php?action_kouhyou_detail_004_kani=true&JigyosyoCd=0670700988-00&ServiceCd=150&Type=search", "url2": "https://catsgp.com/" }, "geometry": { "type": "Point", "coordinates": [ 139.906541800000014, 38.7664437 ] } },
{ "type": "Feature", "properties": { "内容": "デイサービス　えがお・デ・あいと【通所介護】山形県鶴岡市長沼字宮前23番1", "url": "https://www.kaigokensaku.mhlw.go.jp/06/index.php?action_kouhyou_detail_004_kani=true&JigyosyoCd=0670702018-00&ServiceCd=150&Type=search", "url2": "http://www.ja-shonai.or.jp/" }, "geometry": { "type": "Point", "coordinates": [ 139.874320708131847, 38.805885547558177 ] } },
{ "type": "Feature", "properties": { "内容": "デイサービス　はなの里【通所介護】山形県鶴岡市田川字八幡212", "url": "https://www.kaigokensaku.mhlw.go.jp/06/index.php?action_kouhyou_detail_004_kani=true&JigyosyoCd=0670701838-00&ServiceCd=150&Type=search", "url2": "http://hananosato.biz" }, "geometry": { "type": "Point", "coordinates": [ 139.752454199999988, 38.6883584 ] } },
{ "type": "Feature", "properties": { "内容": "古民家かふぇ　はなだま【通所介護】山形県鶴岡市民田字十二前１９６", "url": "https://www.kaigokensaku.mhlw.go.jp/06/index.php?action_kouhyou_detail_004_kani=true&JigyosyoCd=0670701887-00&ServiceCd=150&Type=search", "url2": null }, "geometry": { "type": "Point", "coordinates": [ 139.822054100000059, 38.7009773 ] } },
{ "type": "Feature", "properties": { "内容": "リラクゼーション型デイサービスふらっと【通所介護】山形県鶴岡市日和田町１９番地１", "url": "https://www.kaigokensaku.mhlw.go.jp/06/index.php?action_kouhyou_detail_004_kani=true&JigyosyoCd=0670701861-00&ServiceCd=150&Type=search", "url2": "http://flat-yamagata.jp/index.html" }, "geometry": { "type": "Point", "coordinates": [ 139.829413771202098, 38.742996913130575 ] } },
{ "type": "Feature", "properties": { "内容": "デイサービス明日葉【通所介護】駅東２丁目３番地の６多機能複合施設明日葉", "url": "https://www.kaigokensaku.mhlw.go.jp/06/index.php?action_kouhyou_detail_004_kani=true&JigyosyoCd=0670801968-00&ServiceCd=150&Type=search", "url2": "https://www.s-fukushi.jp/" }, "geometry": { "type": "Point", "coordinates": [ 139.848706, 38.9226132 ] } },
{ "type": "Feature", "properties": { "内容": "デイサービスグラン【通所介護】山形県酒田市新橋3丁目1番地の1", "url": "https://www.kaigokensaku.mhlw.go.jp/06/index.php?action_kouhyou_detail_004_kani=true&JigyosyoCd=0670802206-00&ServiceCd=150&Type=search", "url2": "https://s-fukushi.jp/" }, "geometry": { "type": "Point", "coordinates": [ 139.8518731, 38.9165579 ] } },
{ "type": "Feature", "properties": { "内容": "酒田市デイサービスセンターいずみ【通所介護】山形県酒田市東泉町4丁目6-13", "url": "https://www.kaigokensaku.mhlw.go.jp/06/index.php?action_kouhyou_detail_004_kani=true&JigyosyoCd=0670800135-00&ServiceCd=150&Type=search", "url2": "http://www.sakata-shakyo.or.jp" }, "geometry": { "type": "Point", "coordinates": [ 139.85214910000002, 38.9310522 ] } },
{ "type": "Feature", "properties": { "内容": "通所介護事業所　幸楽荘【通所介護】山形県酒田市市条字荒瀬115番地", "url": "https://www.kaigokensaku.mhlw.go.jp/06/index.php?action_kouhyou_detail_004_kani=true&JigyosyoCd=0673200143-00&ServiceCd=150&Type=search", "url2": "http://www.kourakusou.or.jp" }, "geometry": { "type": "Point", "coordinates": [ 139.931896400000028, 38.9655746 ] } },
{ "type": "Feature", "properties": { "内容": "デイサービスセンターたんぽぽ【通所介護】山形県酒田市宮野浦３－２０－１", "url": "https://www.kaigokensaku.mhlw.go.jp/06/index.php?action_kouhyou_detail_004_kani=true&JigyosyoCd=0670800259-00&ServiceCd=150&Type=search", "url2": "http://www.koufukai.or.jp" }, "geometry": { "type": "Point", "coordinates": [ 139.811857050401272, 38.914374639020117 ] } },
{ "type": "Feature", "properties": { "内容": "ソーシャルいずみ【通所介護】山形県酒田市東泉町5-5-6", "url": "https://www.kaigokensaku.mhlw.go.jp/06/index.php?action_kouhyou_detail_004_kani=true&JigyosyoCd=0670802032-00&ServiceCd=150&Type=search", "url2": "http//:www.t-fukushi-service.co.jp" }, "geometry": { "type": "Point", "coordinates": [ 139.849860199999966, 38.9344329 ] } },
{ "type": "Feature", "properties": { "内容": "ソーシャルさつき【通所介護】酒田市東泉町5-5-1", "url": "https://www.kaigokensaku.mhlw.go.jp/06/index.php?action_kouhyou_detail_004_kani=true&JigyosyoCd=0670802040-00&ServiceCd=150&Type=search", "url2": "http://www.t-fukushi-service.co.jp" }, "geometry": { "type": "Point", "coordinates": [ 139.849072200000023, 38.9343095 ] } },
{ "type": "Feature", "properties": { "内容": "ソーシャルわかば【通所介護】酒田市亀ヶ崎4-11-5", "url": "https://www.kaigokensaku.mhlw.go.jp/06/index.php?action_kouhyou_detail_004_kani=true&JigyosyoCd=0670802057-00&ServiceCd=150&Type=search", "url2": "http://www.t-fukushi-service.co.jp" }, "geometry": { "type": "Point", "coordinates": [ 139.843811100000039, 38.899937 ] } },
{ "type": "Feature", "properties": { "内容": "多機能型介護ステーション　ぬくもり【通所介護】山形県酒田市泉町９－１９", "url": "https://www.kaigokensaku.mhlw.go.jp/06/index.php?action_kouhyou_detail_004_kani=true&JigyosyoCd=0670801042-00&ServiceCd=150&Type=search", "url2": null }, "geometry": { "type": "Point", "coordinates": [ 139.842142200000012, 38.9311262 ] } },
{ "type": "Feature", "properties": { "内容": "ケアホーム　わかみやの郷【通所介護】酒田市若宮町二丁目２番２９号", "url": "https://www.kaigokensaku.mhlw.go.jp/06/index.php?action_kouhyou_detail_004_kani=true&JigyosyoCd=0670801083-00&ServiceCd=150&Type=search", "url2": "http://www.hikari-sato.jp/" }, "geometry": { "type": "Point", "coordinates": [ 139.8116536, 38.9006284 ] } },
{ "type": "Feature", "properties": { "内容": "デイサービスまごころひばり【通所介護】山形県酒田市こあら三丁目6番18", "url": "https://www.kaigokensaku.mhlw.go.jp/06/index.php?action_kouhyou_detail_004_kani=true&JigyosyoCd=0670801679-00&ServiceCd=150&Type=search", "url2": null }, "geometry": { "type": "Point", "coordinates": [ 139.863040799999965, 38.911706 ] } },
{ "type": "Feature", "properties": { "内容": "パワーリハデイサービス酒田【通所介護】山形県酒田市こあら3丁目1-5", "url": "https://www.kaigokensaku.mhlw.go.jp/06/index.php?action_kouhyou_detail_004_kani=true&JigyosyoCd=0670802271-00&ServiceCd=150&Type=search", "url2": null }, "geometry": { "type": "Point", "coordinates": [ 139.8586425, 38.9123099 ] } },
{ "type": "Feature", "properties": { "内容": "ニチイケアセンター酒田みずほ【通所介護】山形県酒田市亀ヶ崎3丁目5-55", "url": "https://www.kaigokensaku.mhlw.go.jp/06/index.php?action_kouhyou_detail_004_kani=true&JigyosyoCd=0670800564-00&ServiceCd=150&Type=search", "url2": "http://www.nichiigakkan.co.jp" }, "geometry": { "type": "Point", "coordinates": [ 139.844065099999966, 38.9047675 ] } },
{ "type": "Feature", "properties": { "内容": "ニチイケアセンターこあら【通所介護】山形県酒田市こあら２丁目５番地の２", "url": "https://www.kaigokensaku.mhlw.go.jp/06/index.php?action_kouhyou_detail_004_kani=true&JigyosyoCd=0670800853-00&ServiceCd=150&Type=search", "url2": "hittp://www.ninciigakkan.co.jp" }, "geometry": { "type": "Point", "coordinates": [ 139.863329900000053, 38.9146672 ] } },
{ "type": "Feature", "properties": { "内容": "ニチイケアセンター東泉【通所介護】山形県酒田市東泉町五丁目8-10", "url": "https://www.kaigokensaku.mhlw.go.jp/06/index.php?action_kouhyou_detail_004_kani=true&JigyosyoCd=0670800739-00&ServiceCd=150&Type=search", "url2": "http://www.nichiigakkan.co.jp" }, "geometry": { "type": "Point", "coordinates": [ 139.853166500000043, 38.9328791 ] } },
{ "type": "Feature", "properties": { "内容": "デイサービスセンター　クローバー【通所介護】山形県酒田市山居町二丁目１０番７号", "url": "https://www.kaigokensaku.mhlw.go.jp/06/index.php?action_kouhyou_detail_004_kani=true&JigyosyoCd=0670801562-00&ServiceCd=150&Type=search", "url2": null }, "geometry": { "type": "Point", "coordinates": [ 139.83341, 38.9112833 ] } },
{ "type": "Feature", "properties": { "内容": "デイサービスセンター　ハート【通所介護】山形県酒田市山居町二丁目１１番２３号", "url": "https://www.kaigokensaku.mhlw.go.jp/06/index.php?action_kouhyou_detail_004_kani=true&JigyosyoCd=0670801794-00&ServiceCd=150&Type=search", "url2": null }, "geometry": { "type": "Point", "coordinates": [ 139.833840499999951, 38.9118138 ] } },
{ "type": "Feature", "properties": { "内容": "デイサービス眺海【通所介護】酒田市山寺字宅地１５９番地", "url": "https://www.kaigokensaku.mhlw.go.jp/06/index.php?action_kouhyou_detail_004_kani=true&JigyosyoCd=0670801299-00&ServiceCd=150&Type=search", "url2": "http://www.kashin.jp" }, "geometry": { "type": "Point", "coordinates": [ 139.961984, 38.8481327 ] } },
{ "type": "Feature", "properties": { "内容": "コンフォート樫の木【通所介護】山形県酒田市こあら２丁目４番地の６", "url": "https://www.kaigokensaku.mhlw.go.jp/06/index.php?action_kouhyou_detail_004_kani=true&JigyosyoCd=0670801844-00&ServiceCd=150&Type=search", "url2": "http://www.kashink.jp" }, "geometry": { "type": "Point", "coordinates": [ 139.862483581089805, 38.91491594868836 ] } },
{ "type": "Feature", "properties": { "内容": "デイサービスあらた【通所介護】山形県酒田市東町1-15-25", "url": "https://www.kaigokensaku.mhlw.go.jp/06/index.php?action_kouhyou_detail_004_kani=true&JigyosyoCd=0670802081-00&ServiceCd=150&Type=search", "url2": "https://idealfaro.com" }, "geometry": { "type": "Point", "coordinates": [ 139.864865099999946, 38.9092788 ] } },
{ "type": "Feature", "properties": { "内容": "みすみ指定通所介護事業所【通所介護】山形県酒田市楢橋字大柳1番地16", "url": "https://www.kaigokensaku.mhlw.go.jp/06/index.php?action_kouhyou_detail_004_kani=true&JigyosyoCd=0673200093-00&ServiceCd=150&Type=search", "url2": "www.hirata.or.jp/" }, "geometry": { "type": "Point", "coordinates": [ 139.9508697, 38.8917528 ] } },
{ "type": "Feature", "properties": { "内容": "デイサービスセンター　すまいる【通所介護】山形県酒田市船場町1丁目9番10号", "url": "https://www.kaigokensaku.mhlw.go.jp/06/index.php?action_kouhyou_detail_004_kani=true&JigyosyoCd=0670801471-00&ServiceCd=150&Type=search", "url2": null }, "geometry": { "type": "Point", "coordinates": [ 139.828412899999989, 38.917227 ] } },
{ "type": "Feature", "properties": { "内容": "介護予防センターさくら広野【通所介護】山形県酒田市広野字末広102-1", "url": "https://www.kaigokensaku.mhlw.go.jp/06/index.php?action_kouhyou_detail_004_kani=true&JigyosyoCd=0670800887-00&ServiceCd=150&Type=search", "url2": "http://www.sakura-welfare.jp" }, "geometry": { "type": "Point", "coordinates": [ 139.847274199999987, 38.84888 ] } },
{ "type": "Feature", "properties": { "内容": "介護予防センターさくら【通所介護】山形県酒田市山居町2丁目1-7", "url": "https://www.kaigokensaku.mhlw.go.jp/06/index.php?action_kouhyou_detail_004_kani=true&JigyosyoCd=0670801257-00&ServiceCd=150&Type=search", "url2": "http://.sakura.welfare.jp/" }, "geometry": { "type": "Point", "coordinates": [ 139.834209767891593, 38.912598775815901 ] } },
{ "type": "Feature", "properties": { "内容": "介護予防センターさくら東泉【通所介護】山形県酒田市東泉町6丁目1-9", "url": "https://www.kaigokensaku.mhlw.go.jp/06/index.php?action_kouhyou_detail_004_kani=true&JigyosyoCd=0670801364-00&ServiceCd=150&Type=search", "url2": "http://www.sakura-welfare.jp/" }, "geometry": { "type": "Point", "coordinates": [ 139.853944299999966, 38.9329597 ] } },
{ "type": "Feature", "properties": { "内容": "介護予防センターさくらの里【通所介護】山形県酒田市字山田32-2", "url": "https://www.kaigokensaku.mhlw.go.jp/06/index.php?action_kouhyou_detail_004_kani=true&JigyosyoCd=0670801430-00&ServiceCd=150&Type=search", "url2": "http://www.sakura-welfare.jp/" }, "geometry": { "type": "Point", "coordinates": [ 139.951853799999981, 38.857551 ] } },
{ "type": "Feature", "properties": { "内容": "ゆたかの家【通所介護】山形県酒田市ゆたか２丁目５番地の１", "url": "https://www.kaigokensaku.mhlw.go.jp/06/index.php?action_kouhyou_detail_004_kani=true&JigyosyoCd=0670801604-00&ServiceCd=150&Type=search", "url2": "http://third-stage.net" }, "geometry": { "type": "Point", "coordinates": [ 139.844125299999973, 38.9364424 ] } },
{ "type": "Feature", "properties": { "内容": "丸岡医院通所介護事業所いぶき【通所介護】山形県酒田市亀ヶ崎6丁目9番15号", "url": "https://www.kaigokensaku.mhlw.go.jp/06/index.php?action_kouhyou_detail_004_kani=true&JigyosyoCd=0670802172-00&ServiceCd=150&Type=search", "url2": "http://maruoka.or.jp/" }, "geometry": { "type": "Point", "coordinates": [ 139.846035300000011, 38.8971705 ] } },
{ "type": "Feature", "properties": { "内容": "デイサービスセンターすずかぜ【通所介護】山形県酒田市東両羽町6-2", "url": "https://www.kaigokensaku.mhlw.go.jp/06/index.php?action_kouhyou_detail_004_kani=true&JigyosyoCd=0670801554-00&ServiceCd=150&Type=search", "url2": "http://www.maruoka.or.jp" }, "geometry": { "type": "Point", "coordinates": [ 139.848920499999963, 38.8945744 ] } },
{ "type": "Feature", "properties": { "内容": "福祉のひろば通所介護事業所【通所介護】山形県酒田市穂積字上市神139-5", "url": "https://www.kaigokensaku.mhlw.go.jp/06/index.php?action_kouhyou_detail_004_kani=true&JigyosyoCd=0670800457-00&ServiceCd=150&Type=search", "url2": "https://www.f-hiroba.co.jp/" }, "geometry": { "type": "Point", "coordinates": [ 139.863035599999989, 38.9762354 ] } },
{ "type": "Feature", "properties": { "内容": "在宅介護複合施設ほづみ通所介護事業所【通所介護】山形県酒田市宮海字林内23番地", "url": "https://www.kaigokensaku.mhlw.go.jp/06/index.php?action_kouhyou_detail_004_kani=true&JigyosyoCd=0670801174-00&ServiceCd=150&Type=search", "url2": "http://www.hodumi.info/" }, "geometry": { "type": "Point", "coordinates": [ 139.851708899999949, 38.9734911 ] } },
{ "type": "Feature", "properties": { "内容": "サン・シティ指定通所介護事業所【通所介護】山形県酒田市曙町二丁目28番地の5サン・シティ別館", "url": "https://www.kaigokensaku.mhlw.go.jp/06/index.php?action_kouhyou_detail_004_kani=true&JigyosyoCd=0670800176-00&ServiceCd=150&Type=search", "url2": "www.fuku-yuwakai.jp" }, "geometry": { "type": "Point", "coordinates": [ 139.863063199999942, 38.9189807 ] } },
{ "type": "Feature", "properties": { "内容": "健生ふれあいクリニック通所介護【通所介護】山形県酒田市泉町１番地１６", "url": "https://www.kaigokensaku.mhlw.go.jp/06/index.php?action_kouhyou_detail_004_kani=true&JigyosyoCd=0670800861-00&ServiceCd=150&Type=search", "url2": "http://www.ken-sei.or.jp" }, "geometry": { "type": "Point", "coordinates": [ 139.847178, 38.9339594 ] } },
{ "type": "Feature", "properties": { "内容": "デイサービスセンターめぐみ【通所介護】山形県酒田市こがね町1-20-11", "url": "https://www.kaigokensaku.mhlw.go.jp/06/index.php?action_kouhyou_detail_004_kani=true&JigyosyoCd=0670801356-00&ServiceCd=150&Type=search", "url2": "http://megumiday.com/" }, "geometry": { "type": "Point", "coordinates": [ 139.859796758270704, 38.901956634637571 ] } },
{ "type": "Feature", "properties": { "内容": "ディサ－ビスセンタ－あずま【通所介護】山形県酒田市関字向126番地の2", "url": "https://www.kaigokensaku.mhlw.go.jp/06/index.php?action_kouhyou_detail_004_kani=true&JigyosyoCd=0670800234-00&ServiceCd=150&Type=search", "url2": "http://www.east-azuma.or.jp/outline/" }, "geometry": { "type": "Point", "coordinates": [ 139.9217956, 38.9290315 ] } },
{ "type": "Feature", "properties": { "内容": "指定通所デイサービスセンターキャット【通所介護】山形県酒田市東泉町3丁目2-11", "url": "https://www.kaigokensaku.mhlw.go.jp/06/index.php?action_kouhyou_detail_004_kani=true&JigyosyoCd=0670800788-00&ServiceCd=150&Type=search", "url2": "https://catsgp.com" }, "geometry": { "type": "Point", "coordinates": [ 139.8456976, 38.9312429 ] } },
{ "type": "Feature", "properties": { "内容": "ライフケア黒森指定通所介護事業所【通所介護】山形県酒田市黒森字葭葉山５４番１０", "url": "https://www.kaigokensaku.mhlw.go.jp/06/index.php?action_kouhyou_detail_004_kani=true&JigyosyoCd=0670800481-00&ServiceCd=150&Type=search", "url2": "http://syokaku-lc.com/" }, "geometry": { "type": "Point", "coordinates": [ 139.81717679999997, 38.8530683 ] } },
{ "type": "Feature", "properties": { "内容": "北のかがやき【通所介護】山形県酒田市漆曽根字腰廻34番地", "url": "https://www.kaigokensaku.mhlw.go.jp/06/index.php?action_kouhyou_detail_004_kani=true&JigyosyoCd=0670801133-00&ServiceCd=150&Type=search", "url2": "http://www.syokaku-lc.com/" }, "geometry": { "type": "Point", "coordinates": [ 139.88708619999997, 38.932883 ] } },
{ "type": "Feature", "properties": { "内容": "こもれびの郷浜中【通所介護】山形県酒田市浜中字上村378番地1", "url": "https://www.kaigokensaku.mhlw.go.jp/06/index.php?action_kouhyou_detail_004_kani=true&JigyosyoCd=0670801661-00&ServiceCd=150&Type=search", "url2": "http://syokaku-lc.com/" }, "geometry": { "type": "Point", "coordinates": [ 139.783867307054152, 38.823690744883137 ] } },
{ "type": "Feature", "properties": { "内容": "通所介護八重櫻【通所介護】山形県酒田市牧曽根字宮ノ越９２番地３サービス付き高齢者向け住宅八重櫻", "url": "https://www.kaigokensaku.mhlw.go.jp/06/index.php?action_kouhyou_detail_004_kani=true&JigyosyoCd=0670801950-00&ServiceCd=150&Type=search", "url2": null }, "geometry": { "type": "Point", "coordinates": [ 139.874552500000021, 38.935996100000011 ] } },
{ "type": "Feature", "properties": { "内容": "ＪＡ庄内みどりデイサービス　結い・なかひらた【通所介護】山形県酒田市熊手島字道の下熊興屋17番1", "url": "https://www.kaigokensaku.mhlw.go.jp/06/index.php?action_kouhyou_detail_004_kani=true&JigyosyoCd=0670801778-00&ServiceCd=150&Type=search", "url2": "http://midorinet.or.jp" }, "geometry": { "type": "Point", "coordinates": [ 139.893547953967328, 38.906441864030775 ] } },
{ "type": "Feature", "properties": { "内容": "デイサービス春【通所介護】法連寺字村前13-2", "url": "https://www.kaigokensaku.mhlw.go.jp/06/index.php?action_kouhyou_detail_004_kani=true&JigyosyoCd=0670802180-00&ServiceCd=150&Type=search", "url2": null }, "geometry": { "type": "Point", "coordinates": [ 139.930743, 38.9647399 ] } },
{ "type": "Feature", "properties": { "内容": "デイサービス「かつろく」【通所介護】山形県新庄市金沢字西ノ山3027-10", "url": "https://www.kaigokensaku.mhlw.go.jp/06/index.php?action_kouhyou_detail_004_kani=true&JigyosyoCd=0671100303-00&ServiceCd=150&Type=search", "url2": "https://katsuroku.jp/" }, "geometry": { "type": "Point", "coordinates": [ 140.337402699999984, 38.7729627 ] } },
{ "type": "Feature", "properties": { "内容": "福祉ステーション・つばさ【通所介護】山形県新庄市大町3番34号", "url": "https://www.kaigokensaku.mhlw.go.jp/06/index.php?action_kouhyou_detail_004_kani=true&JigyosyoCd=0671101087-00&ServiceCd=150&Type=search", "url2": null }, "geometry": { "type": "Point", "coordinates": [ 140.298925300000064, 38.7625961 ] } },
{ "type": "Feature", "properties": { "内容": "デイサービスセンターぱれっと新庄【通所介護】山形県新庄市大字萩野字横根山101-1", "url": "https://www.kaigokensaku.mhlw.go.jp/06/index.php?action_kouhyou_detail_004_kani=true&JigyosyoCd=0671100832-00&ServiceCd=150&Type=search", "url2": "https://www.yis-palette.co.jp/" }, "geometry": { "type": "Point", "coordinates": [ 140.32921594788516, 38.825423466386233 ] } },
{ "type": "Feature", "properties": { "内容": "ＳＯＭＰＯケア　新庄金沢　デイサービス【通所介護】山形県新庄市金沢1863-1", "url": "https://www.kaigokensaku.mhlw.go.jp/06/index.php?action_kouhyou_detail_004_kani=true&JigyosyoCd=0671101202-00&ServiceCd=150&Type=search", "url2": "https://www.sompocare.com" }, "geometry": { "type": "Point", "coordinates": [ 140.311441599999966, 38.7535226 ] } },
{ "type": "Feature", "properties": { "内容": "ディサービスセンター三光舎・新庄【通所介護】山形県新庄市万場町３番地の２９", "url": "https://www.kaigokensaku.mhlw.go.jp/06/index.php?action_kouhyou_detail_004_kani=true&JigyosyoCd=0671100725-00&ServiceCd=150&Type=search", "url2": null }, "geometry": { "type": "Point", "coordinates": [ 140.3009806, 38.769537 ] } },
{ "type": "Feature", "properties": { "内容": "デイサービスいぶき【通所介護】山形県新庄市大字松本３９３番地の９", "url": "https://www.kaigokensaku.mhlw.go.jp/06/index.php?action_kouhyou_detail_004_kani=true&JigyosyoCd=0671101178-00&ServiceCd=150&Type=search", "url2": null }, "geometry": { "type": "Point", "coordinates": [ 140.300503400000025, 38.7492783 ] } },
{ "type": "Feature", "properties": { "内容": "デイサロン日和【通所介護】山形県新庄市本町4番33号こらっせ新庄2階", "url": "https://www.kaigokensaku.mhlw.go.jp/06/index.php?action_kouhyou_detail_004_kani=true&JigyosyoCd=0671101285-00&ServiceCd=150&Type=search", "url2": "http://hiyori.colasse.jp/" }, "geometry": { "type": "Point", "coordinates": [ 140.3008553, 38.7670217 ] } },
{ "type": "Feature", "properties": { "内容": "デイサービスセンター　ネスト・デイ【通所介護】山形県新庄市住吉町３番３号", "url": "https://www.kaigokensaku.mhlw.go.jp/06/index.php?action_kouhyou_detail_004_kani=true&JigyosyoCd=0671100493-00&ServiceCd=150&Type=search", "url2": "http://www.dreamnest.or.jp" }, "geometry": { "type": "Point", "coordinates": [ 140.302597200000037, 38.7655181 ] } },
{ "type": "Feature", "properties": { "内容": "カイセイデイサービス【通所介護】新庄市末広町7-4", "url": "https://www.kaigokensaku.mhlw.go.jp/06/index.php?action_kouhyou_detail_004_kani=true&JigyosyoCd=0671100766-00&ServiceCd=150&Type=search", "url2": "http://www.kaisei-company.com" }, "geometry": { "type": "Point", "coordinates": [ 140.304433499999959, 38.7563332 ] } },
{ "type": "Feature", "properties": { "内容": "カイセイホーム・デイ【通所介護】山形県新庄市末広町7-3", "url": "https://www.kaigokensaku.mhlw.go.jp/06/index.php?action_kouhyou_detail_004_kani=true&JigyosyoCd=0671101152-00&ServiceCd=150&Type=search", "url2": "http://www.kaisei-company.com/" }, "geometry": { "type": "Point", "coordinates": [ 140.304480600663709, 38.756443480371807 ] } },
{ "type": "Feature", "properties": { "内容": "カイセイほっと新庄【通所介護】山形県新庄市大字泉田字下村西19-72", "url": "https://www.kaigokensaku.mhlw.go.jp/06/index.php?action_kouhyou_detail_004_kani=true&JigyosyoCd=0671101186-00&ServiceCd=150&Type=search", "url2": "http://www.kaisei-company.com" }, "geometry": { "type": "Point", "coordinates": [ 140.310923099999968, 38.8098912 ] } },
{ "type": "Feature", "properties": { "内容": "デイサービスセカンドライフ【通所介護】山形県新庄市鳥越９９９－２１", "url": "https://www.kaigokensaku.mhlw.go.jp/06/index.php?action_kouhyou_detail_004_kani=true&JigyosyoCd=0671100956-00&ServiceCd=150&Type=search", "url2": "https://www.life-shinjo.com/" }, "geometry": { "type": "Point", "coordinates": [ 140.305362507270786, 38.746711585537732 ] } },
{ "type": "Feature", "properties": { "内容": "デイサービスマイライフ【通所介護】山形県新庄市大字泉田字上村西１２１", "url": "https://www.kaigokensaku.mhlw.go.jp/06/index.php?action_kouhyou_detail_004_kani=true&JigyosyoCd=0671101061-00&ServiceCd=150&Type=search", "url2": "https://www.life-shinjo.com/" }, "geometry": { "type": "Point", "coordinates": [ 140.313305599799094, 38.811779900162094 ] } },
{ "type": "Feature", "properties": { "内容": "デイサービスセンター第二あじさい【通所介護】山形県新庄市大字泉田字上村西170番地", "url": "https://www.kaigokensaku.mhlw.go.jp/06/index.php?action_kouhyou_detail_004_kani=true&JigyosyoCd=0671100089-00&ServiceCd=150&Type=search", "url2": null }, "geometry": { "type": "Point", "coordinates": [ 140.31418050000002, 38.8111912 ] } },
{ "type": "Feature", "properties": { "内容": "デイサービスカナン【通所介護】山形県新庄市金沢2864番地", "url": "https://www.kaigokensaku.mhlw.go.jp/06/index.php?action_kouhyou_detail_004_kani=true&JigyosyoCd=0671101145-00&ServiceCd=150&Type=search", "url2": "http://care-home-canaan.com" }, "geometry": { "type": "Point", "coordinates": [ 140.308586200000036, 38.7501146 ] } },
{ "type": "Feature", "properties": { "内容": "宅老所南さがえ【通所介護】山形県寒河江市大字島字島東30-1", "url": "https://www.kaigokensaku.mhlw.go.jp/06/index.php?action_kouhyou_detail_004_kani=true&JigyosyoCd=0671200566-00&ServiceCd=150&Type=search", "url2": "http://www.t-fukushi-service.co.jp/dayservice/sagae.html" }, "geometry": { "type": "Point", "coordinates": [ 140.277322899999945, 38.3558638 ] } },
{ "type": "Feature", "properties": { "内容": "さがえ西村山農業協同組合【通所介護】山形県寒河江市大字寒河江字久保２番地ＪＡ健康福祉センター", "url": "https://www.kaigokensaku.mhlw.go.jp/06/index.php?action_kouhyou_detail_004_kani=true&JigyosyoCd=0671200137-00&ServiceCd=150&Type=search", "url2": "http://www.ic-net.or.jp/home/jasagae/" }, "geometry": { "type": "Point", "coordinates": [ 140.256510599999956, 38.3649787 ] } },
{ "type": "Feature", "properties": { "内容": "通所介護つつじの家【通所介護】山形県寒河江市大字寒河江字塩水6-1つつじの家", "url": "https://www.kaigokensaku.mhlw.go.jp/06/index.php?action_kouhyou_detail_004_kani=true&JigyosyoCd=0671200541-00&ServiceCd=150&Type=search", "url2": "https://www.npo-ajisai.jp/" }, "geometry": { "type": "Point", "coordinates": [ 140.2610268, 38.3789886 ] } },
{ "type": "Feature", "properties": { "内容": "デイサービス　み～んな　えがお【通所介護】寒河江市大字西根字石川西269-1", "url": "https://www.kaigokensaku.mhlw.go.jp/06/index.php?action_kouhyou_detail_004_kani=true&JigyosyoCd=0671200525-00&ServiceCd=150&Type=search", "url2": null }, "geometry": { "type": "Point", "coordinates": [ 140.277080399999932, 38.3870989 ] } },
{ "type": "Feature", "properties": { "内容": "リハビリセンターVESTA【通所介護】寒河江市栄町8-41SAKAECHOU841", "url": "https://www.kaigokensaku.mhlw.go.jp/06/index.php?action_kouhyou_detail_004_kani=true&JigyosyoCd=0671200723-00&ServiceCd=150&Type=search", "url2": "https://vesita.co.jp" }, "geometry": { "type": "Point", "coordinates": [ 140.279364500000014, 38.3682137 ] } },
{ "type": "Feature", "properties": { "内容": "デイサービス花【通所介護】山形県寒河江市大字日和田6番地の14", "url": "https://www.kaigokensaku.mhlw.go.jp/06/index.php?action_kouhyou_detail_004_kani=true&JigyosyoCd=0671200293-00&ServiceCd=150&Type=search", "url2": "https://vesita.co.jp/" }, "geometry": { "type": "Point", "coordinates": [ 140.253953799999977, 38.4064793 ] } },
{ "type": "Feature", "properties": { "内容": "デイサービスなごみ【通所介護】寒河江市大字日和田６番地の11", "url": "https://www.kaigokensaku.mhlw.go.jp/06/index.php?action_kouhyou_detail_004_kani=true&JigyosyoCd=0671200418-00&ServiceCd=150&Type=search", "url2": "https://vesita.co.jp/" }, "geometry": { "type": "Point", "coordinates": [ 140.253828800000065, 38.4067321 ] } },
{ "type": "Feature", "properties": { "内容": "ツクイ寒河江【通所介護】山形県寒河江市緑町108-2", "url": "https://www.kaigokensaku.mhlw.go.jp/06/index.php?action_kouhyou_detail_004_kani=true&JigyosyoCd=0671200715-00&ServiceCd=150&Type=search", "url2": null }, "geometry": { "type": "Point", "coordinates": [ 140.2586977, 38.3834045 ] } },
{ "type": "Feature", "properties": { "内容": "ソーレホーム寒河江デイサービス【通所介護】寒河江市越井坂町142番1号", "url": "https://www.kaigokensaku.mhlw.go.jp/06/index.php?action_kouhyou_detail_004_kani=true&JigyosyoCd=0671200327-00&ServiceCd=150&Type=search", "url2": "http://www.sole.ne.jp" }, "geometry": { "type": "Point", "coordinates": [ 140.285827199999972, 38.3731675 ] } },
{ "type": "Feature", "properties": { "内容": "長生園指定通所介護事業所【通所介護】寒河江市大字柴橋2246番地の1", "url": "https://www.kaigokensaku.mhlw.go.jp/06/index.php?action_kouhyou_detail_004_kani=true&JigyosyoCd=0671200087-00&ServiceCd=150&Type=search", "url2": "http://www.chouseien.or.jp" }, "geometry": { "type": "Point", "coordinates": [ 140.254449600000044, 38.3697503 ] } },
{ "type": "Feature", "properties": { "内容": "デイサービスセンター　しらいわ【通所介護】山形県寒河江市大字白岩６３２４番地", "url": "https://www.kaigokensaku.mhlw.go.jp/06/index.php?action_kouhyou_detail_004_kani=true&JigyosyoCd=0671200350-00&ServiceCd=150&Type=search", "url2": "https://www.sagae-yuuyuukai.org/" }, "geometry": { "type": "Point", "coordinates": [ 140.220038299999942, 38.4099113 ] } },
{ "type": "Feature", "properties": { "内容": "笑和感【通所介護】寒河江市大字白岩８番地１", "url": "https://www.kaigokensaku.mhlw.go.jp/06/index.php?action_kouhyou_detail_004_kani=true&JigyosyoCd=0671200475-00&ServiceCd=150&Type=search", "url2": "https://aozora-kaigo.com/" }, "geometry": { "type": "Point", "coordinates": [ 140.235290500000019, 38.4080036 ] } },
{ "type": "Feature", "properties": { "内容": "みゆきデイサービス金生【通所介護】山形県上山市金生東二丁目6-41", "url": "https://www.kaigokensaku.mhlw.go.jp/06/index.php?action_kouhyou_detail_004_kani=true&JigyosyoCd=0671300283-00&ServiceCd=150&Type=search", "url2": "https://www.miyuki.or.jp/" }, "geometry": { "type": "Point", "coordinates": [ 140.285306200000036, 38.1424134 ] } },
{ "type": "Feature", "properties": { "内容": "デイサービスセンターまる指定通所介護事業所【通所介護】山形県上山市牧野字清水21-1", "url": "https://www.kaigokensaku.mhlw.go.jp/06/index.php?action_kouhyou_detail_004_kani=true&JigyosyoCd=0671300184-00&ServiceCd=150&Type=search", "url2": "http://www.miyuki-fukushi.jp/" }, "geometry": { "type": "Point", "coordinates": [ 140.301631300000054, 38.1158696 ] } },
{ "type": "Feature", "properties": { "内容": "コンパスウォーク上山石崎店【通所介護】山形県上山市石崎1丁目2番地41", "url": "https://www.kaigokensaku.mhlw.go.jp/06/index.php?action_kouhyou_detail_004_kani=true&JigyosyoCd=0671300648-00&ServiceCd=150&Type=search", "url2": null }, "geometry": { "type": "Point", "coordinates": [ 140.273807607364802, 38.152422940488705 ] } },
{ "type": "Feature", "properties": { "内容": "ニチイケアセンター村山【通所介護】山形県村山市楯岡五日町16-15", "url": "https://www.kaigokensaku.mhlw.go.jp/06/index.php?action_kouhyou_detail_004_kani=true&JigyosyoCd=0671400158-00&ServiceCd=150&Type=search", "url2": "http://www.nichiigakkan.co.jp" }, "geometry": { "type": "Point", "coordinates": [ 140.387035400000059, 38.4780527 ] } },
{ "type": "Feature", "properties": { "内容": "デイサービスセンター　香紅の里【通所介護】村山市楯岡俵町20－19", "url": "https://www.kaigokensaku.mhlw.go.jp/06/index.php?action_kouhyou_detail_004_kani=true&JigyosyoCd=0671400273-00&ServiceCd=150&Type=search", "url2": "http://www.ryokuaikai.com" }, "geometry": { "type": "Point", "coordinates": [ 140.3854328, 38.4753529 ] } },
{ "type": "Feature", "properties": { "内容": "デイサービスセンター菊香【通所介護】山形県村山市中央二丁目５番４３号", "url": "https://www.kaigokensaku.mhlw.go.jp/06/index.php?action_kouhyou_detail_004_kani=true&JigyosyoCd=0671400323-00&ServiceCd=150&Type=search", "url2": null }, "geometry": { "type": "Point", "coordinates": [ 140.372663996958863, 38.482872899235453 ] } },
{ "type": "Feature", "properties": { "内容": "デイサービス　にしごう【通所介護】山形県村山市大字名取1020番地", "url": "https://www.kaigokensaku.mhlw.go.jp/06/index.php?action_kouhyou_detail_004_kani=true&JigyosyoCd=0671400265-00&ServiceCd=150&Type=search", "url2": null }, "geometry": { "type": "Point", "coordinates": [ 140.364759099999986, 38.4950367 ] } },
{ "type": "Feature", "properties": { "内容": "デイサービスまごころ村山【通所介護】山形県村山市櫤山字金谷西4752-1", "url": "https://www.kaigokensaku.mhlw.go.jp/06/index.php?action_kouhyou_detail_004_kani=true&JigyosyoCd=0671400422-00&ServiceCd=150&Type=search", "url2": null }, "geometry": { "type": "Point", "coordinates": [ 140.39197782869212, 38.512260389035632 ] } },
{ "type": "Feature", "properties": { "内容": "デイサービスセンターひがしざわ【通所介護】山形県村山市楯岡笛田二丁目１９番５７号", "url": "https://www.kaigokensaku.mhlw.go.jp/06/index.php?action_kouhyou_detail_004_kani=true&JigyosyoCd=0671400240-00&ServiceCd=150&Type=search", "url2": "http://kjg-net.jp/" }, "geometry": { "type": "Point", "coordinates": [ 140.403661599999964, 38.4794836 ] } },
{ "type": "Feature", "properties": { "内容": "指定通所介護事業所ふもと【通所介護】山形県村山市大字湯野沢956番地の3", "url": "https://www.kaigokensaku.mhlw.go.jp/06/index.php?action_kouhyou_detail_004_kani=true&JigyosyoCd=0671400059-00&ServiceCd=150&Type=search", "url2": "http://murayama-hikari-kouseikai.jp/" }, "geometry": { "type": "Point", "coordinates": [ 140.307155200000011, 38.4621504 ] } },
{ "type": "Feature", "properties": { "内容": "デイサービスセンター　風ぐるま【通所介護】山形県長井市今泉2944-3", "url": "https://www.kaigokensaku.mhlw.go.jp/06/index.php?action_kouhyou_detail_004_kani=true&JigyosyoCd=0671500403-00&ServiceCd=150&Type=search", "url2": "curedream.com" }, "geometry": { "type": "Point", "coordinates": [ 140.046262, 38.0525443 ] } },
{ "type": "Feature", "properties": { "内容": "リバーヒルデイサービスセンターすこやか【通所介護】山形県長井市中道2丁目2-37", "url": "https://www.kaigokensaku.mhlw.go.jp/06/index.php?action_kouhyou_detail_004_kani=true&JigyosyoCd=0671500361-00&ServiceCd=150&Type=search", "url2": "https://www.riverhill.jp" }, "geometry": { "type": "Point", "coordinates": [ 140.031822487135059, 38.10657730367307 ] } },
{ "type": "Feature", "properties": { "内容": "慈光園中央デイサービスセンター【通所介護】山形県長井市ままの上７番１０号保健センター内", "url": "https://www.kaigokensaku.mhlw.go.jp/06/index.php?action_kouhyou_detail_004_kani=true&JigyosyoCd=0671500114-00&ServiceCd=150&Type=search", "url2": "http://www2.jan.ne.jp/~jikouen1/" }, "geometry": { "type": "Point", "coordinates": [ 140.041509899999937, 38.1055994 ] } },
{ "type": "Feature", "properties": { "内容": "慈光園デイサービスセンター【通所介護】山形県長井市小出3453番地", "url": "https://www.kaigokensaku.mhlw.go.jp/06/index.php?action_kouhyou_detail_004_kani=true&JigyosyoCd=0671500106-00&ServiceCd=150&Type=search", "url2": "http://www2.jan.ne.jp/jikouen1/" }, "geometry": { "type": "Point", "coordinates": [ 140.04986729999996, 38.1093409 ] } },
{ "type": "Feature", "properties": { "内容": "ツクイ長井【通所介護】山形県長井市九野本268番地", "url": "https://www.kaigokensaku.mhlw.go.jp/06/index.php?action_kouhyou_detail_004_kani=true&JigyosyoCd=0671500569-00&ServiceCd=150&Type=search", "url2": "http://www.tsukui.net/" }, "geometry": { "type": "Point", "coordinates": [ 140.033935399999962, 38.0906617 ] } },
{ "type": "Feature", "properties": { "内容": "ソーシャル支援デイサービス【通所介護】山形県天童市糠塚2丁目9-6", "url": "https://www.kaigokensaku.mhlw.go.jp/06/index.php?action_kouhyou_detail_004_kani=true&JigyosyoCd=0671600906-00&ServiceCd=150&Type=search", "url2": "http://care-net.biz/06/office-yamagata/company.php" }, "geometry": { "type": "Point", "coordinates": [ 140.362932, 38.3257013 ] } },
{ "type": "Feature", "properties": { "内容": "天童もみじ館【通所介護】山形県天童市鎌田1-6-37", "url": "https://www.kaigokensaku.mhlw.go.jp/06/index.php?action_kouhyou_detail_004_kani=true&JigyosyoCd=0671600609-00&ServiceCd=150&Type=search", "url2": "http://www.t-fukushi-service.co.jp/" }, "geometry": { "type": "Point", "coordinates": [ 140.385885300000041, 38.3592597 ] } },
{ "type": "Feature", "properties": { "内容": "デイフィットたび空【通所介護】山形県天童市一日町4丁目2ｰ6", "url": "https://www.kaigokensaku.mhlw.go.jp/06/index.php?action_kouhyou_detail_004_kani=true&JigyosyoCd=0671601151-00&ServiceCd=150&Type=search", "url2": null }, "geometry": { "type": "Point", "coordinates": [ 140.368787880425998, 38.347120416105554 ] } },
{ "type": "Feature", "properties": { "内容": "指定通所介護事業所　デイサービスセンターあこがれ【通所介護】天童市大字荒谷1973番地1345", "url": "https://www.kaigokensaku.mhlw.go.jp/06/index.php?action_kouhyou_detail_004_kani=true&JigyosyoCd=0671600377-00&ServiceCd=150&Type=search", "url2": "https://yuu-ai-kai.net" }, "geometry": { "type": "Point", "coordinates": [ 140.387124699999958, 38.3273018 ] } },
{ "type": "Feature", "properties": { "内容": "久遠の湯デイサービス【通所介護】山形県天童市鎌田一丁目１－１１", "url": "https://www.kaigokensaku.mhlw.go.jp/06/index.php?action_kouhyou_detail_004_kani=true&JigyosyoCd=0671600500-00&ServiceCd=150&Type=search", "url2": "http://www.kuon-tendo.jp" }, "geometry": { "type": "Point", "coordinates": [ 140.381888300000014, 38.3605512 ] } },
{ "type": "Feature", "properties": { "内容": "天童デイサービスセンターつるかめ【通所介護】山形県天童市大字小関１２０４－５", "url": "https://www.kaigokensaku.mhlw.go.jp/06/index.php?action_kouhyou_detail_004_kani=true&JigyosyoCd=0671600468-00&ServiceCd=150&Type=search", "url2": "http://care-net.biz/06/turukame/index.php" }, "geometry": { "type": "Point", "coordinates": [ 140.36252049999996, 38.3634559 ] } },
{ "type": "Feature", "properties": { "内容": "天童デイサービスセンター　となりのつるかめ【通所介護】山形県天童市大字小関1204-6", "url": "https://www.kaigokensaku.mhlw.go.jp/06/index.php?action_kouhyou_detail_004_kani=true&JigyosyoCd=0671600617-00&ServiceCd=150&Type=search", "url2": "http://care-net.biz/06/turukame/" }, "geometry": { "type": "Point", "coordinates": [ 140.362462100000016, 38.3632059 ] } },
{ "type": "Feature", "properties": { "内容": "デイサービスセンターわらうつるかめ【通所介護】山形県天童市北久野本１丁目２－３０", "url": "https://www.kaigokensaku.mhlw.go.jp/06/index.php?action_kouhyou_detail_004_kani=true&JigyosyoCd=0671600856-00&ServiceCd=150&Type=search", "url2": null }, "geometry": { "type": "Point", "coordinates": [ 140.3737496, 38.3762577 ] } },
{ "type": "Feature", "properties": { "内容": "介護予防センター歩くつるかめ【通所介護】山形県天童市北久野本二丁目4-6", "url": "https://www.kaigokensaku.mhlw.go.jp/06/index.php?action_kouhyou_detail_004_kani=true&JigyosyoCd=0671601052-00&ServiceCd=150&Type=search", "url2": "http://care-net.biz/06/turukame/" }, "geometry": { "type": "Point", "coordinates": [ 140.378532180576627, 38.375998495945446 ] } },
{ "type": "Feature", "properties": { "内容": "社会福祉法人みらい　デイサービス　きらめきの里【通所介護】山形県天童市大字山口4540-1", "url": "https://www.kaigokensaku.mhlw.go.jp/06/index.php?action_kouhyou_detail_004_kani=true&JigyosyoCd=0671601078-00&ServiceCd=150&Type=search", "url2": "http://www.mirai-welfare.jp/" }, "geometry": { "type": "Point", "coordinates": [ 140.408921299999946, 38.386404400000025 ] } },
{ "type": "Feature", "properties": { "内容": "清幸園デイサービスセンター【通所介護】天童市大清水４９１－１", "url": "https://www.kaigokensaku.mhlw.go.jp/06/index.php?action_kouhyou_detail_004_kani=true&JigyosyoCd=0671600195-00&ServiceCd=150&Type=search", "url2": "http://www.seikouen.or.jp" }, "geometry": { "type": "Point", "coordinates": [ 140.352755800000068, 38.3875423 ] } },
{ "type": "Feature", "properties": { "内容": "明幸園デイサービスセンター【通所介護】山形県天童市大字矢野目150番地", "url": "https://www.kaigokensaku.mhlw.go.jp/06/index.php?action_kouhyou_detail_004_kani=true&JigyosyoCd=0671600187-00&ServiceCd=150&Type=search", "url2": "http://www.meikouen.or.jp" }, "geometry": { "type": "Point", "coordinates": [ 140.350452, 38.3531371 ] } },
{ "type": "Feature", "properties": { "内容": "リハビリ特化型デイサービス　カラダラボ　天童老野森【通所介護】山形県天童市老野森１丁目６－１０", "url": "https://www.kaigokensaku.mhlw.go.jp/06/index.php?action_kouhyou_detail_004_kani=true&JigyosyoCd=0671600989-00&ServiceCd=150&Type=search", "url2": null }, "geometry": { "type": "Point", "coordinates": [ 140.378142700000012, 38.3649071 ] } },
{ "type": "Feature", "properties": { "内容": "デイサービスセンター第二白水荘【通所介護】東根市大字蟹沢897-1", "url": "https://www.kaigokensaku.mhlw.go.jp/06/index.php?action_kouhyou_detail_004_kani=true&JigyosyoCd=0671700169-00&ServiceCd=150&Type=search", "url2": "http://www.higashine-fukushikai.org" }, "geometry": { "type": "Point", "coordinates": [ 140.3693611, 38.4442363 ] } },
{ "type": "Feature", "properties": { "内容": "デイサービスセンター白水荘【通所介護】山形県東根市大字野川2074番地の99", "url": "https://www.kaigokensaku.mhlw.go.jp/06/index.php?action_kouhyou_detail_004_kani=true&JigyosyoCd=0671700136-00&ServiceCd=150&Type=search", "url2": "http://www.higashine-fukushikai.org" }, "geometry": { "type": "Point", "coordinates": [ 140.431599300000016, 38.4087471 ] } },
{ "type": "Feature", "properties": { "内容": "宅老所じんまち【通所介護】山形県東根市神町西３丁目4-62", "url": "https://www.kaigokensaku.mhlw.go.jp/06/index.php?action_kouhyou_detail_004_kani=true&JigyosyoCd=0671700466-00&ServiceCd=150&Type=search", "url2": "http://www.fukushi-service.co.jp" }, "geometry": { "type": "Point", "coordinates": [ 140.3751254, 38.4124843 ] } },
{ "type": "Feature", "properties": { "内容": "月あかり神町【通所介護】山形県東根市神町北4-2-3", "url": "https://www.kaigokensaku.mhlw.go.jp/06/index.php?action_kouhyou_detail_004_kani=true&JigyosyoCd=0671700557-00&ServiceCd=150&Type=search", "url2": "http://www.t-fukushi-service.co.jp" }, "geometry": { "type": "Point", "coordinates": [ 140.3855175, 38.417057 ] } },
{ "type": "Feature", "properties": { "内容": "ニチイケアセンター東根【通所介護】山形県東根市神町東1-17-30", "url": "https://www.kaigokensaku.mhlw.go.jp/06/index.php?action_kouhyou_detail_004_kani=true&JigyosyoCd=0671700110-00&ServiceCd=150&Type=search", "url2": "http://www.nichiigakkan.co.jp" }, "geometry": { "type": "Point", "coordinates": [ 140.383864, 38.4102707 ] } },
{ "type": "Feature", "properties": { "内容": "通所介護事業所ソーレ東根【通所介護】山形県東根市温泉町二丁目5番3-5号", "url": "https://www.kaigokensaku.mhlw.go.jp/06/index.php?action_kouhyou_detail_004_kani=true&JigyosyoCd=0671700458-00&ServiceCd=150&Type=search", "url2": "https://taiyo-fukushikai.jp/" }, "geometry": { "type": "Point", "coordinates": [ 140.388160299999981, 38.4600765 ] } },
{ "type": "Feature", "properties": { "内容": "ゆいケア【通所介護】山形県東根市温泉町二丁目２番２０号", "url": "https://www.kaigokensaku.mhlw.go.jp/06/index.php?action_kouhyou_detail_004_kani=true&JigyosyoCd=0671700656-00&ServiceCd=150&Type=search", "url2": null }, "geometry": { "type": "Point", "coordinates": [ 140.389467100000047, 38.4587691 ] } },
{ "type": "Feature", "properties": { "内容": "デイこもれび【通所介護】山形県東根市中央四丁目３番１０号", "url": "https://www.kaigokensaku.mhlw.go.jp/06/index.php?action_kouhyou_detail_004_kani=true&JigyosyoCd=0671700482-00&ServiceCd=150&Type=search", "url2": "http://higashine-komorebi.com/" }, "geometry": { "type": "Point", "coordinates": [ 140.39310665581138, 38.434130512388123 ] } },
{ "type": "Feature", "properties": { "内容": "デイサービス　まごころ【通所介護】山形県東根市中央一丁目11-3ー", "url": "https://www.kaigokensaku.mhlw.go.jp/06/index.php?action_kouhyou_detail_004_kani=true&JigyosyoCd=0671700615-00&ServiceCd=150&Type=search", "url2": "https://dayservicemagokoro.jimdo.com/" }, "geometry": { "type": "Point", "coordinates": [ 140.392727928988762, 38.432512267705214 ] } },
{ "type": "Feature", "properties": { "内容": "デイサービスセンターおさなぎ【通所介護】山形県東根市中島通り一丁目25号", "url": "https://www.kaigokensaku.mhlw.go.jp/06/index.php?action_kouhyou_detail_004_kani=true&JigyosyoCd=0671700342-00&ServiceCd=150&Type=search", "url2": "https://ims-tohoku.com>osanagi" }, "geometry": { "type": "Point", "coordinates": [ 140.402843299999972, 38.411682 ] } },
{ "type": "Feature", "properties": { "内容": "ほっとデイサ-ビスセンター水晶館【通所介護】東根市温泉町1-15-10", "url": "https://www.kaigokensaku.mhlw.go.jp/06/index.php?action_kouhyou_detail_004_kani=true&JigyosyoCd=0671700367-00&ServiceCd=150&Type=search", "url2": "hot.s@extra.ocn.ne.jp" }, "geometry": { "type": "Point", "coordinates": [ 140.39246270000001, 38.4566381 ] } },
{ "type": "Feature", "properties": { "内容": "老人デイサービスセンター長寿園【通所介護】尾花沢市新町三丁目2番21号", "url": "https://www.kaigokensaku.mhlw.go.jp/06/index.php?action_kouhyou_detail_004_kani=true&JigyosyoCd=0671800076-00&ServiceCd=150&Type=search", "url2": "http://www.tokurakai.jp/" }, "geometry": { "type": "Point", "coordinates": [ 140.41498439999998, 38.6046324 ] } },
{ "type": "Feature", "properties": { "内容": "尾花沢市社会福祉協議会通所介護事業所【通所介護】山形県尾花沢市新町３丁目２番５号", "url": "https://www.kaigokensaku.mhlw.go.jp/06/index.php?action_kouhyou_detail_004_kani=true&JigyosyoCd=0671800126-00&ServiceCd=150&Type=search", "url2": "http://www.obanazawa-syakyo.jp/index.html" }, "geometry": { "type": "Point", "coordinates": [ 140.412989898811361, 38.604056452189376 ] } },
{ "type": "Feature", "properties": { "内容": "デイサービスセンターよつば荘【通所介護】山形県尾花沢市大字荻袋１２８７番地20", "url": "https://www.kaigokensaku.mhlw.go.jp/06/index.php?action_kouhyou_detail_004_kani=true&JigyosyoCd=0671800282-00&ServiceCd=150&Type=search", "url2": "https://www.yotsubasou-kaigo.com/" }, "geometry": { "type": "Point", "coordinates": [ 140.381491007547311, 38.624532235018016 ] } },
{ "type": "Feature", "properties": { "内容": "通所介護事業所まごころの家【通所介護】山形県尾花沢市大字芦沢1216番地1", "url": "https://www.kaigokensaku.mhlw.go.jp/06/index.php?action_kouhyou_detail_004_kani=true&JigyosyoCd=0671800183-00&ServiceCd=150&Type=search", "url2": "http://www.tenpress.jp/~care-service/" }, "geometry": { "type": "Point", "coordinates": [ 140.362049100000036, 38.6569968 ] } },
{ "type": "Feature", "properties": { "内容": "南陽市社会福祉協議会　通所介護事業所【通所介護】山形県南陽市赤湯215番地の2", "url": "https://www.kaigokensaku.mhlw.go.jp/06/index.php?action_kouhyou_detail_004_kani=true&JigyosyoCd=0671900124-00&ServiceCd=150&Type=search", "url2": "http://www.nanyoshishakyo.or.jp" }, "geometry": { "type": "Point", "coordinates": [ 140.1663002, 38.0466121 ] } },
{ "type": "Feature", "properties": { "内容": "リハビリデイ　てのひら【通所介護】山形県南陽市宮内2833-38", "url": "https://www.kaigokensaku.mhlw.go.jp/06/index.php?action_kouhyou_detail_004_kani=true&JigyosyoCd=0671900595-00&ServiceCd=150&Type=search", "url2": "reha-tenohira.com" }, "geometry": { "type": "Point", "coordinates": [ 140.132685400000014, 38.0693178 ] } },
{ "type": "Feature", "properties": { "内容": "老人デイサービスセンター太陽の里ふたば【通所介護】山形県南陽市宮内２３８１番地", "url": "https://www.kaigokensaku.mhlw.go.jp/06/index.php?action_kouhyou_detail_004_kani=true&JigyosyoCd=0671900165-00&ServiceCd=150&Type=search", "url2": "http://futaba-nanyo.sakura.ne.jp/" }, "geometry": { "type": "Point", "coordinates": [ 140.145107899999971, 38.072678 ] } },
{ "type": "Feature", "properties": { "内容": "ケアステージARK赤湯駅西【通所介護】山形県南陽市島貫599番地4", "url": "https://www.kaigokensaku.mhlw.go.jp/06/index.php?action_kouhyou_detail_004_kani=true&JigyosyoCd=0671900264-00&ServiceCd=150&Type=search", "url2": "http://www.tokoshie.net" }, "geometry": { "type": "Point", "coordinates": [ 140.144452228913877, 38.047370414544851 ] } },
{ "type": "Feature", "properties": { "内容": "デイサービス　カインド・ホーム萩生田【通所介護】山形県南陽市萩生田1114-5", "url": "https://www.kaigokensaku.mhlw.go.jp/06/index.php?action_kouhyou_detail_004_kani=true&JigyosyoCd=0671900520-00&ServiceCd=150&Type=search", "url2": null }, "geometry": { "type": "Point", "coordinates": [ 140.142014199999949, 38.052987700000017 ] } },
{ "type": "Feature", "properties": { "内容": "指定通所介護事業所やまのべ荘【通所介護】山形県東村山郡山辺町大字大塚８１４番地２", "url": "https://www.kaigokensaku.mhlw.go.jp/06/index.php?action_kouhyou_detail_004_kani=true&JigyosyoCd=0672200037-00&ServiceCd=150&Type=search", "url2": "http://www.yamagata-saiseikai.org" }, "geometry": { "type": "Point", "coordinates": [ 140.27461310000001, 38.2788934 ] } },
{ "type": "Feature", "properties": { "内容": "ケアガーデンえびす邸【通所介護】山形県東村山郡中山町大字長崎４５４番地", "url": "https://www.kaigokensaku.mhlw.go.jp/06/index.php?action_kouhyou_detail_004_kani=true&JigyosyoCd=0672200482-00&ServiceCd=150&Type=search", "url2": "care-garden-ebite.jp" }, "geometry": { "type": "Point", "coordinates": [ 140.2817277, 38.3350497 ] } },
{ "type": "Feature", "properties": { "内容": "中山ひまわり荘指定通所介護事業所【通所介護】山形県東村山郡中山町大字柳沢2333番地", "url": "https://www.kaigokensaku.mhlw.go.jp/06/index.php?action_kouhyou_detail_004_kani=true&JigyosyoCd=0672200102-00&ServiceCd=150&Type=search", "url2": null }, "geometry": { "type": "Point", "coordinates": [ 140.259755700000028, 38.3292051 ] } },
{ "type": "Feature", "properties": { "内容": "ココロリビング河北【通所介護】西村山郡河北町谷地中央五丁目５－２６", "url": "https://www.kaigokensaku.mhlw.go.jp/06/index.php?action_kouhyou_detail_004_kani=true&JigyosyoCd=0672300654-00&ServiceCd=150&Type=search", "url2": "http://www.care-w.com/" }, "geometry": { "type": "Point", "coordinates": [ 140.307479300000068, 38.4183437 ] } },
{ "type": "Feature", "properties": { "内容": "デイサービスセンターひいな通所介護事業所【通所介護】山形県西村山郡河北町谷地字月山堂1217-5", "url": "https://www.kaigokensaku.mhlw.go.jp/06/index.php?action_kouhyou_detail_004_kani=true&JigyosyoCd=0672300480-00&ServiceCd=150&Type=search", "url2": "https://miyuki-fukushi.jp/" }, "geometry": { "type": "Point", "coordinates": [ 140.308585, 38.4126332 ] } },
{ "type": "Feature", "properties": { "内容": "い～かお　えがお【通所介護】山形県西村山郡河北町谷地中央三丁目16-12", "url": "https://www.kaigokensaku.mhlw.go.jp/06/index.php?action_kouhyou_detail_004_kani=true&JigyosyoCd=0672300779-00&ServiceCd=150&Type=search", "url2": null }, "geometry": { "type": "Point", "coordinates": [ 140.3126388, 38.4193051 ] } },
{ "type": "Feature", "properties": { "内容": "青空つどいの家【通所介護】山形県西村山郡河北町西里字白山堂737番地の1", "url": "https://www.kaigokensaku.mhlw.go.jp/06/index.php?action_kouhyou_detail_004_kani=true&JigyosyoCd=0672300761-00&ServiceCd=150&Type=search", "url2": "http://aozora-kaigo.com" }, "geometry": { "type": "Point", "coordinates": [ 140.287281850717903, 38.418438983406169 ] } },
{ "type": "Feature", "properties": { "内容": "ケアセンター縁【通所介護】山形県西村山郡河北町谷地字東566番地1", "url": "https://www.kaigokensaku.mhlw.go.jp/06/index.php?action_kouhyou_detail_004_kani=true&JigyosyoCd=0672300712-00&ServiceCd=150&Type=search", "url2": null }, "geometry": { "type": "Point", "coordinates": [ 140.317203927200381, 38.432917670032609 ] } },
{ "type": "Feature", "properties": { "内容": "デイサービスセンターケアハイツ西川【通所介護】山形県西村山郡西川町大字海味５４８", "url": "https://www.kaigokensaku.mhlw.go.jp/06/index.php?action_kouhyou_detail_004_kani=true&JigyosyoCd=0672300084-00&ServiceCd=150&Type=search", "url2": "https://care-h-n.or.jp/" }, "geometry": { "type": "Point", "coordinates": [ 140.146179486508117, 38.426995598501925 ] } },
{ "type": "Feature", "properties": { "内容": "ふれあい荘デイサービスセンター【通所介護】山形県西村山郡朝日町大字四ノ沢８７０番地", "url": "https://www.kaigokensaku.mhlw.go.jp/06/index.php?action_kouhyou_detail_004_kani=true&JigyosyoCd=0672300142-00&ServiceCd=150&Type=search", "url2": "www.fureaiso.or.jp/dayservice" }, "geometry": { "type": "Point", "coordinates": [ 140.1580358, 38.3062199 ] } },
{ "type": "Feature", "properties": { "内容": "老人デイサービス事業所らふらんす大江【通所介護】山形県西村山郡大江町大字左沢1277番地", "url": "https://www.kaigokensaku.mhlw.go.jp/06/index.php?action_kouhyou_detail_004_kani=true&JigyosyoCd=0672300316-00&ServiceCd=150&Type=search", "url2": "http://care-net.biz/06/lafrance-ooe/" }, "geometry": { "type": "Point", "coordinates": [ 140.200496, 38.3843888 ] } },
{ "type": "Feature", "properties": { "内容": "仁風荘デイサービスセンター【通所介護】山形県北村山郡大石田町大字大石田甲５７４番地", "url": "https://www.kaigokensaku.mhlw.go.jp/06/index.php?action_kouhyou_detail_004_kani=true&JigyosyoCd=0672400025-00&ServiceCd=150&Type=search", "url2": "https://keitenkai.or.jp" }, "geometry": { "type": "Point", "coordinates": [ 140.376113127539071, 38.599095774954542 ] } },
{ "type": "Feature", "properties": { "内容": "高齢者生活福祉センター「みすぎ荘」【通所介護】山形県最上郡金山町大字金山字荒屋829番地1", "url": "https://www.kaigokensaku.mhlw.go.jp/06/index.php?action_kouhyou_detail_004_kani=true&JigyosyoCd=0672500295-00&ServiceCd=150&Type=search", "url2": "https://www.kaneyamakouseikai.or.jp/" }, "geometry": { "type": "Point", "coordinates": [ 140.317889, 38.8777591 ] } },
{ "type": "Feature", "properties": { "内容": "通所介護事業所「グリーン」【通所介護】山形県最上郡最上町大字向町43番地の1", "url": "https://www.kaigokensaku.mhlw.go.jp/06/index.php?action_kouhyou_detail_004_kani=true&JigyosyoCd=0672500105-00&ServiceCd=150&Type=search", "url2": "http://www.mogami-shakyo.net" }, "geometry": { "type": "Point", "coordinates": [ 140.517259500000023, 38.7529816 ] } },
{ "type": "Feature", "properties": { "内容": "デイサービスセンターえんじゅ【通所介護】山形県最上郡舟形町長者原１７１２－１", "url": "https://www.kaigokensaku.mhlw.go.jp/06/index.php?action_kouhyou_detail_004_kani=true&JigyosyoCd=0672500204-00&ServiceCd=150&Type=search", "url2": null }, "geometry": { "type": "Point", "coordinates": [ 140.299249499999974, 38.7000731 ] } },
{ "type": "Feature", "properties": { "内容": "老人デイサービスセンター「ゆうゆう」【通所介護】山形県最上郡真室川町大字新町４６９番５", "url": "https://www.kaigokensaku.mhlw.go.jp/06/index.php?action_kouhyou_detail_004_kani=true&JigyosyoCd=0672500469-00&ServiceCd=150&Type=search", "url2": null }, "geometry": { "type": "Point", "coordinates": [ 140.24775332394259, 38.851461774100272 ] } },
{ "type": "Feature", "properties": { "内容": "指定通所介護事業所　デイサービスセンターすいめい【通所介護】山形県最上郡大蔵村大字清水3137番地60", "url": "https://www.kaigokensaku.mhlw.go.jp/06/index.php?action_kouhyou_detail_004_kani=true&JigyosyoCd=0672500071-00&ServiceCd=150&Type=search", "url2": "http://www.suimeisou.net" }, "geometry": { "type": "Point", "coordinates": [ 140.232496200000014, 38.694706 ] } },
{ "type": "Feature", "properties": { "内容": "デイサービスセンターひめゆり【通所介護】山形県最上郡鮭川村大字石名坂589番7", "url": "https://www.kaigokensaku.mhlw.go.jp/06/index.php?action_kouhyou_detail_004_kani=true&JigyosyoCd=0672500147-00&ServiceCd=150&Type=search", "url2": null }, "geometry": { "type": "Point", "coordinates": [ 140.287418300000013, 38.835377 ] } },
{ "type": "Feature", "properties": { "内容": "デイサービスセンターあさぎり【通所介護】山形県最上郡戸沢村大字蔵岡２７５９番地", "url": "https://www.kaigokensaku.mhlw.go.jp/06/index.php?action_kouhyou_detail_004_kani=true&JigyosyoCd=0672500170-00&ServiceCd=150&Type=search", "url2": "http://www.seiryu-magokoro.or.jp/" }, "geometry": { "type": "Point", "coordinates": [ 140.174271316979912, 38.734990676519139 ] } },
{ "type": "Feature", "properties": { "内容": "デイサービス歩夢【通所介護】山形県東置賜郡高畠町大字高畠173-2", "url": "https://www.kaigokensaku.mhlw.go.jp/06/index.php?action_kouhyou_detail_004_kani=true&JigyosyoCd=0672600509-00&ServiceCd=150&Type=search", "url2": "ｈｔｔｐ：//ｆ-ｈ-ｔ.ｊｐ/" }, "geometry": { "type": "Point", "coordinates": [ 140.19308620000001, 37.9981076 ] } },
{ "type": "Feature", "properties": { "内容": "デイサービスたちばな【通所介護】山形県東置賜郡高畠町大字山崎２９０－５番地", "url": "https://www.kaigokensaku.mhlw.go.jp/06/index.php?action_kouhyou_detail_004_kani=true&JigyosyoCd=0672600426-00&ServiceCd=150&Type=search", "url2": "https://www.office-yamagata.co.jp/" }, "geometry": { "type": "Point", "coordinates": [ 140.153121, 37.9921585 ] } },
{ "type": "Feature", "properties": { "内容": "デイサービス糠ノ目【通所介護】高畠町大字福沢５６３番地の１０", "url": "https://www.kaigokensaku.mhlw.go.jp/06/index.php?action_kouhyou_detail_004_kani=true&JigyosyoCd=0672600442-00&ServiceCd=150&Type=search", "url2": "https://www.office-yamagata.co.jp/" }, "geometry": { "type": "Point", "coordinates": [ 140.144076155819704, 37.995925137804633 ] } },
{ "type": "Feature", "properties": { "内容": "はとみね荘デイサービスセンター【通所介護】山形県高畠町大字高畠303番地", "url": "https://www.kaigokensaku.mhlw.go.jp/06/index.php?action_kouhyou_detail_004_kani=true&JigyosyoCd=0672600087-00&ServiceCd=150&Type=search", "url2": "http://www.shoufukai.net/" }, "geometry": { "type": "Point", "coordinates": [ 140.190421199999946, 38.0002755 ] } },
{ "type": "Feature", "properties": { "内容": "天然温泉竹とんぼ彩時季【通所介護】山形県東置賜郡高畠町入生田2068-1", "url": "https://www.kaigokensaku.mhlw.go.jp/06/index.php?action_kouhyou_detail_004_kani=true&JigyosyoCd=0672600327-00&ServiceCd=150&Type=search", "url2": "http://www.cessna.co.jp/taketonbo" }, "geometry": { "type": "Point", "coordinates": [ 140.154732400000057, 37.9794985 ] } },
{ "type": "Feature", "properties": { "内容": "デイフィットネス　が.あ.べ.ら【通所介護】山形県東置賜郡高畠町大字福沢289番地1", "url": "https://www.kaigokensaku.mhlw.go.jp/06/index.php?action_kouhyou_detail_004_kani=true&JigyosyoCd=0672600467-00&ServiceCd=150&Type=search", "url2": null }, "geometry": { "type": "Point", "coordinates": [ 140.147663200000011, 37.9883614 ] } },
{ "type": "Feature", "properties": { "内容": "デイサービスすみれの花【通所介護】山形県東置賜郡高畠町大字佐沢2733番地3", "url": "https://www.kaigokensaku.mhlw.go.jp/06/index.php?action_kouhyou_detail_004_kani=true&JigyosyoCd=0672600525-00&ServiceCd=150&Type=search", "url2": null }, "geometry": { "type": "Point", "coordinates": [ 140.1784937, 37.9453046 ] } },
{ "type": "Feature", "properties": { "内容": "デイサービスセンター薬師温泉【通所介護】山形県東置賜郡川西町西大塚１３５４－１３介護センター薬師温泉", "url": "https://www.kaigokensaku.mhlw.go.jp/06/index.php?action_kouhyou_detail_004_kani=true&JigyosyoCd=0672600301-00&ServiceCd=150&Type=search", "url2": "http://yakushi-onsen.com" }, "geometry": { "type": "Point", "coordinates": [ 140.056066900000019, 38.0489977 ] } },
{ "type": "Feature", "properties": { "内容": "けんしんリハビリデイサービス【通所介護】山形県東置賜郡川西町大字西大塚1374番1号ビューライト西大塚　A号室", "url": "https://www.kaigokensaku.mhlw.go.jp/06/index.php?action_kouhyou_detail_004_kani=true&JigyosyoCd=0672600434-00&ServiceCd=150&Type=search", "url2": null }, "geometry": { "type": "Point", "coordinates": [ 140.057450099999983, 38.0490616 ] } },
{ "type": "Feature", "properties": { "内容": "さいわい荘デイサービスセンター通所介護事業所【通所介護】山形県西置賜郡小国町大字岩井沢563番地1", "url": "https://www.kaigokensaku.mhlw.go.jp/06/index.php?action_kouhyou_detail_004_kani=true&JigyosyoCd=0672700200-00&ServiceCd=150&Type=search", "url2": "https://saiwaiso.jp/" }, "geometry": { "type": "Point", "coordinates": [ 139.7536692, 38.0582974 ] } },
{ "type": "Feature", "properties": { "内容": "白鷹介護サービスセンターふれあいの里【通所介護】山形県西置賜郡白鷹町大字畔藤５０４９", "url": "https://www.kaigokensaku.mhlw.go.jp/06/index.php?action_kouhyou_detail_004_kani=true&JigyosyoCd=0672700432-00&ServiceCd=150&Type=search", "url2": "https://www.office-yamagata.co.jp/" }, "geometry": { "type": "Point", "coordinates": [ 140.085420099999965, 38.1645659 ] } },
{ "type": "Feature", "properties": { "内容": "白光園デイサービスセンター【通所介護】山形県西置賜郡白鷹町大字荒砥甲377番地", "url": "https://www.kaigokensaku.mhlw.go.jp/06/index.php?action_kouhyou_detail_004_kani=true&JigyosyoCd=0672700135-00&ServiceCd=150&Type=search", "url2": "http://www.shirafuku.jp/" }, "geometry": { "type": "Point", "coordinates": [ 140.093327, 38.1829865 ] } },
{ "type": "Feature", "properties": { "内容": "日帰り介護センター福祉の里めざみ【通所介護】山形県西置賜郡飯豊町大字椿3642", "url": "https://www.kaigokensaku.mhlw.go.jp/06/index.php?action_kouhyou_detail_004_kani=true&JigyosyoCd=0672700499-00&ServiceCd=150&Type=search", "url2": "http://iide-shakyo.jp/" }, "geometry": { "type": "Point", "coordinates": [ 139.9951269, 38.044444 ] } },
{ "type": "Feature", "properties": { "内容": "指定通所介護施設デイサービスセンターなの花荘【通所介護】山形県東田川郡三川町大字横山字堤189番地2", "url": "https://www.kaigokensaku.mhlw.go.jp/06/index.php?action_kouhyou_detail_004_kani=true&JigyosyoCd=0673000279-00&ServiceCd=150&Type=search", "url2": "https://www.nanohanaso.or.jp" }, "geometry": { "type": "Point", "coordinates": [ 139.8493075, 38.7817436 ] } },
{ "type": "Feature", "properties": { "内容": "ソラーナデイサービスセンター【通所介護】山形県東田川郡庄内町南野字北野１００番地２号", "url": "https://www.kaigokensaku.mhlw.go.jp/06/index.php?action_kouhyou_detail_004_kani=true&JigyosyoCd=0673000188-00&ServiceCd=150&Type=search", "url2": "http://www.minori-f.or.jp" }, "geometry": { "type": "Point", "coordinates": [ 139.9420983, 38.8160276 ] } },
{ "type": "Feature", "properties": { "内容": "山水園指定通所介護事業所【通所介護】山形県東田川郡庄内町狩川字笠山４３３番地３", "url": "https://www.kaigokensaku.mhlw.go.jp/06/index.php?action_kouhyou_detail_004_kani=true&JigyosyoCd=0673000162-00&ServiceCd=150&Type=search", "url2": "https://www.tk-kouseikai.or.jp/" }, "geometry": { "type": "Point", "coordinates": [ 139.9681306, 38.7823987 ] } },
{ "type": "Feature", "properties": { "内容": "デイサービスセンターあいあい【通所介護】山形県飽海郡遊佐町遊佐字木ノ下2", "url": "https://www.kaigokensaku.mhlw.go.jp/06/index.php?action_kouhyou_detail_004_kani=true&JigyosyoCd=0673200184-00&ServiceCd=150&Type=search", "url2": "https://www.yuzakouseikai.or.jp/yusui/" }, "geometry": { "type": "Point", "coordinates": [ 139.919036900000037, 39.0112776 ] } },
{ "type": "Feature", "properties": { "内容": "デイサービスセンターキャット遊佐【通所介護】山形県飽海郡遊佐町菅里字十里塚193番32", "url": "https://www.kaigokensaku.mhlw.go.jp/06/index.php?action_kouhyou_detail_004_kani=true&JigyosyoCd=0673200499-00&ServiceCd=150&Type=search", "url2": "http://catsgp.com" }, "geometry": { "type": "Point", "coordinates": [ 139.8709103, 39.0487363 ] } }
]
}
