{
"type": "FeatureCollection",
"name": "geo_06_高校",
"crs": { "type": "name", "properties": { "name": "urn:ogc:def:crs:EPSG::6668" } },
"features": [
{ "type": "Feature", "properties": { "P29_001": "06201", "P29_002": "D106220150016", "P29_003": "16004", "P29_004": "山形市立商業高等学校", "P29_005": "山形県山形市あかねヶ丘1-9-1", "P29_006": "3", "P29_007": "0", "P29_008": "00", "P29_009": null }, "geometry": { "type": "Point", "coordinates": [ 140.31067098332943, 38.248899745861728 ] } },
{ "type": "Feature", "properties": { "P29_001": "06201", "P29_002": "D106220150025", "P29_003": "16004", "P29_004": "山形県立山形東高等学校", "P29_005": "山形県山形市緑町1-5-87", "P29_006": "2", "P29_007": "0", "P29_008": "00", "P29_009": null }, "geometry": { "type": "Point", "coordinates": [ 140.345388640051027, 38.257747688922919 ] } },
{ "type": "Feature", "properties": { "P29_001": "06201", "P29_002": "D106220150034", "P29_003": "16004", "P29_004": "山形県立山形南高等学校", "P29_005": "山形県山形市東原町4-6-16", "P29_006": "2", "P29_007": "0", "P29_008": "00", "P29_009": null }, "geometry": { "type": "Point", "coordinates": [ 140.346299353556333, 38.24182508575641 ] } },
{ "type": "Feature", "properties": { "P29_001": "06201", "P29_002": "D106220150043", "P29_003": "16004", "P29_004": "山形県立山形西高等学校", "P29_005": "山形県山形市鉄砲町1-15-64", "P29_006": "2", "P29_007": "0", "P29_008": "00", "P29_009": null }, "geometry": { "type": "Point", "coordinates": [ 140.327991128647909, 38.237650064674824 ] } },
{ "type": "Feature", "properties": { "P29_001": "06201", "P29_002": "D106220150052", "P29_003": "16004", "P29_004": "山形県立山形北高等学校", "P29_005": "山形県山形市緑町2-2-7", "P29_006": "2", "P29_007": "0", "P29_008": "00", "P29_009": null }, "geometry": { "type": "Point", "coordinates": [ 140.348803515093607, 38.25410661143048 ] } },
{ "type": "Feature", "properties": { "P29_001": "06201", "P29_002": "D106220150061", "P29_003": "16004", "P29_004": "山形県立山形工業高等学校", "P29_005": "山形県山形市緑町1-5-12", "P29_006": "2", "P29_007": "0", "P29_008": "00", "P29_009": null }, "geometry": { "type": "Point", "coordinates": [ 140.346538531938506, 38.259154836211188 ] } },
{ "type": "Feature", "properties": { "P29_001": "06201", "P29_002": "D106220150070", "P29_003": "16004", "P29_004": "山形県立山形中央高等学校", "P29_005": "山形県山形市鉄砲町2-10-73", "P29_006": "2", "P29_007": "0", "P29_008": "00", "P29_009": null }, "geometry": { "type": "Point", "coordinates": [ 140.334358377733366, 38.237442053033647 ] } },
{ "type": "Feature", "properties": { "P29_001": "06201", "P29_002": "D106220150089", "P29_003": "16004", "P29_004": "山形県立霞城学園高等学校", "P29_005": "山形県山形市城南町1-1-1", "P29_006": "2", "P29_007": "0", "P29_008": "00", "P29_009": null }, "geometry": { "type": "Point", "coordinates": [ 140.326921248188228, 38.249705058423395 ] } },
{ "type": "Feature", "properties": { "P29_001": "06202", "P29_002": "D106220250015", "P29_003": "16004", "P29_004": "山形県立米沢興譲館高等学校", "P29_005": "山形県米沢市大字笹野1101", "P29_006": "2", "P29_007": "0", "P29_008": "00", "P29_009": null }, "geometry": { "type": "Point", "coordinates": [ 140.108383619347251, 37.885444212186215 ] } },
{ "type": "Feature", "properties": { "P29_001": "06202", "P29_002": "D106220250024", "P29_003": "16004", "P29_004": "山形県立米沢東高等学校", "P29_005": "山形県米沢市丸の内2-5-63", "P29_006": "2", "P29_007": "0", "P29_008": "00", "P29_009": null }, "geometry": { "type": "Point", "coordinates": [ 140.105180929977109, 37.912597275246867 ] } },
{ "type": "Feature", "properties": { "P29_001": "06202", "P29_002": "D106220250033", "P29_003": "16004", "P29_004": "山形県立米沢工業高等学校", "P29_005": "山形県米沢市大字川井300", "P29_006": "2", "P29_007": "0", "P29_008": "00", "P29_009": null }, "geometry": { "type": "Point", "coordinates": [ 140.144659356112896, 37.917401859291871 ] } },
{ "type": "Feature", "properties": { "P29_001": "06202", "P29_002": "D106220250042", "P29_003": "16004", "P29_004": "山形県立米沢商業高等学校", "P29_005": "山形県米沢市本町3-1-12", "P29_006": "2", "P29_007": "0", "P29_008": "00", "P29_009": null }, "geometry": { "type": "Point", "coordinates": [ 140.113244602509099, 37.902079991526307 ] } },
{ "type": "Feature", "properties": { "P29_001": "06203", "P29_002": "D106220350014", "P29_003": "16004", "P29_004": "山形県立鶴岡南高等学校", "P29_005": "山形県鶴岡市若葉町26-31", "P29_006": "2", "P29_007": "0", "P29_008": "00", "P29_009": null }, "geometry": { "type": "Point", "coordinates": [ 139.823946711906814, 38.730645632491353 ] } },
{ "type": "Feature", "properties": { "P29_001": "06203", "P29_002": "D106220350032", "P29_003": "16004", "P29_004": "山形県立鶴岡北高等学校", "P29_005": "山形県鶴岡市若葉町16-5", "P29_006": "2", "P29_007": "0", "P29_008": "00", "P29_009": null }, "geometry": { "type": "Point", "coordinates": [ 139.827109955133039, 38.732681577573267 ] } },
{ "type": "Feature", "properties": { "P29_001": "06203", "P29_002": "D106220350041", "P29_003": "16004", "P29_004": "山形県立鶴岡工業高等学校", "P29_005": "山形県鶴岡市家中新町8-1", "P29_006": "2", "P29_007": "0", "P29_008": "00", "P29_009": null }, "geometry": { "type": "Point", "coordinates": [ 139.821458549184229, 38.730137211373041 ] } },
{ "type": "Feature", "properties": { "P29_001": "06203", "P29_002": "D106220350050", "P29_003": "16004", "P29_004": "山形県立加茂水産高等学校", "P29_005": "山形県鶴岡市加茂字大崩595", "P29_006": "2", "P29_007": "0", "P29_008": "00", "P29_009": null }, "geometry": { "type": "Point", "coordinates": [ 139.729590292465474, 38.762665686992619 ] } },
{ "type": "Feature", "properties": { "P29_001": "06203", "P29_002": "D106220350069", "P29_003": "16004", "P29_004": "山形県立庄内農業高等学校", "P29_005": "山形県鶴岡市藤島字古楯跡221", "P29_006": "2", "P29_007": "0", "P29_008": "00", "P29_009": null }, "geometry": { "type": "Point", "coordinates": [ 139.900344212879759, 38.769145237344489 ] } },
{ "type": "Feature", "properties": { "P29_001": "06203", "P29_002": "D106220350078", "P29_003": "16004", "P29_004": "山形県立鶴岡中央高等学校", "P29_005": "山形県鶴岡市大宝寺字日本国410", "P29_006": "2", "P29_007": "0", "P29_008": "00", "P29_009": null }, "geometry": { "type": "Point", "coordinates": [ 139.826159802004895, 38.745023817814129 ] } },
{ "type": "Feature", "properties": { "P29_001": "06204", "P29_002": "D106220450013", "P29_003": "16004", "P29_004": "山形県立酒田東高等学校", "P29_005": "山形県酒田市亀ヶ崎1-3-60", "P29_006": "2", "P29_007": "0", "P29_008": "00", "P29_009": null }, "geometry": { "type": "Point", "coordinates": [ 139.841724729905621, 38.909456343694004 ] } },
{ "type": "Feature", "properties": { "P29_001": "06204", "P29_002": "D106220450022", "P29_003": "16004", "P29_004": "山形県立酒田西高等学校", "P29_005": "山形県酒田市東泉町5-9-5", "P29_006": "2", "P29_007": "0", "P29_008": "01", "P29_009": null }, "geometry": { "type": "Point", "coordinates": [ 139.851727784008233, 38.933195168155741 ] } },
{ "type": "Feature", "properties": { "P29_001": "06204", "P29_002": "D106220450031", "P29_003": "16004", "P29_004": "山形県立酒田光陵高等学校", "P29_005": "山形県酒田市北千日堂前字松境7-3", "P29_006": "2", "P29_007": "0", "P29_008": "00", "P29_009": null }, "geometry": { "type": "Point", "coordinates": [ 139.834511670166108, 38.93279320538916 ] } },
{ "type": "Feature", "properties": { "P29_001": "06205", "P29_002": "D106220550012", "P29_003": "16004", "P29_004": "山形県立新庄北高等学校", "P29_005": "山形県新庄市大字飛田字備前川61", "P29_006": "2", "P29_007": "0", "P29_008": "00", "P29_009": null }, "geometry": { "type": "Point", "coordinates": [ 140.284901311309795, 38.764622704176865 ] } },
{ "type": "Feature", "properties": { "P29_001": "06205", "P29_002": "D106220550021", "P29_003": "16004", "P29_004": "山形県立新庄南高等学校", "P29_005": "山形県新庄市城南町5-5", "P29_006": "2", "P29_007": "0", "P29_008": "00", "P29_009": null }, "geometry": { "type": "Point", "coordinates": [ 140.293727925330131, 38.764478221757599 ] } },
{ "type": "Feature", "properties": { "P29_001": "06205", "P29_002": "D106220550030", "P29_003": "16004", "P29_004": "山形県立新庄神室産業高等学校", "P29_005": "山形県新庄市松本370", "P29_006": "2", "P29_007": "0", "P29_008": "00", "P29_009": null }, "geometry": { "type": "Point", "coordinates": [ 140.300564709454704, 38.747985977710485 ] } },
{ "type": "Feature", "properties": { "P29_001": "06206", "P29_002": "D106220650011", "P29_003": "16004", "P29_004": "山形県立寒河江高等学校", "P29_005": "山形県寒河江市六供町2-3-9", "P29_006": "2", "P29_007": "0", "P29_008": "00", "P29_009": null }, "geometry": { "type": "Point", "coordinates": [ 140.269840889968719, 38.38070208973059 ] } },
{ "type": "Feature", "properties": { "P29_001": "06206", "P29_002": "D106220650020", "P29_003": "16004", "P29_004": "山形県立寒河江工業高等学校", "P29_005": "山形県寒河江市緑町148", "P29_006": "2", "P29_007": "0", "P29_008": "00", "P29_009": null }, "geometry": { "type": "Point", "coordinates": [ 140.258142069311333, 38.385100968462446 ] } },
{ "type": "Feature", "properties": { "P29_001": "06207", "P29_002": "D106220750010", "P29_003": "16004", "P29_004": "山形県立上山明新館高等学校", "P29_005": "山形県上山市仙石650", "P29_006": "2", "P29_007": "0", "P29_008": "00", "P29_009": null }, "geometry": { "type": "Point", "coordinates": [ 140.288726371078326, 38.155111372856233 ] } },
{ "type": "Feature", "properties": { "P29_001": "06208", "P29_002": "D106220850019", "P29_003": "16004", "P29_004": "山形県立村山産業高等学校", "P29_005": "山形県村山市楯岡北町1-3-1", "P29_006": "2", "P29_007": "0", "P29_008": "00", "P29_009": null }, "geometry": { "type": "Point", "coordinates": [ 140.392703168919837, 38.498894974567925 ] } },
{ "type": "Feature", "properties": { "P29_001": "06209", "P29_002": "D106220950018", "P29_003": "16004", "P29_004": "山形県立長井高等学校", "P29_005": "山形県長井市四ツ谷2-5-1", "P29_006": "2", "P29_007": "0", "P29_008": "00", "P29_009": null }, "geometry": { "type": "Point", "coordinates": [ 140.037843434427799, 38.097184475946278 ] } },
{ "type": "Feature", "properties": { "P29_001": "06209", "P29_002": "D106220950027", "P29_003": "16004", "P29_004": "山形県立長井工業高等学校", "P29_005": "山形県長井市幸町9-17", "P29_006": "2", "P29_007": "0", "P29_008": "00", "P29_009": null }, "geometry": { "type": "Point", "coordinates": [ 140.030091179402632, 38.114793447239045 ] } },
{ "type": "Feature", "properties": { "P29_001": "06210", "P29_002": "D106221050015", "P29_003": "16004", "P29_004": "山形県立天童高等学校", "P29_005": "山形県天童市大字山元850", "P29_006": "2", "P29_007": "0", "P29_008": "00", "P29_009": null }, "geometry": { "type": "Point", "coordinates": [ 140.387366205248298, 38.371716525204612 ] } },
{ "type": "Feature", "properties": { "P29_001": "06211", "P29_002": "D106221150014", "P29_003": "16004", "P29_004": "山形県立東桜学館高等学校", "P29_005": "山形県東根市中央南1-7-1", "P29_006": "2", "P29_007": "0", "P29_008": "00", "P29_009": null }, "geometry": { "type": "Point", "coordinates": [ 140.389969993826611, 38.42961599727375 ] } },
{ "type": "Feature", "properties": { "P29_001": "06212", "P29_002": "D106221250013", "P29_003": "16004", "P29_004": "山形県立北村山高等学校", "P29_005": "山形県尾花沢市大字尾花沢1593", "P29_006": "2", "P29_007": "0", "P29_008": "00", "P29_009": null }, "geometry": { "type": "Point", "coordinates": [ 140.390994789958114, 38.596779006231237 ] } },
{ "type": "Feature", "properties": { "P29_001": "06213", "P29_002": "D106221350012", "P29_003": "16004", "P29_004": "山形県立南陽高等学校", "P29_005": "山形県南陽市宮内4600", "P29_006": "2", "P29_007": "0", "P29_008": "00", "P29_009": null }, "geometry": { "type": "Point", "coordinates": [ 140.136135674849783, 38.06744350005178 ] } },
{ "type": "Feature", "properties": { "P29_001": "06301", "P29_002": "D106230150015", "P29_003": "16004", "P29_004": "山形県立山辺高等学校", "P29_005": "山形県東村山郡山辺町大字山辺3028", "P29_006": "2", "P29_007": "0", "P29_008": "00", "P29_009": null }, "geometry": { "type": "Point", "coordinates": [ 140.270151048359367, 38.288846466905952 ] } },
{ "type": "Feature", "properties": { "P29_001": "06321", "P29_002": "D106232150011", "P29_003": "16004", "P29_004": "山形県立谷地高等学校", "P29_005": "山形県西村山郡河北町谷地字田中170", "P29_006": "2", "P29_007": "0", "P29_008": "00", "P29_009": null }, "geometry": { "type": "Point", "coordinates": [ 140.309708668546364, 38.422653202700367 ] } },
{ "type": "Feature", "properties": { "P29_001": "06324", "P29_002": "D106232450018", "P29_003": "16004", "P29_004": "山形県立左沢高等学校", "P29_005": "山形県西村山郡大江町大字藤田字山中816-3", "P29_006": "2", "P29_007": "0", "P29_008": "00", "P29_009": null }, "geometry": { "type": "Point", "coordinates": [ 140.208677839663551, 38.365514308377939 ] } },
{ "type": "Feature", "properties": { "P29_001": "06361", "P29_002": "D106236150012", "P29_003": "16004", "P29_004": "山形県立新庄南高等学校金山校", "P29_005": "山形県最上郡金山町大字金山248-2", "P29_006": "2", "P29_007": "0", "P29_008": "00", "P29_009": null }, "geometry": { "type": "Point", "coordinates": [ 140.33629489362022, 38.876006343412868 ] } },
{ "type": "Feature", "properties": { "P29_001": "06362", "P29_002": "D106236250011", "P29_003": "16004", "P29_004": "山形県立新庄北高等学校最上校", "P29_005": "山形県最上郡最上町大字向町字水上869-2", "P29_006": "2", "P29_007": "0", "P29_008": "00", "P29_009": null }, "geometry": { "type": "Point", "coordinates": [ 140.528617590853145, 38.76242957564402 ] } },
{ "type": "Feature", "properties": { "P29_001": "06364", "P29_002": "D106236450019", "P29_003": "16004", "P29_004": "山形県立新庄神室産業高等学校真室川校", "P29_005": "山形県最上郡真室川町大字新町字塩野947", "P29_006": "2", "P29_007": "0", "P29_008": "00", "P29_009": null }, "geometry": { "type": "Point", "coordinates": [ 140.266965794358583, 38.854123961753778 ] } },
{ "type": "Feature", "properties": { "P29_001": "06381", "P29_002": "D106238150018", "P29_003": "16004", "P29_004": "山形県立高畠高等学校", "P29_005": "山形県東置賜郡高畠町大字一本柳2788", "P29_006": "2", "P29_007": "0", "P29_008": "00", "P29_009": null }, "geometry": { "type": "Point", "coordinates": [ 140.157139858289099, 37.994419377042981 ] } },
{ "type": "Feature", "properties": { "P29_001": "06382", "P29_002": "D106238250017", "P29_003": "16004", "P29_004": "山形県立置賜農業高等学校", "P29_005": "山形県東置賜郡川西町上小松3723", "P29_006": "2", "P29_007": "0", "P29_008": "00", "P29_009": null }, "geometry": { "type": "Point", "coordinates": [ 140.036294727235372, 38.008067710433522 ] } },
{ "type": "Feature", "properties": { "P29_001": "06401", "P29_002": "D106240150014", "P29_003": "16004", "P29_004": "山形県立小国高等学校", "P29_005": "山形県西置賜郡小国町大字岩井沢621", "P29_006": "2", "P29_007": "0", "P29_008": "00", "P29_009": null }, "geometry": { "type": "Point", "coordinates": [ 139.751294883182425, 38.056645379943191 ] } },
{ "type": "Feature", "properties": { "P29_001": "06402", "P29_002": "D106240250013", "P29_003": "16004", "P29_004": "山形県立荒砥高等学校", "P29_005": "山形県西置賜郡白鷹町荒砥甲367", "P29_006": "2", "P29_007": "0", "P29_008": "00", "P29_009": null }, "geometry": { "type": "Point", "coordinates": [ 140.095867584409945, 38.182065792689812 ] } },
{ "type": "Feature", "properties": { "P29_001": "06428", "P29_002": "D106242850013", "P29_003": "16004", "P29_004": "山形県立庄内総合高等学校", "P29_005": "山形県東田川郡庄内町廿六木三ツ車8", "P29_006": "2", "P29_007": "0", "P29_008": "00", "P29_009": null }, "geometry": { "type": "Point", "coordinates": [ 139.910377925760628, 38.855257110643038 ] } },
{ "type": "Feature", "properties": { "P29_001": "06461", "P29_002": "D106246150011", "P29_003": "16004", "P29_004": "山形県立遊佐高等学校", "P29_005": "山形県飽海郡遊佐町遊佐字堅田21-1", "P29_006": "2", "P29_007": "0", "P29_008": "00", "P29_009": null }, "geometry": { "type": "Point", "coordinates": [ 139.916692985199035, 39.012546867472871 ] } },
{ "type": "Feature", "properties": { "P29_001": "06201", "P29_002": "D106320151013", "P29_003": "16004", "P29_004": "東北文教大学山形城北高等学校", "P29_005": "山形県山形市肴町1-13", "P29_006": "4", "P29_007": "0", "P29_008": "00", "P29_009": null }, "geometry": { "type": "Point", "coordinates": [ 140.33203473693132, 38.260785103950724 ] } },
{ "type": "Feature", "properties": { "P29_001": "06201", "P29_002": "D106320151022", "P29_003": "16004", "P29_004": "山形学院高等学校", "P29_005": "山形県山形市香澄町3-10-8", "P29_006": "4", "P29_007": "0", "P29_008": "00", "P29_009": null }, "geometry": { "type": "Point", "coordinates": [ 140.331223042131342, 38.244864681380662 ] } },
{ "type": "Feature", "properties": { "P29_001": "06201", "P29_002": "D106320151031", "P29_003": "16004", "P29_004": "日本大学山形高等学校", "P29_005": "山形県山形市鳥居ヶ丘4-55", "P29_006": "4", "P29_007": "0", "P29_008": "00", "P29_009": null }, "geometry": { "type": "Point", "coordinates": [ 140.333415396512237, 38.230616128490219 ] } },
{ "type": "Feature", "properties": { "P29_001": "06201", "P29_002": "D106320151040", "P29_003": "16004", "P29_004": "山形明正高等学校", "P29_005": "山形県山形市飯田1-1-8", "P29_006": "4", "P29_007": "0", "P29_008": "00", "P29_009": null }, "geometry": { "type": "Point", "coordinates": [ 140.325616808619543, 38.21743704797808 ] } },
{ "type": "Feature", "properties": { "P29_001": "06201", "P29_002": "D106320151059", "P29_003": "16004", "P29_004": "惺山高等学校", "P29_005": "山形県山形市城西町3-13-7", "P29_006": "4", "P29_007": "0", "P29_008": "00", "P29_009": null }, "geometry": { "type": "Point", "coordinates": [ 140.317059930386705, 38.257028809079024 ] } },
{ "type": "Feature", "properties": { "P29_001": "06201", "P29_002": "D106320151068", "P29_003": "16004", "P29_004": "東海大学山形高等学校", "P29_005": "山形県山形市成沢西3-4-5", "P29_006": "4", "P29_007": "0", "P29_008": "00", "P29_009": null }, "geometry": { "type": "Point", "coordinates": [ 140.312960414878944, 38.207364034102113 ] } },
{ "type": "Feature", "properties": { "P29_001": "06202", "P29_002": "D106320251012", "P29_003": "16004", "P29_004": "九里学園高等学校", "P29_005": "山形県米沢市門東町1-1-72", "P29_006": "4", "P29_007": "0", "P29_008": "00", "P29_009": null }, "geometry": { "type": "Point", "coordinates": [ 140.11021751485913, 37.907299152008918 ] } },
{ "type": "Feature", "properties": { "P29_001": "06202", "P29_002": "D106320251021", "P29_003": "16004", "P29_004": "米沢中央高等学校", "P29_005": "山形県米沢市中央7-5-70-4", "P29_006": "4", "P29_007": "0", "P29_008": "00", "P29_009": null }, "geometry": { "type": "Point", "coordinates": [ 140.105543137776152, 37.922377945755052 ] } },
{ "type": "Feature", "properties": { "P29_001": "06203", "P29_002": "D106320351011", "P29_003": "16004", "P29_004": "羽黒高等学校", "P29_005": "山形県鶴岡市羽黒町手向字薬師沢198", "P29_006": "4", "P29_007": "0", "P29_008": "00", "P29_009": null }, "geometry": { "type": "Point", "coordinates": [ 139.937320194362258, 38.720634698306704 ] } },
{ "type": "Feature", "properties": { "P29_001": "06203", "P29_002": "D106320351020", "P29_003": "16004", "P29_004": "鶴岡東高等学校", "P29_005": "山形県鶴岡市切添町22-30", "P29_006": "4", "P29_007": "0", "P29_008": "00", "P29_009": null }, "geometry": { "type": "Point", "coordinates": [ 139.84130550877606, 38.730176783141538 ] } },
{ "type": "Feature", "properties": { "P29_001": "06204", "P29_002": "D106320451010", "P29_003": "16004", "P29_004": "和順館高等学校", "P29_005": "山形県酒田市南千日町4-50", "P29_006": "4", "P29_007": "0", "P29_008": "00", "P29_009": null }, "geometry": { "type": "Point", "coordinates": [ 139.839169034139871, 38.925887237427048 ] } },
{ "type": "Feature", "properties": { "P29_001": "06204", "P29_002": "D106320451029", "P29_003": "16004", "P29_004": "酒田南高等学校", "P29_005": "山形県酒田市浜田1-3-47", "P29_006": "4", "P29_007": "0", "P29_008": "00", "P29_009": null }, "geometry": { "type": "Point", "coordinates": [ 139.848366975440882, 38.918226989126453 ] } },
{ "type": "Feature", "properties": { "P29_001": "06205", "P29_002": "D106320551019", "P29_003": "16004", "P29_004": "新庄東高等学校", "P29_005": "山形県新庄市松本596", "P29_006": "4", "P29_007": "0", "P29_008": "00", "P29_009": null }, "geometry": { "type": "Point", "coordinates": [ 140.291815592154705, 38.74424384279061 ] } },
{ "type": "Feature", "properties": { "P29_001": "06210", "P29_002": "D106321051012", "P29_003": "16004", "P29_004": "創学館高等学校", "P29_005": "山形県天童市清池東2-10-1", "P29_006": "4", "P29_007": "0", "P29_008": "00", "P29_009": null }, "geometry": { "type": "Point", "coordinates": [ 140.359464725939944, 38.32136707052998 ] } },
{ "type": "Feature", "properties": { "P29_001": "06401", "P29_002": "D106340151011", "P29_003": "16004", "P29_004": "基督教独立学園高等学校", "P29_005": "山形県西置賜郡小国町叶水826", "P29_006": "4", "P29_007": "0", "P29_008": "00", "P29_009": null }, "geometry": { "type": "Point", "coordinates": [ 139.803111189728128, 37.994175320933145 ] } },
{ "type": "Feature", "properties": { "P29_001": "06204", "P29_002": "D106220450022", "P29_003": "16004", "P29_004": "山形県立酒田西高等学校", "P29_005": "山形県酒田市北新町1-1-57", "P29_006": "2", "P29_007": "0", "P29_008": "02", "P29_009": "定時制" }, "geometry": { "type": "Point", "coordinates": [ 139.833071239800688, 38.923205985500694 ] } }
]
}
