{
"type": "FeatureCollection",
"name": "geo_06_地域密着型通所介護",
"crs": { "type": "name", "properties": { "name": "urn:ogc:def:crs:OGC:1.3:CRS84" } },
"features": [
{ "type": "Feature", "properties": { "内容": "オレアもとき【地域密着型通所介護】山形県山形市元木二丁目9-39", "url2": "https://www.kaigokensaku.mhlw.go.jp/06/index.php?action_kouhyou_detail_004_kani=true&JigyosyoCd=0690100920-00&ServiceCd=780&Type=search" }, "geometry": { "type": "Point", "coordinates": [ 140.320129738378796, 38.223634987369643 ] } },
{ "type": "Feature", "properties": { "内容": "機能訓練専門デイサービス　きたえるーむ山形小白川【地域密着型通所介護】山形県山形市あさひ町１６番１５号", "url2": "https://www.kaigokensaku.mhlw.go.jp/06/index.php?action_kouhyou_detail_004_kani=true&JigyosyoCd=0670104124-00&ServiceCd=780&Type=search" }, "geometry": { "type": "Point", "coordinates": [ 140.362858299999971, 38.2428019 ] } },
{ "type": "Feature", "properties": { "内容": "デイサービスきたえるーむ山形花楯【地域密着型通所介護】山形県山形市浜崎７６番1号", "url2": "https://www.kaigokensaku.mhlw.go.jp/06/index.php?action_kouhyou_detail_004_kani=true&JigyosyoCd=0690100797-00&ServiceCd=780&Type=search" }, "geometry": { "type": "Point", "coordinates": [ 140.357262835096293, 38.282374146957395 ] } },
{ "type": "Feature", "properties": { "内容": "デイサービス「ほづみの森」【地域密着型通所介護】山形県山形市穂積６８番地７", "url2": "https://www.kaigokensaku.mhlw.go.jp/06/index.php?action_kouhyou_detail_004_kani=true&JigyosyoCd=0670103902-00&ServiceCd=780&Type=search" }, "geometry": { "type": "Point", "coordinates": [ 140.361721499999931, 38.2801755 ] } },
{ "type": "Feature", "properties": { "内容": "さわやか塾　けやきの森【地域密着型通所介護】山形市大字漆山字念仏段1903-1", "url2": "https://www.kaigokensaku.mhlw.go.jp/06/index.php?action_kouhyou_detail_004_kani=true&JigyosyoCd=0670103217-00&ServiceCd=780&Type=search" }, "geometry": { "type": "Point", "coordinates": [ 140.356900668539424, 38.312391126813075 ] } },
{ "type": "Feature", "properties": { "内容": "デイサービスセンターどりーむらんど【地域密着型通所介護】山形市嶋南二丁目２番７号", "url2": "https://www.kaigokensaku.mhlw.go.jp/06/index.php?action_kouhyou_detail_004_kani=true&JigyosyoCd=0670103290-00&ServiceCd=780&Type=search" }, "geometry": { "type": "Point", "coordinates": [ 140.318486600000028, 38.2786778 ] } },
{ "type": "Feature", "properties": { "内容": "ことばのデイルーム奏【地域密着型通所介護】山形市吉原三丁目１番５号", "url2": "https://www.kaigokensaku.mhlw.go.jp/06/index.php?action_kouhyou_detail_004_kani=true&JigyosyoCd=0670103092-00&ServiceCd=780&Type=search" }, "geometry": { "type": "Point", "coordinates": [ 140.308985440892002, 38.23093655682495 ] } },
{ "type": "Feature", "properties": { "内容": "日向の家【地域密着型通所介護】山形市あかねケ丘二丁目15番10号", "url2": "https://www.kaigokensaku.mhlw.go.jp/06/index.php?action_kouhyou_detail_004_kani=true&JigyosyoCd=0670102854-00&ServiceCd=780&Type=search" }, "geometry": { "type": "Point", "coordinates": [ 140.308580200000051, 38.2448642 ] } },
{ "type": "Feature", "properties": { "内容": "生活塾【地域密着型通所介護】山形県山形市城西町5丁目1番7号", "url2": "https://www.kaigokensaku.mhlw.go.jp/06/index.php?action_kouhyou_detail_004_kani=true&JigyosyoCd=0670103621-00&ServiceCd=780&Type=search" }, "geometry": { "type": "Point", "coordinates": [ 140.313645587380307, 38.257998013992321 ] } },
{ "type": "Feature", "properties": { "内容": "アースサポート山形【地域密着型通所介護】山形県山形市吉原1丁目11-13", "url2": "https://www.kaigokensaku.mhlw.go.jp/06/index.php?action_kouhyou_detail_004_kani=true&JigyosyoCd=0670101617-00&ServiceCd=780&Type=search" }, "geometry": { "type": "Point", "coordinates": [ 140.315524891969289, 38.22830866236216 ] } },
{ "type": "Feature", "properties": { "内容": "社会福祉法人　ユトリア会　通所介護ユトリアケアセンターかすみ【地域密着型通所介護】山形県山形市香澄町２丁目３番３２号", "url2": "https://www.kaigokensaku.mhlw.go.jp/06/index.php?action_kouhyou_detail_004_kani=true&JigyosyoCd=0670103514-00&ServiceCd=780&Type=search" }, "geometry": { "type": "Point", "coordinates": [ 140.332627600000023, 38.2469563 ] } },
{ "type": "Feature", "properties": { "内容": "楽トレスペースGreen【地域密着型通所介護】山形県山形市東原町3丁目9番16号Qビルディング1F", "url2": "https://www.kaigokensaku.mhlw.go.jp/06/index.php?action_kouhyou_detail_004_kani=true&JigyosyoCd=0670104074-00&ServiceCd=780&Type=search" }, "geometry": { "type": "Point", "coordinates": [ 140.344454400000018, 38.2428264 ] } },
{ "type": "Feature", "properties": { "内容": "デイホーム株式会社サークル【地域密着型通所介護】山形市大字志戸田1685－6", "url2": "https://www.kaigokensaku.mhlw.go.jp/06/index.php?action_kouhyou_detail_004_kani=true&JigyosyoCd=0670101625-00&ServiceCd=780&Type=search" }, "geometry": { "type": "Point", "coordinates": [ 140.280559700000026, 38.2889094 ] } },
{ "type": "Feature", "properties": { "内容": "リハビリテーション颯　山形霞城【地域密着型通所介護】山形県山形市城南町2丁目10番2号サンファーレ101号室", "url2": "https://www.kaigokensaku.mhlw.go.jp/06/index.php?action_kouhyou_detail_004_kani=true&JigyosyoCd=0670103720-00&ServiceCd=780&Type=search" }, "geometry": { "type": "Point", "coordinates": [ 140.3249975, 38.2524806 ] } },
{ "type": "Feature", "properties": { "内容": "ソーレ江俣デイサービス【地域密着型通所介護】山形県山形市江俣1丁目9-15", "url2": "https://www.kaigokensaku.mhlw.go.jp/06/index.php?action_kouhyou_detail_004_kani=true&JigyosyoCd=0670103613-00&ServiceCd=780&Type=search" }, "geometry": { "type": "Point", "coordinates": [ 140.32298609999998, 38.2749728 ] } },
{ "type": "Feature", "properties": { "内容": "いずみケアセンター指定通所介護事業所【地域密着型通所介護】山形市長町一丁目９番５９－１７号", "url2": "https://www.kaigokensaku.mhlw.go.jp/06/index.php?action_kouhyou_detail_004_kani=true&JigyosyoCd=0670102011-00&ServiceCd=780&Type=search" }, "geometry": { "type": "Point", "coordinates": [ 140.337909699999955, 38.2854384 ] } },
{ "type": "Feature", "properties": { "内容": "デイサービス　ＥＭＩＯ【地域密着型通所介護】山形県山形市陣場二丁目8番35号", "url2": "https://www.kaigokensaku.mhlw.go.jp/06/index.php?action_kouhyou_detail_004_kani=true&JigyosyoCd=0670104090-00&ServiceCd=780&Type=search" }, "geometry": { "type": "Point", "coordinates": [ 140.30407230000003, 38.278251 ] } },
{ "type": "Feature", "properties": { "内容": "せんじゅ鳥居ケ丘デイサービス【地域密着型通所介護】山形県山形市鳥居ケ丘１９番１３号マザーパレス山形鳥居ケ丘", "url2": "https://www.kaigokensaku.mhlw.go.jp/06/index.php?action_kouhyou_detail_004_kani=true&JigyosyoCd=0670103886-00&ServiceCd=780&Type=search" }, "geometry": { "type": "Point", "coordinates": [ 140.335568153923077, 38.228776589601672 ] } },
{ "type": "Feature", "properties": { "内容": "ココロリビング米沢【地域密着型通所介護】山形県米沢市下花沢三丁目9-52", "url2": "https://www.kaigokensaku.mhlw.go.jp/06/index.php?action_kouhyou_detail_004_kani=true&JigyosyoCd=0670401736-00&ServiceCd=780&Type=search" }, "geometry": { "type": "Point", "coordinates": [ 140.128116399999954, 37.9175827 ] } },
{ "type": "Feature", "properties": { "内容": "楽らくケアセンターデイサービス【地域密着型通所介護】山形県米沢市大町5丁目4－51", "url2": "https://www.kaigokensaku.mhlw.go.jp/06/index.php?action_kouhyou_detail_004_kani=true&JigyosyoCd=0690400239-00&ServiceCd=780&Type=search" }, "geometry": { "type": "Point", "coordinates": [ 140.1135461, 37.9132522 ] } },
{ "type": "Feature", "properties": { "内容": "楽らくデイサービスやよい【地域密着型通所介護】山形県米沢市東3丁目4－57－101", "url2": "https://www.kaigokensaku.mhlw.go.jp/06/index.php?action_kouhyou_detail_004_kani=true&JigyosyoCd=0690400221-00&ServiceCd=780&Type=search" }, "geometry": { "type": "Point", "coordinates": [ 140.1269757, 37.9077866 ] } },
{ "type": "Feature", "properties": { "内容": "デイサービスセンター　　清ら家【地域密着型通所介護】山形県米沢市春日1丁目4番27号", "url2": "https://www.kaigokensaku.mhlw.go.jp/06/index.php?action_kouhyou_detail_004_kani=true&JigyosyoCd=0690400296-00&ServiceCd=780&Type=search" }, "geometry": { "type": "Point", "coordinates": [ 140.112315, 37.9218113 ] } },
{ "type": "Feature", "properties": { "内容": "デイサービス奏で館【地域密着型通所介護】山形県米沢市中央7丁目4－37サービス付き高齢者向け住宅　奏で館", "url2": "https://www.kaigokensaku.mhlw.go.jp/06/index.php?action_kouhyou_detail_004_kani=true&JigyosyoCd=0670401785-00&ServiceCd=780&Type=search" }, "geometry": { "type": "Point", "coordinates": [ 140.107401699999969, 37.9206844 ] } },
{ "type": "Feature", "properties": { "内容": "マイウェイデイサービス【地域密着型通所介護】山形県米沢市松が岬１丁目１－２６加藤接骨院内", "url2": "https://www.kaigokensaku.mhlw.go.jp/06/index.php?action_kouhyou_detail_004_kani=true&JigyosyoCd=0670401678-00&ServiceCd=780&Type=search" }, "geometry": { "type": "Point", "coordinates": [ 140.101292199999989, 37.9067276 ] } },
{ "type": "Feature", "properties": { "内容": "メディカルデイサービスビビ【地域密着型通所介護】鶴岡市文園町１１－３鶴岡協立病院附属クリニック2階", "url2": "https://www.kaigokensaku.mhlw.go.jp/06/index.php?action_kouhyou_detail_004_kani=true&JigyosyoCd=0670701234-00&ServiceCd=780&Type=search" }, "geometry": { "type": "Point", "coordinates": [ 139.827314300000012, 38.7146817 ] } },
{ "type": "Feature", "properties": { "内容": "療養通所介護のぞみの家【地域密着型通所介護】山形県鶴岡市北茅原町５番５４号", "url2": "https://www.kaigokensaku.mhlw.go.jp/06/index.php?action_kouhyou_detail_004_kani=true&JigyosyoCd=0690700349-00&ServiceCd=780&Type=search" }, "geometry": { "type": "Point", "coordinates": [ 139.8427117, 38.7547941 ] } },
{ "type": "Feature", "properties": { "内容": "デイホーム　はぐろの里【地域密着型通所介護】山形県鶴岡市羽黒町荒川字谷地堰42ー1", "url2": "https://www.kaigokensaku.mhlw.go.jp/06/index.php?action_kouhyou_detail_004_kani=true&JigyosyoCd=0670700921-00&ServiceCd=780&Type=search" }, "geometry": { "type": "Point", "coordinates": [ 139.899176498672432, 38.718529730671847 ] } },
{ "type": "Feature", "properties": { "内容": "瑞穂の郷デイサービスセンター東館【地域密着型通所介護】山形県鶴岡市羽黒町細谷字北田１２８－１", "url2": "https://www.kaigokensaku.mhlw.go.jp/06/index.php?action_kouhyou_detail_004_kani=true&JigyosyoCd=0670701705-00&ServiceCd=780&Type=search" }, "geometry": { "type": "Point", "coordinates": [ 139.8616022, 38.737413 ] } },
{ "type": "Feature", "properties": { "内容": "瑞穂の郷デイサービスセンター西館【地域密着型通所介護】山形県鶴岡市羽黒町細谷字北田１２８－１", "url2": "https://www.kaigokensaku.mhlw.go.jp/06/index.php?action_kouhyou_detail_004_kani=true&JigyosyoCd=0670701713-00&ServiceCd=780&Type=search" }, "geometry": { "type": "Point", "coordinates": [ 139.8616022, 38.737413 ] } },
{ "type": "Feature", "properties": { "内容": "ハビビ伊勢原【地域密着型通所介護】山形県鶴岡市伊勢原町１６番１６号", "url2": "https://www.kaigokensaku.mhlw.go.jp/06/index.php?action_kouhyou_detail_004_kani=true&JigyosyoCd=0670701333-00&ServiceCd=780&Type=search" }, "geometry": { "type": "Point", "coordinates": [ 139.853445773016347, 38.717348642158683 ] } },
{ "type": "Feature", "properties": { "内容": "リハビリステーション・アズリー【地域密着型通所介護】山形県鶴岡市鳥居町23-2", "url2": "https://www.kaigokensaku.mhlw.go.jp/06/index.php?action_kouhyou_detail_004_kani=true&JigyosyoCd=0670701770-00&ServiceCd=780&Type=search" }, "geometry": { "type": "Point", "coordinates": [ 139.837288, 38.7292776 ] } },
{ "type": "Feature", "properties": { "内容": "アズリー・リハトレ【地域密着型通所介護】山形県鶴岡市鳥居町22-20", "url2": "https://www.kaigokensaku.mhlw.go.jp/06/index.php?action_kouhyou_detail_004_kani=true&JigyosyoCd=0690700448-00&ServiceCd=780&Type=search" }, "geometry": { "type": "Point", "coordinates": [ 139.8374114, 38.7295419 ] } },
{ "type": "Feature", "properties": { "内容": "デイサービスセンターかたばみ荘【地域密着型通所介護】山形県酒田市北千日堂前字松境18-1", "url2": "https://www.kaigokensaku.mhlw.go.jp/06/index.php?action_kouhyou_detail_004_kani=true&JigyosyoCd=0690800370-00&ServiceCd=780&Type=search" }, "geometry": { "type": "Point", "coordinates": [ 139.834528500000033, 38.9366504 ] } },
{ "type": "Feature", "properties": { "内容": "デイサービスセンターふれんど【地域密着型通所介護】山形県酒田市古湊町９番８号", "url2": "https://www.kaigokensaku.mhlw.go.jp/06/index.php?action_kouhyou_detail_004_kani=true&JigyosyoCd=0670801091-00&ServiceCd=780&Type=search" }, "geometry": { "type": "Point", "coordinates": [ 139.828825700000039, 38.9490435 ] } },
{ "type": "Feature", "properties": { "内容": "アースサポート酒田【地域密着型通所介護】山形県酒田市若原町5-2", "url2": "https://www.kaigokensaku.mhlw.go.jp/06/index.php?action_kouhyou_detail_004_kani=true&JigyosyoCd=0670801406-00&ServiceCd=780&Type=search" }, "geometry": { "type": "Point", "coordinates": [ 139.843503931877137, 38.897754698796575 ] } },
{ "type": "Feature", "properties": { "内容": "デイサービスこもれび【地域密着型通所介護】山形県酒田市亀ヶ崎5丁目7番53号", "url2": "https://www.kaigokensaku.mhlw.go.jp/06/index.php?action_kouhyou_detail_004_kani=true&JigyosyoCd=0670801695-00&ServiceCd=780&Type=search" }, "geometry": { "type": "Point", "coordinates": [ 139.850123199999985, 38.89935160000001 ] } },
{ "type": "Feature", "properties": { "内容": "あおばディサービスセンター【地域密着型通所介護】山形県新庄市沼田町６－２２", "url2": "https://www.kaigokensaku.mhlw.go.jp/06/index.php?action_kouhyou_detail_004_kani=true&JigyosyoCd=0671100907-00&ServiceCd=780&Type=search" }, "geometry": { "type": "Point", "coordinates": [ 140.300188899999966, 38.7713229 ] } },
{ "type": "Feature", "properties": { "内容": "デイサービス　ふれあい【地域密着型通所介護】山形県新庄市下田町6-9", "url2": "https://www.kaigokensaku.mhlw.go.jp/06/index.php?action_kouhyou_detail_004_kani=true&JigyosyoCd=0671100840-00&ServiceCd=780&Type=search" }, "geometry": { "type": "Point", "coordinates": [ 140.297989499999971, 38.7567524 ] } },
{ "type": "Feature", "properties": { "内容": "デイサービスセンター虹（にじ）【地域密着型通所介護】山形県新庄市十日町２８０４番地の６", "url2": "https://www.kaigokensaku.mhlw.go.jp/06/index.php?action_kouhyou_detail_004_kani=true&JigyosyoCd=0671100857-00&ServiceCd=780&Type=search" }, "geometry": { "type": "Point", "coordinates": [ 140.286550900000066, 38.7687312 ] } },
{ "type": "Feature", "properties": { "内容": "デイサービス　ライフ【地域密着型通所介護】山形県新庄市金沢2018-7", "url2": "https://www.kaigokensaku.mhlw.go.jp/06/index.php?action_kouhyou_detail_004_kani=true&JigyosyoCd=0671100733-00&ServiceCd=780&Type=search" }, "geometry": { "type": "Point", "coordinates": [ 140.31053549985279, 38.752477678216728 ] } },
{ "type": "Feature", "properties": { "内容": "地域密着型通所介護ここわ・心笑【地域密着型通所介護】山形県新庄市金沢2002番地1", "url2": "https://www.kaigokensaku.mhlw.go.jp/06/index.php?action_kouhyou_detail_004_kani=true&JigyosyoCd=0691100143-00&ServiceCd=780&Type=search" }, "geometry": { "type": "Point", "coordinates": [ 140.311491931877129, 38.751433418981009 ] } },
{ "type": "Feature", "properties": { "内容": "デイサービス　すまいる【地域密着型通所介護】山形県新庄市小田島町6番60号", "url2": "https://www.kaigokensaku.mhlw.go.jp/06/index.php?action_kouhyou_detail_004_kani=true&JigyosyoCd=0691100093-00&ServiceCd=780&Type=search" }, "geometry": { "type": "Point", "coordinates": [ 140.297105800000054, 38.7644014 ] } },
{ "type": "Feature", "properties": { "内容": "通所介護「エブリデイズ」【地域密着型通所介護】山形県新庄市常葉町5-6", "url2": "https://www.kaigokensaku.mhlw.go.jp/06/index.php?action_kouhyou_detail_004_kani=true&JigyosyoCd=0671101046-00&ServiceCd=780&Type=search" }, "geometry": { "type": "Point", "coordinates": [ -90.403692, 15.4414439 ] } },
{ "type": "Feature", "properties": { "内容": "デイサービス　ひかり【地域密着型通所介護】山形県寒河江市大字寒河江字塩水60-1", "url2": "https://www.kaigokensaku.mhlw.go.jp/06/index.php?action_kouhyou_detail_004_kani=true&JigyosyoCd=0671200624-00&ServiceCd=780&Type=search" }, "geometry": { "type": "Point", "coordinates": [ 140.261723699999948, 38.3785911 ] } },
{ "type": "Feature", "properties": { "内容": "茶ろん幸多【地域密着型通所介護】山形県寒河江市幸田町11番10", "url2": "https://www.kaigokensaku.mhlw.go.jp/06/index.php?action_kouhyou_detail_004_kani=true&JigyosyoCd=0671200582-00&ServiceCd=780&Type=search" }, "geometry": { "type": "Point", "coordinates": [ 140.273750699999937, 38.3666179 ] } },
{ "type": "Feature", "properties": { "内容": "陵東デイサービスセンター【地域密着型通所介護】山形県寒河江市本町２丁目１０番４０号", "url2": "https://www.kaigokensaku.mhlw.go.jp/06/index.php?action_kouhyou_detail_004_kani=true&JigyosyoCd=0671200509-00&ServiceCd=780&Type=search" }, "geometry": { "type": "Point", "coordinates": [ 140.276875643997187, 38.377423138403735 ] } },
{ "type": "Feature", "properties": { "内容": "上山市社会福祉協議会デイサービスはやま【地域密着型通所介護】山形県上山市葉山５番７０号上山市老人福祉センター寿荘", "url2": "https://www.kaigokensaku.mhlw.go.jp/06/index.php?action_kouhyou_detail_004_kani=true&JigyosyoCd=0671300424-00&ServiceCd=780&Type=search" }, "geometry": { "type": "Point", "coordinates": [ 140.263566099999906, 38.1488647 ] } },
{ "type": "Feature", "properties": { "内容": "デイサービスセンター風ぐるま平野【地域密着型通所介護】山形県長井市九野本5461-5", "url2": "https://www.kaigokensaku.mhlw.go.jp/06/index.php?action_kouhyou_detail_004_kani=true&JigyosyoCd=0671500452-00&ServiceCd=780&Type=search" }, "geometry": { "type": "Point", "coordinates": [ 140.009843899999964, 38.0927916 ] } },
{ "type": "Feature", "properties": { "内容": "小規模デイサービス河井の里【地域密着型通所介護】山形県長井市河井883番地", "url2": "https://www.kaigokensaku.mhlw.go.jp/06/index.php?action_kouhyou_detail_004_kani=true&JigyosyoCd=0671500486-00&ServiceCd=780&Type=search" }, "geometry": { "type": "Point", "coordinates": [ 140.047077800000011, 38.0733118 ] } },
{ "type": "Feature", "properties": { "内容": "小規模デイサービス　クオーレ伊佐沢【地域密着型通所介護】山形県長井市中伊佐沢字粡町2073", "url2": "https://www.kaigokensaku.mhlw.go.jp/06/index.php?action_kouhyou_detail_004_kani=true&JigyosyoCd=0671500528-00&ServiceCd=780&Type=search" }, "geometry": { "type": "Point", "coordinates": [ 140.0666893, 38.087485600000015 ] } },
{ "type": "Feature", "properties": { "内容": "天童　デイサービス　あさひの家【地域密着型通所介護】山形県天童市五日町1-2-5", "url2": "https://www.kaigokensaku.mhlw.go.jp/06/index.php?action_kouhyou_detail_004_kani=true&JigyosyoCd=0671600807-00&ServiceCd=780&Type=search" }, "geometry": { "type": "Point", "coordinates": [ 140.37045880000008, 38.354226400000016 ] } },
{ "type": "Feature", "properties": { "内容": "ﾃﾞｲｻｰﾋﾞｽお茶のみ大学【地域密着型通所介護】山形県天童市北目4丁目７番22号", "url2": "https://www.kaigokensaku.mhlw.go.jp/06/index.php?action_kouhyou_detail_004_kani=true&JigyosyoCd=0671600864-00&ServiceCd=780&Type=search" }, "geometry": { "type": "Point", "coordinates": [ 140.376065890212999, 38.347970111825504 ] } },
{ "type": "Feature", "properties": { "内容": "ソーレホーム天童デイサービス【地域密着型通所介護】天童市桜町１番７号", "url2": "https://www.kaigokensaku.mhlw.go.jp/06/index.php?action_kouhyou_detail_004_kani=true&JigyosyoCd=0671600831-00&ServiceCd=780&Type=search" }, "geometry": { "type": "Point", "coordinates": [ 140.385002200000031, 38.3533186 ] } },
{ "type": "Feature", "properties": { "内容": "デイサービス　和っしょい【地域密着型通所介護】山形県東根市本丸南1-7-1", "url2": "https://www.kaigokensaku.mhlw.go.jp/06/index.php?action_kouhyou_detail_004_kani=true&JigyosyoCd=0691700116-00&ServiceCd=780&Type=search" }, "geometry": { "type": "Point", "coordinates": [ 140.400748235581972, 38.441761586971765 ] } },
{ "type": "Feature", "properties": { "内容": "にこにこファミリアデイサービス【地域密着型通所介護】山形県東根市温泉町二丁目1-19", "url2": "https://www.kaigokensaku.mhlw.go.jp/06/index.php?action_kouhyou_detail_004_kani=true&JigyosyoCd=0691700082-00&ServiceCd=780&Type=search" }, "geometry": { "type": "Point", "coordinates": [ 140.391136758999664, 38.458848887040674 ] } },
{ "type": "Feature", "properties": { "内容": "こぶし荘デイサービスセンター【地域密着型通所介護】山形県南陽市川樋508番地", "url2": "https://www.kaigokensaku.mhlw.go.jp/06/index.php?action_kouhyou_detail_004_kani=true&JigyosyoCd=0671900074-00&ServiceCd=780&Type=search" }, "geometry": { "type": "Point", "coordinates": [ 140.194028399999979, 38.0948792 ] } },
{ "type": "Feature", "properties": { "内容": "すがの介護サービス【地域密着型通所介護】山形県南陽市若狭郷屋755-1", "url2": "https://www.kaigokensaku.mhlw.go.jp/06/index.php?action_kouhyou_detail_004_kani=true&JigyosyoCd=0671900249-00&ServiceCd=780&Type=search" }, "geometry": { "type": "Point", "coordinates": [ 140.143421003427193, 38.054648827179186 ] } },
{ "type": "Feature", "properties": { "内容": "セローム　すがの【地域密着型通所介護】山形県南陽市若狭郷屋731-3", "url2": "https://www.kaigokensaku.mhlw.go.jp/06/index.php?action_kouhyou_detail_004_kani=true&JigyosyoCd=0671900330-00&ServiceCd=780&Type=search" }, "geometry": { "type": "Point", "coordinates": [ 140.144864, 38.0545605 ] } },
{ "type": "Feature", "properties": { "内容": "スマイルやまのべデイサービス【地域密着型通所介護】山形県東村山郡山辺町大字山辺１３８０", "url2": "https://www.kaigokensaku.mhlw.go.jp/06/index.php?action_kouhyou_detail_004_kani=true&JigyosyoCd=0672200300-00&ServiceCd=780&Type=search" }, "geometry": { "type": "Point", "coordinates": [ 140.267288399999984, 38.2916532 ] } },
{ "type": "Feature", "properties": { "内容": "指定通所介護事業所「ちょうよう」【地域密着型通所介護】山形県西村山郡河北町谷地字東704番地1", "url2": "https://www.kaigokensaku.mhlw.go.jp/06/index.php?action_kouhyou_detail_004_kani=true&JigyosyoCd=0672300209-00&ServiceCd=780&Type=search" }, "geometry": { "type": "Point", "coordinates": [ 140.323206950926163, 38.425473989692634 ] } },
{ "type": "Feature", "properties": { "内容": "通所介護事業所　「楽　校」【地域密着型通所介護】山形県西村山郡大江町大字左沢５２６番地", "url2": "https://www.kaigokensaku.mhlw.go.jp/06/index.php?action_kouhyou_detail_004_kani=true&JigyosyoCd=0672300696-00&ServiceCd=780&Type=search" }, "geometry": { "type": "Point", "coordinates": [ 140.206876500000021, 38.3792703 ] } },
{ "type": "Feature", "properties": { "内容": "神室ふくすけの家【地域密着型通所介護】山形県最上郡金山町大字金山465番地32", "url2": "https://www.kaigokensaku.mhlw.go.jp/06/index.php?action_kouhyou_detail_004_kani=true&JigyosyoCd=0672500857-00&ServiceCd=780&Type=search" }, "geometry": { "type": "Point", "coordinates": [ 140.334100546716087, 38.876845339386797 ] } },
{ "type": "Feature", "properties": { "内容": "通所介護デイサービスもがみ【地域密着型通所介護】山形県最上郡最上町大字大堀字蟹ノ又1360番地19", "url2": "https://www.kaigokensaku.mhlw.go.jp/06/index.php?action_kouhyou_detail_004_kani=true&JigyosyoCd=0672500741-00&ServiceCd=780&Type=search" }, "geometry": { "type": "Point", "coordinates": [ 140.467226671382946, 38.754446283179874 ] } },
{ "type": "Feature", "properties": { "内容": "こはな【地域密着型通所介護】最上郡戸沢村大字角川１４３６番地", "url2": "https://www.kaigokensaku.mhlw.go.jp/06/index.php?action_kouhyou_detail_004_kani=true&JigyosyoCd=0672500832-00&ServiceCd=780&Type=search" }, "geometry": { "type": "Point", "coordinates": [ 140.162479500000018, 38.6860111 ] } },
{ "type": "Feature", "properties": { "内容": "デイサービスあっとほーむ太陽【地域密着型通所介護】山形県最上郡戸沢村大字名高1347番地16号", "url2": "https://www.kaigokensaku.mhlw.go.jp/06/index.php?action_kouhyou_detail_004_kani=true&JigyosyoCd=0672500691-00&ServiceCd=780&Type=search" }, "geometry": { "type": "Point", "coordinates": [ 140.180480499999931, 38.7488281 ] } },
{ "type": "Feature", "properties": { "内容": "デイサービス彩り【地域密着型通所介護】山形県東置賜郡高畠町大字高畠173番地2", "url2": "https://www.kaigokensaku.mhlw.go.jp/06/index.php?action_kouhyou_detail_004_kani=true&JigyosyoCd=0692600083-00&ServiceCd=780&Type=search" }, "geometry": { "type": "Point", "coordinates": [ 140.19308620000001, 37.9981076 ] } },
{ "type": "Feature", "properties": { "内容": "指定通所介護事業所特定非営利活動法人かたくりの会【地域密着型通所介護】山形県東置賜郡高畠町大字元和田１５９９番地の２１号", "url2": "https://www.kaigokensaku.mhlw.go.jp/06/index.php?action_kouhyou_detail_004_kani=true&JigyosyoCd=0672600236-00&ServiceCd=780&Type=search" }, "geometry": { "type": "Point", "coordinates": [ 140.215307299999949, 37.9619633 ] } },
{ "type": "Feature", "properties": { "内容": "デイサービスセンター　そよ風の森【地域密着型通所介護】山形県東置賜郡川西町大字時田1417番地", "url2": "https://www.kaigokensaku.mhlw.go.jp/06/index.php?action_kouhyou_detail_004_kani=true&JigyosyoCd=0692600075-00&ServiceCd=780&Type=search" }, "geometry": { "type": "Point", "coordinates": [ 140.0637246, 37.9846291 ] } },
{ "type": "Feature", "properties": { "内容": "ケアステージとこしえ西大塚【地域密着型通所介護】山形県東置賜郡川西町大字西大塚２３０１番地", "url2": "https://www.kaigokensaku.mhlw.go.jp/06/index.php?action_kouhyou_detail_004_kani=true&JigyosyoCd=0672600293-00&ServiceCd=780&Type=search" }, "geometry": { "type": "Point", "coordinates": [ 140.064527099999964, 38.0505256 ] } },
{ "type": "Feature", "properties": { "内容": "リハビリデイサービスすがい【地域密着型通所介護】山形県西置賜郡白鷹町大字荒砥甲726番地3", "url2": "https://www.kaigokensaku.mhlw.go.jp/06/index.php?action_kouhyou_detail_004_kani=true&JigyosyoCd=0672700416-00&ServiceCd=780&Type=search" }, "geometry": { "type": "Point", "coordinates": [ 140.100968, 38.1820313 ] } },
{ "type": "Feature", "properties": { "内容": "ディサービスセンターさわやかホーム【地域密着型通所介護】山形県西置賜郡飯豊町大字手ノ子１６５１-1番地", "url2": "https://www.kaigokensaku.mhlw.go.jp/06/index.php?action_kouhyou_detail_004_kani=true&JigyosyoCd=0672700366-00&ServiceCd=780&Type=search" }, "geometry": { "type": "Point", "coordinates": [ 139.961175599999933, 38.0093521 ] } },
{ "type": "Feature", "properties": { "内容": "デイホームのんき【地域密着型通所介護】山形県東田川郡三川町大字猪子字下堀田２３０－１", "url2": "https://www.kaigokensaku.mhlw.go.jp/06/index.php?action_kouhyou_detail_004_kani=true&JigyosyoCd=0673000501-00&ServiceCd=780&Type=search" }, "geometry": { "type": "Point", "coordinates": [ 139.840051, 38.8189586 ] } },
{ "type": "Feature", "properties": { "内容": "デイサービス燦燦【地域密着型通所介護】山形県飽海郡遊佐町遊佐字南大坪12-1", "url2": "https://www.kaigokensaku.mhlw.go.jp/06/index.php?action_kouhyou_detail_004_kani=true&JigyosyoCd=0673200366-00&ServiceCd=780&Type=search" }, "geometry": { "type": "Point", "coordinates": [ 139.917059399999971, 39.0091972 ] } }
]
}
