{
"type": "FeatureCollection",
"name": "geo_06_特定福祉用具販売",
"crs": { "type": "name", "properties": { "name": "urn:ogc:def:crs:OGC:1.3:CRS84" } },
"features": [
{ "type": "Feature", "properties": { "内容": "岡崎医療株式会社【特定福祉用具販売】山形市あこや町３－４－３", "url2": "https://www.kaigokensaku.mhlw.go.jp/06/index.php?action_kouhyou_detail_004_kani=true&JigyosyoCd=0670101880-00&ServiceCd=410&Type=search" }, "geometry": { "type": "Point", "coordinates": [ 140.354617400000052, 38.241774 ] } },
{ "type": "Feature", "properties": { "内容": "介護の太助　山形店【特定福祉用具販売】山形県山形市篭田2-5-34ダイヤ26篭田A", "url2": "https://www.kaigokensaku.mhlw.go.jp/06/index.php?action_kouhyou_detail_004_kani=true&JigyosyoCd=0670104967-00&ServiceCd=410&Type=search" }, "geometry": { "type": "Point", "coordinates": [ 140.319236100000012, 38.2382202 ] } },
{ "type": "Feature", "properties": { "内容": "ネクストケア【特定福祉用具販売】山形県山形市鉄砲町三丁目1番39号　メゾナルウェⅢＡ号", "url2": "https://www.kaigokensaku.mhlw.go.jp/06/index.php?action_kouhyou_detail_004_kani=true&JigyosyoCd=0670104728-00&ServiceCd=410&Type=search" }, "geometry": { "type": "Point", "coordinates": [ 140.329444516347223, 38.236347325230881 ] } },
{ "type": "Feature", "properties": { "内容": "ＳＯＭＰＯケア　山形　福祉用具【特定福祉用具販売】山形県山形市あかねヶ丘一丁目2番33号　結城貸店舗1F", "url2": "https://www.kaigokensaku.mhlw.go.jp/06/index.php?action_kouhyou_detail_004_kani=true&JigyosyoCd=0670104520-00&ServiceCd=410&Type=search" }, "geometry": { "type": "Point", "coordinates": [ 140.310571399999958, 38.2522163 ] } },
{ "type": "Feature", "properties": { "内容": "株式会社フロンティア山形営業所【特定福祉用具販売】山形市流通センター3-6-1", "url2": "https://www.kaigokensaku.mhlw.go.jp/06/index.php?action_kouhyou_detail_004_kani=true&JigyosyoCd=0670103662-00&ServiceCd=410&Type=search" }, "geometry": { "type": "Point", "coordinates": [ 140.358041299999968, 38.2885107 ] } },
{ "type": "Feature", "properties": { "内容": "ハイジアインもりや株式会社【特定福祉用具販売】山形県山形市上柳２８番地", "url2": "https://www.kaigokensaku.mhlw.go.jp/06/index.php?action_kouhyou_detail_004_kani=true&JigyosyoCd=0670103852-00&ServiceCd=410&Type=search" }, "geometry": { "type": "Point", "coordinates": [ 140.35984940000003, 38.3006625 ] } },
{ "type": "Feature", "properties": { "内容": "さふらん山形店【特定福祉用具販売】山形市双葉町二丁目３番３号", "url2": "https://www.kaigokensaku.mhlw.go.jp/06/index.php?action_kouhyou_detail_004_kani=true&JigyosyoCd=0670101245-00&ServiceCd=410&Type=search" }, "geometry": { "type": "Point", "coordinates": [ 140.320823778298518, 38.249335681447789 ] } },
{ "type": "Feature", "properties": { "内容": "フランスベッド株式会社メディカル山形営業所【特定福祉用具販売】山形県山形市芳野26番地", "url2": "https://www.kaigokensaku.mhlw.go.jp/06/index.php?action_kouhyou_detail_004_kani=true&JigyosyoCd=0670102870-00&ServiceCd=410&Type=search" }, "geometry": { "type": "Point", "coordinates": [ 140.3564414, 38.2818807 ] } },
{ "type": "Feature", "properties": { "内容": "株式会社　クローバー【特定福祉用具販売】山形県山形市銅町2-25-28", "url2": "https://www.kaigokensaku.mhlw.go.jp/06/index.php?action_kouhyou_detail_004_kani=true&JigyosyoCd=0670102482-00&ServiceCd=410&Type=search" }, "geometry": { "type": "Point", "coordinates": [ 140.341462200000024, 38.2739285 ] } },
{ "type": "Feature", "properties": { "内容": "福祉用具貸与事業所　樫の木【特定福祉用具販売】山形県山形市上町四丁目6番24号", "url2": "https://www.kaigokensaku.mhlw.go.jp/06/index.php?action_kouhyou_detail_004_kani=true&JigyosyoCd=0670103787-00&ServiceCd=410&Type=search" }, "geometry": { "type": "Point", "coordinates": [ 140.313377879762243, 38.244452191634991 ] } },
{ "type": "Feature", "properties": { "内容": "コープ福祉用具（村山）【特定福祉用具販売】山形市上柳67番町1", "url2": "https://www.kaigokensaku.mhlw.go.jp/06/index.php?action_kouhyou_detail_004_kani=true&JigyosyoCd=0670102946-00&ServiceCd=410&Type=search" }, "geometry": { "type": "Point", "coordinates": [ 140.361754799999972, 38.299296 ] } },
{ "type": "Feature", "properties": { "内容": "株式会社あっぷるケアサービス介護用品ショップあっぷる【特定福祉用具販売】山形県山形市久保田一丁目７番７号", "url2": "https://www.kaigokensaku.mhlw.go.jp/06/index.php?action_kouhyou_detail_004_kani=true&JigyosyoCd=0670100437-00&ServiceCd=410&Type=search" }, "geometry": { "type": "Point", "coordinates": [ 140.318384970500091, 38.248481505732691 ] } },
{ "type": "Feature", "properties": { "内容": "福祉用具つばさ【特定福祉用具販売】山形県山形市北町２丁目６番６号", "url2": "https://www.kaigokensaku.mhlw.go.jp/06/index.php?action_kouhyou_detail_004_kani=true&JigyosyoCd=0670104827-00&ServiceCd=410&Type=search" }, "geometry": { "type": "Point", "coordinates": [ 140.3300111, 38.2705257 ] } },
{ "type": "Feature", "properties": { "内容": "介護ショップ創研【特定福祉用具販売】山形市美畑町13番14号", "url2": "https://www.kaigokensaku.mhlw.go.jp/06/index.php?action_kouhyou_detail_004_kani=true&JigyosyoCd=0670100874-00&ServiceCd=410&Type=search" }, "geometry": { "type": "Point", "coordinates": [ 140.321398300000027, 38.2359681 ] } },
{ "type": "Feature", "properties": { "内容": "株式会社蔵王サプライズ【特定福祉用具販売】山形県山形市銅町２丁目21-4", "url2": "https://www.kaigokensaku.mhlw.go.jp/06/index.php?action_kouhyou_detail_004_kani=true&JigyosyoCd=0670100429-00&ServiceCd=410&Type=search" }, "geometry": { "type": "Point", "coordinates": [ 140.341496327600112, 38.273185695115245 ] } },
{ "type": "Feature", "properties": { "内容": "株式会社多田木工製作所ウェルランド山形店【特定福祉用具販売】山形県山形市立谷川二丁目851番5号", "url2": "https://www.kaigokensaku.mhlw.go.jp/06/index.php?action_kouhyou_detail_004_kani=true&JigyosyoCd=0670101021-00&ServiceCd=410&Type=search" }, "geometry": { "type": "Point", "coordinates": [ 140.378786800659157, 38.31168119816099 ] } },
{ "type": "Feature", "properties": { "内容": "指定福祉用具貸与事業所　よねき【特定福祉用具販売】山形県山形市富の中一丁目１－１２", "url2": "https://www.kaigokensaku.mhlw.go.jp/06/index.php?action_kouhyou_detail_004_kani=true&JigyosyoCd=0670101369-00&ServiceCd=410&Type=search" }, "geometry": { "type": "Point", "coordinates": [ 140.306071690460158, 38.237396037882313 ] } },
{ "type": "Feature", "properties": { "内容": "悠々暮らし会【特定福祉用具販売】山形県米沢市城北１丁目８番３２号", "url2": "https://www.kaigokensaku.mhlw.go.jp/06/index.php?action_kouhyou_detail_004_kani=true&JigyosyoCd=0670401983-00&ServiceCd=410&Type=search" }, "geometry": { "type": "Point", "coordinates": [ 140.103513900000053, 37.9143459 ] } },
{ "type": "Feature", "properties": { "内容": "株式会社アンミン【特定福祉用具販売】米沢市万世町片子5152", "url2": "https://www.kaigokensaku.mhlw.go.jp/06/index.php?action_kouhyou_detail_004_kani=true&JigyosyoCd=0670400878-00&ServiceCd=410&Type=search" }, "geometry": { "type": "Point", "coordinates": [ 140.138716499336226, 37.903042306394674 ] } },
{ "type": "Feature", "properties": { "内容": "あおぞら福祉用具事業所【特定福祉用具販売】山形県米沢市徳町210-1", "url2": "https://www.kaigokensaku.mhlw.go.jp/06/index.php?action_kouhyou_detail_004_kani=true&JigyosyoCd=0670402247-00&ServiceCd=410&Type=search" }, "geometry": { "type": "Point", "coordinates": [ 140.09695, 37.92182 ] } },
{ "type": "Feature", "properties": { "内容": "株式会社サン十字福祉用具レンタル・販売サービス【特定福祉用具販売】山形県米沢市中田町７５１－１", "url2": "https://www.kaigokensaku.mhlw.go.jp/06/index.php?action_kouhyou_detail_004_kani=true&JigyosyoCd=0670400175-00&ServiceCd=410&Type=search" }, "geometry": { "type": "Point", "coordinates": [ 140.128683799999976, 37.9438379 ] } },
{ "type": "Feature", "properties": { "内容": "三友堂メディカルケアサービス【特定福祉用具販売】山形県米沢市成島町3丁目2番90号", "url2": "https://www.kaigokensaku.mhlw.go.jp/06/index.php?action_kouhyou_detail_004_kani=true&JigyosyoCd=0670402155-00&ServiceCd=410&Type=search" }, "geometry": { "type": "Point", "coordinates": [ 140.090817448548847, 37.923694941166893 ] } },
{ "type": "Feature", "properties": { "内容": "福祉用具レンタル事業所　ゆとりの樹【特定福祉用具販売】山形県米沢市直江町10番22号", "url2": "https://www.kaigokensaku.mhlw.go.jp/06/index.php?action_kouhyou_detail_004_kani=true&JigyosyoCd=0670401199-00&ServiceCd=410&Type=search" }, "geometry": { "type": "Point", "coordinates": [ 140.087887499999965, 37.9128876 ] } },
{ "type": "Feature", "properties": { "内容": "福祉用具　きらら【特定福祉用具販売】山形県米沢市西大通２丁目２-３０", "url2": "https://www.kaigokensaku.mhlw.go.jp/06/index.php?action_kouhyou_detail_004_kani=true&JigyosyoCd=0670402288-00&ServiceCd=410&Type=search" }, "geometry": { "type": "Point", "coordinates": [ 140.098643900000013, 37.9162678 ] } },
{ "type": "Feature", "properties": { "内容": "ハートウェルこもれび【特定福祉用具販売】山形県米沢市大字花沢3069-2", "url2": "https://www.kaigokensaku.mhlw.go.jp/06/index.php?action_kouhyou_detail_004_kani=true&JigyosyoCd=0670401868-00&ServiceCd=410&Type=search" }, "geometry": { "type": "Point", "coordinates": [ 140.1223357, 37.9261509 ] } },
{ "type": "Feature", "properties": { "内容": "タマツ鶴岡店【特定福祉用具販売】山形県鶴岡市美咲町32-7", "url2": "https://www.kaigokensaku.mhlw.go.jp/06/index.php?action_kouhyou_detail_004_kani=true&JigyosyoCd=0670700160-00&ServiceCd=410&Type=search" }, "geometry": { "type": "Point", "coordinates": [ 139.797141399999987, 38.7360789 ] } },
{ "type": "Feature", "properties": { "内容": "株式会社　トーク【特定福祉用具販売】山形県鶴岡市遠賀原字稲荷41-2", "url2": "https://www.kaigokensaku.mhlw.go.jp/06/index.php?action_kouhyou_detail_004_kani=true&JigyosyoCd=0670700434-00&ServiceCd=410&Type=search" }, "geometry": { "type": "Point", "coordinates": [ 139.840941199999946, 38.7043359 ] } },
{ "type": "Feature", "properties": { "内容": "株式会社齋藤商会【特定福祉用具販売】山形県鶴岡市布目字宮田１５５番地の１", "url2": "https://www.kaigokensaku.mhlw.go.jp/06/index.php?action_kouhyou_detail_004_kani=true&JigyosyoCd=0670700749-00&ServiceCd=410&Type=search" }, "geometry": { "type": "Point", "coordinates": [ 139.792440478959634, 38.746930362790764 ] } },
{ "type": "Feature", "properties": { "内容": "鶴岡市農業協同組合福祉サービス【特定福祉用具販売】山形県鶴岡市青龍寺字村下34-1", "url2": "https://www.kaigokensaku.mhlw.go.jp/06/index.php?action_kouhyou_detail_004_kani=true&JigyosyoCd=0670700236-00&ServiceCd=410&Type=search" }, "geometry": { "type": "Point", "coordinates": [ 139.8173992418279, 38.69044543336507 ] } },
{ "type": "Feature", "properties": { "内容": "コープ福祉用具サービス【特定福祉用具販売】鶴岡市双葉町13番45号医療生協やまがた本部　内", "url2": "https://www.kaigokensaku.mhlw.go.jp/06/index.php?action_kouhyou_detail_004_kani=true&JigyosyoCd=0670700459-00&ServiceCd=410&Type=search" }, "geometry": { "type": "Point", "coordinates": [ 139.825486599999977, 38.7185535 ] } },
{ "type": "Feature", "properties": { "内容": "庄内たがわ農業協同組合【特定福祉用具販売】山形県鶴岡市長沼字宮前２３番１", "url2": "https://www.kaigokensaku.mhlw.go.jp/06/index.php?action_kouhyou_detail_004_kani=true&JigyosyoCd=0670701788-00&ServiceCd=410&Type=search" }, "geometry": { "type": "Point", "coordinates": [ 139.894006528172326, 38.767351401547081 ] } },
{ "type": "Feature", "properties": { "内容": "タマツ酒田店【特定福祉用具販売】山形県酒田市東大町3－1－9", "url2": "https://www.kaigokensaku.mhlw.go.jp/06/index.php?action_kouhyou_detail_004_kani=true&JigyosyoCd=0670800283-00&ServiceCd=410&Type=search" }, "geometry": { "type": "Point", "coordinates": [ 139.857371503843751, 38.906436868097721 ] } },
{ "type": "Feature", "properties": { "内容": "有限会社　福祉用品やまがた【特定福祉用具販売】山形県酒田市亀ヶ崎4丁目2-40", "url2": "https://www.kaigokensaku.mhlw.go.jp/06/index.php?action_kouhyou_detail_004_kani=true&JigyosyoCd=0670800507-00&ServiceCd=410&Type=search" }, "geometry": { "type": "Point", "coordinates": [ 139.842501399999946, 38.9023566 ] } },
{ "type": "Feature", "properties": { "内容": "両羽商事株式会社【特定福祉用具販売】山形県酒田市卸町１番地の８", "url2": "https://www.kaigokensaku.mhlw.go.jp/06/index.php?action_kouhyou_detail_004_kani=true&JigyosyoCd=0670800325-00&ServiceCd=410&Type=search" }, "geometry": { "type": "Point", "coordinates": [ 139.854589600000054, 38.888117 ] } },
{ "type": "Feature", "properties": { "内容": "ツルカンシステム株式会社介護事業部福祉用具事業所【特定福祉用具販売】山形県酒田市大宮町2丁目3番地の18", "url2": "https://www.kaigokensaku.mhlw.go.jp/06/index.php?action_kouhyou_detail_004_kani=true&JigyosyoCd=0670802024-00&ServiceCd=410&Type=search" }, "geometry": { "type": "Point", "coordinates": [ 139.852926464556845, 38.886704083206965 ] } },
{ "type": "Feature", "properties": { "内容": "グリーンオーク【特定福祉用具販売】錦町４丁目１－２コーワビル1F", "url2": "https://www.kaigokensaku.mhlw.go.jp/06/index.php?action_kouhyou_detail_004_kani=true&JigyosyoCd=0670802289-00&ServiceCd=410&Type=search" }, "geometry": { "type": "Point", "coordinates": [ 139.67088, 35.8255511 ] } },
{ "type": "Feature", "properties": { "内容": "てんとう虫【特定福祉用具販売】山形県酒田市亀ヶ崎7丁目3番11号Ｂ棟", "url2": "https://www.kaigokensaku.mhlw.go.jp/06/index.php?action_kouhyou_detail_004_kani=true&JigyosyoCd=0670802107-00&ServiceCd=410&Type=search" }, "geometry": { "type": "Point", "coordinates": [ 139.849395996295129, 38.897552199603531 ] } },
{ "type": "Feature", "properties": { "内容": "ダスキンヘルスレント山形庄内ステーション【特定福祉用具販売】山形県酒田市京田２丁目２１番１４", "url2": "https://www.kaigokensaku.mhlw.go.jp/06/index.php?action_kouhyou_detail_004_kani=true&JigyosyoCd=0670802321-00&ServiceCd=410&Type=search" }, "geometry": { "type": "Point", "coordinates": [ 139.83595840000001, 38.8768403 ] } },
{ "type": "Feature", "properties": { "内容": "未来創造館福祉用品事業所【特定福祉用具販売】山形県酒田市東町一丁目15番地の25", "url2": "https://www.kaigokensaku.mhlw.go.jp/06/index.php?action_kouhyou_detail_004_kani=true&JigyosyoCd=0670801869-00&ServiceCd=410&Type=search" }, "geometry": { "type": "Point", "coordinates": [ 139.864829900000018, 38.9092844 ] } },
{ "type": "Feature", "properties": { "内容": "さふらん酒田南店【特定福祉用具販売】山形県酒田市中町3-2-18", "url2": "https://www.kaigokensaku.mhlw.go.jp/06/index.php?action_kouhyou_detail_004_kani=true&JigyosyoCd=0670800671-00&ServiceCd=410&Type=search" }, "geometry": { "type": "Point", "coordinates": [ 139.833887600000025, 38.9185771 ] } },
{ "type": "Feature", "properties": { "内容": "マシマ介護事業部【特定福祉用具販売】山形県酒田市京田１－２－12ホーデコマシマ酒田店内", "url2": "https://www.kaigokensaku.mhlw.go.jp/06/index.php?action_kouhyou_detail_004_kani=true&JigyosyoCd=0670802248-00&ServiceCd=410&Type=search" }, "geometry": { "type": "Point", "coordinates": [ 139.8398458, 38.8794463 ] } },
{ "type": "Feature", "properties": { "内容": "株式会社蔵王サプライズ庄内営業所【特定福祉用具販売】山形県酒田市酒田市こがね町1丁目10番地1", "url2": "https://www.kaigokensaku.mhlw.go.jp/06/index.php?action_kouhyou_detail_004_kani=true&JigyosyoCd=0670801521-00&ServiceCd=410&Type=search" }, "geometry": { "type": "Point", "coordinates": [ 139.856661984655773, 38.902440285096915 ] } },
{ "type": "Feature", "properties": { "内容": "JA庄内みどり福祉センター【特定福祉用具販売】酒田市熊手島字道の下熊興屋１７番１", "url2": "https://www.kaigokensaku.mhlw.go.jp/06/index.php?action_kouhyou_detail_004_kani=true&JigyosyoCd=0670801729-00&ServiceCd=410&Type=search" }, "geometry": { "type": "Point", "coordinates": [ 139.893676699999986, 38.9067299 ] } },
{ "type": "Feature", "properties": { "内容": "福祉用品ケア・Maru【特定福祉用具販売】山形県酒田市亀ヶ崎6-9-15福祉用品ケア・Maru", "url2": "https://www.kaigokensaku.mhlw.go.jp/06/index.php?action_kouhyou_detail_004_kani=true&JigyosyoCd=0670802354-00&ServiceCd=410&Type=search" }, "geometry": { "type": "Point", "coordinates": [ 139.8458805, 38.8967038 ] } },
{ "type": "Feature", "properties": { "内容": "ライフサポート　ぱれっと【特定福祉用具販売】山形県新庄市大字萩野字横根山101-1", "url2": "https://www.kaigokensaku.mhlw.go.jp/06/index.php?action_kouhyou_detail_004_kani=true&JigyosyoCd=0671101079-00&ServiceCd=410&Type=search" }, "geometry": { "type": "Point", "coordinates": [ 140.3290121, 38.8254569 ] } },
{ "type": "Feature", "properties": { "内容": "株式会社　医療救急サービス　ヘルスケアショップ　シープ【特定福祉用具販売】新庄市大町3-31", "url2": "https://www.kaigokensaku.mhlw.go.jp/06/index.php?action_kouhyou_detail_004_kani=true&JigyosyoCd=0671100147-00&ServiceCd=410&Type=search" }, "geometry": { "type": "Point", "coordinates": [ 140.298811500000056, 38.7623045 ] } },
{ "type": "Feature", "properties": { "内容": "株式会社蔵王サプライズ　ホームヘルスケア事業部　新庄営業所【特定福祉用具販売】山形県新庄市大字鳥越字栗田650-1", "url2": "https://www.kaigokensaku.mhlw.go.jp/06/index.php?action_kouhyou_detail_004_kani=true&JigyosyoCd=0671101053-00&ServiceCd=410&Type=search" }, "geometry": { "type": "Point", "coordinates": [ 140.309688530194052, 38.740849736631866 ] } },
{ "type": "Feature", "properties": { "内容": "さがえ西村山農業協同組合【特定福祉用具販売】山形県寒河江市大字寒河江字久保２番地ＪＡ健康福祉センター", "url2": "https://www.kaigokensaku.mhlw.go.jp/06/index.php?action_kouhyou_detail_004_kani=true&JigyosyoCd=0671200137-00&ServiceCd=410&Type=search" }, "geometry": { "type": "Point", "coordinates": [ 140.256393291957124, 38.365507350674577 ] } },
{ "type": "Feature", "properties": { "内容": "さふらん寒河江店【特定福祉用具販売】山形県寒河江市大字寒河江字塩水9番地1-2", "url2": "https://www.kaigokensaku.mhlw.go.jp/06/index.php?action_kouhyou_detail_004_kani=true&JigyosyoCd=0671200202-00&ServiceCd=410&Type=search" }, "geometry": { "type": "Point", "coordinates": [ 140.262142319110097, 38.378836899773582 ] } },
{ "type": "Feature", "properties": { "内容": "有限会社　アシスト【特定福祉用具販売】山形県寒河江市みずき1-6-4", "url2": "https://www.kaigokensaku.mhlw.go.jp/06/index.php?action_kouhyou_detail_004_kani=true&JigyosyoCd=0671200178-00&ServiceCd=410&Type=search" }, "geometry": { "type": "Point", "coordinates": [ 140.282230499999969, 38.3660432 ] } },
{ "type": "Feature", "properties": { "内容": "さふらん　上山店【特定福祉用具販売】山形県上山市十日町7-7", "url2": "https://www.kaigokensaku.mhlw.go.jp/06/index.php?action_kouhyou_detail_004_kani=true&JigyosyoCd=0671300606-00&ServiceCd=410&Type=search" }, "geometry": { "type": "Point", "coordinates": [ 140.278343437525251, 38.157920863738745 ] } },
{ "type": "Feature", "properties": { "内容": "株式会社　ウエルランド【特定福祉用具販売】山形県長井市舟場9番18号", "url2": "https://www.kaigokensaku.mhlw.go.jp/06/index.php?action_kouhyou_detail_004_kani=true&JigyosyoCd=0671500197-00&ServiceCd=410&Type=search" }, "geometry": { "type": "Point", "coordinates": [ 140.042703800000027, 38.113468 ] } },
{ "type": "Feature", "properties": { "内容": "株式会社サン十字福祉用具レンタル・販売サービス長井【特定福祉用具販売】山形県長井市栄町4-21", "url2": "https://www.kaigokensaku.mhlw.go.jp/06/index.php?action_kouhyou_detail_004_kani=true&JigyosyoCd=0671500460-00&ServiceCd=410&Type=search" }, "geometry": { "type": "Point", "coordinates": [ 140.037095865251075, 38.106881165813675 ] } },
{ "type": "Feature", "properties": { "内容": "さふらん長井店【特定福祉用具販売】山形県長井市館町南9-70", "url2": "https://www.kaigokensaku.mhlw.go.jp/06/index.php?action_kouhyou_detail_004_kani=true&JigyosyoCd=0671500320-00&ServiceCd=410&Type=search" }, "geometry": { "type": "Point", "coordinates": [ 140.042332795370868, 38.093124172644032 ] } },
{ "type": "Feature", "properties": { "内容": "ケアサービスさくら指定福祉用具貸与事業所【特定福祉用具販売】山形県長井市平山字渡り2783-4", "url2": "https://www.kaigokensaku.mhlw.go.jp/06/index.php?action_kouhyou_detail_004_kani=true&JigyosyoCd=0671500205-00&ServiceCd=410&Type=search" }, "geometry": { "type": "Point", "coordinates": [ 140.011265399999957, 38.105918 ] } },
{ "type": "Feature", "properties": { "内容": "さふらん天童店【特定福祉用具販売】山形県天童市石鳥居３番地４", "url2": "https://www.kaigokensaku.mhlw.go.jp/06/index.php?action_kouhyou_detail_004_kani=true&JigyosyoCd=0671600088-00&ServiceCd=410&Type=search" }, "geometry": { "type": "Point", "coordinates": [ 140.367970499999956, 38.3279595 ] } },
{ "type": "Feature", "properties": { "内容": "株式会社多田木工製作所ホームバリュー本店【特定福祉用具販売】天童市糠塚二丁目１番１号", "url2": "https://www.kaigokensaku.mhlw.go.jp/06/index.php?action_kouhyou_detail_004_kani=true&JigyosyoCd=0671600229-00&ServiceCd=410&Type=search" }, "geometry": { "type": "Point", "coordinates": [ 140.381910068214552, 38.365096152466563 ] } },
{ "type": "Feature", "properties": { "内容": "株式会社ライフケアサポート【特定福祉用具販売】山形県東根市温泉町一丁目13番10号", "url2": "https://www.kaigokensaku.mhlw.go.jp/06/index.php?action_kouhyou_detail_004_kani=true&JigyosyoCd=0671700094-00&ServiceCd=410&Type=search" }, "geometry": { "type": "Point", "coordinates": [ 140.391029399999979, 38.4563325 ] } },
{ "type": "Feature", "properties": { "内容": "さふらん東根店【特定福祉用具販売】山形県東根市大字蟹沢1790-2", "url2": "https://www.kaigokensaku.mhlw.go.jp/06/index.php?action_kouhyou_detail_004_kani=true&JigyosyoCd=0671700052-00&ServiceCd=410&Type=search" }, "geometry": { "type": "Point", "coordinates": [ 140.375292169172639, 38.428914419925455 ] } },
{ "type": "Feature", "properties": { "内容": "株式会社かんきょう　山形支店【特定福祉用具販売】山形県東根市大林二丁目1番３号", "url2": "https://www.kaigokensaku.mhlw.go.jp/06/index.php?action_kouhyou_detail_004_kani=true&JigyosyoCd=0671700573-00&ServiceCd=410&Type=search" }, "geometry": { "type": "Point", "coordinates": [ 140.386068469311567, 38.433794197906956 ] } },
{ "type": "Feature", "properties": { "内容": "有限会社　エヌエス・商会　福祉事業部【特定福祉用具販売】山形県尾花沢市横町二丁目2-35", "url2": "https://www.kaigokensaku.mhlw.go.jp/06/index.php?action_kouhyou_detail_004_kani=true&JigyosyoCd=0671800266-00&ServiceCd=410&Type=search" }, "geometry": { "type": "Point", "coordinates": [ 140.408926299999962, 38.6093455 ] } },
{ "type": "Feature", "properties": { "内容": "ウエルランドいいづか【特定福祉用具販売】山形県南陽市宮内4558-1", "url2": "https://www.kaigokensaku.mhlw.go.jp/06/index.php?action_kouhyou_detail_004_kani=true&JigyosyoCd=0671900314-00&ServiceCd=410&Type=search" }, "geometry": { "type": "Point", "coordinates": [ 140.134719899999936, 38.0651788 ] } },
{ "type": "Feature", "properties": { "内容": "社会医療法人公徳会　公徳会ほのぼのケアサービス【特定福祉用具販売】山形県南陽市椚塚948-1", "url2": "https://www.kaigokensaku.mhlw.go.jp/06/index.php?action_kouhyou_detail_004_kani=true&JigyosyoCd=0671900561-00&ServiceCd=410&Type=search" }, "geometry": { "type": "Point", "coordinates": [ 140.1720058, 38.043733799999984 ] } },
{ "type": "Feature", "properties": { "内容": "さふらん山辺店【特定福祉用具販売】山形県東村山郡山辺町大字山辺1272-4", "url2": "https://www.kaigokensaku.mhlw.go.jp/06/index.php?action_kouhyou_detail_004_kani=true&JigyosyoCd=0672200086-00&ServiceCd=410&Type=search" }, "geometry": { "type": "Point", "coordinates": [ 140.270402, 38.2951724 ] } },
{ "type": "Feature", "properties": { "内容": "さがえ西村山農業協同組合　縁寿【特定福祉用具販売】山形県河北町西里671-5", "url2": "https://www.kaigokensaku.mhlw.go.jp/06/index.php?action_kouhyou_detail_004_kani=true&JigyosyoCd=0672300795-00&ServiceCd=410&Type=search" }, "geometry": { "type": "Point", "coordinates": [ 140.2879395, 38.4167453 ] } },
{ "type": "Feature", "properties": { "内容": "さふらん河北店【特定福祉用具販売】山形県西村山郡河北町谷地甲23番地の1", "url2": "https://www.kaigokensaku.mhlw.go.jp/06/index.php?action_kouhyou_detail_004_kani=true&JigyosyoCd=0672300340-00&ServiceCd=410&Type=search" }, "geometry": { "type": "Point", "coordinates": [ 140.312184200000047, 38.4251988 ] } },
{ "type": "Feature", "properties": { "内容": "（有限会社）古川ケアマネージメント【特定福祉用具販売】山形県西村山郡大江町大字左沢９１６番地の８", "url2": "https://www.kaigokensaku.mhlw.go.jp/06/index.php?action_kouhyou_detail_004_kani=true&JigyosyoCd=0672300365-00&ServiceCd=410&Type=search" }, "geometry": { "type": "Point", "coordinates": [ 140.209231899999963, 38.3802814 ] } },
{ "type": "Feature", "properties": { "内容": "アインクサービスニトベ【特定福祉用具販売】山形県北村山郡大石田町大字大石田乙４２－２", "url2": "https://www.kaigokensaku.mhlw.go.jp/06/index.php?action_kouhyou_detail_004_kani=true&JigyosyoCd=0672400066-00&ServiceCd=410&Type=search" }, "geometry": { "type": "Point", "coordinates": [ 140.37230790000001, 38.5889559 ] } },
{ "type": "Feature", "properties": { "内容": "アインクサービス大石【特定福祉用具販売】山形県最上郡最上町向町５５８－１", "url2": "https://www.kaigokensaku.mhlw.go.jp/06/index.php?action_kouhyou_detail_004_kani=true&JigyosyoCd=0672500550-00&ServiceCd=410&Type=search" }, "geometry": { "type": "Point", "coordinates": [ 140.517653800000062, 38.7569756 ] } },
{ "type": "Feature", "properties": { "内容": "はっぴぃーAssist【特定福祉用具販売】山形県最上郡戸沢村大字古口253番地5", "url2": "https://www.kaigokensaku.mhlw.go.jp/06/index.php?action_kouhyou_detail_004_kani=true&JigyosyoCd=0672500816-00&ServiceCd=410&Type=search" }, "geometry": { "type": "Point", "coordinates": [ 140.1426037, 38.738001 ] } },
{ "type": "Feature", "properties": { "内容": "株式会社サン十字福祉用具レンタル・販売サービス高畠【特定福祉用具販売】高畠町高畠550-1", "url2": "https://www.kaigokensaku.mhlw.go.jp/06/index.php?action_kouhyou_detail_004_kani=true&JigyosyoCd=0672600483-00&ServiceCd=410&Type=search" }, "geometry": { "type": "Point", "coordinates": [ 140.1930294, 38.0031859 ] } },
{ "type": "Feature", "properties": { "内容": "JA山形おきたま福祉センター川西【特定福祉用具販売】山形県東置賜郡川西町上小松978-1", "url2": "https://www.kaigokensaku.mhlw.go.jp/06/index.php?action_kouhyou_detail_004_kani=true&JigyosyoCd=0672600202-00&ServiceCd=410&Type=search" }, "geometry": { "type": "Point", "coordinates": [ 140.0533749, 38.0062126 ] } },
{ "type": "Feature", "properties": { "内容": "株式会社　平山家具【特定福祉用具販売】山形県東置賜郡川西町大字上小松３４７１番地７", "url2": "https://www.kaigokensaku.mhlw.go.jp/06/index.php?action_kouhyou_detail_004_kani=true&JigyosyoCd=0672600186-00&ServiceCd=410&Type=search" }, "geometry": { "type": "Point", "coordinates": [ 140.043164700000034, 38.0061792 ] } },
{ "type": "Feature", "properties": { "内容": "ヘルズ【特定福祉用具販売】山形県西置賜郡白鷹町大字荒砥乙７３４-１３", "url2": "https://www.kaigokensaku.mhlw.go.jp/06/index.php?action_kouhyou_detail_004_kani=true&JigyosyoCd=0672700242-00&ServiceCd=410&Type=search" }, "geometry": { "type": "Point", "coordinates": [ 140.103787199999942, 38.1818647 ] } },
{ "type": "Feature", "properties": { "内容": "合同会社メディカルサポート　山形ＭＥセンター【特定福祉用具販売】山形県東田川郡三川町青山字外川原234-1", "url2": "https://www.kaigokensaku.mhlw.go.jp/06/index.php?action_kouhyou_detail_004_kani=true&JigyosyoCd=0673000865-00&ServiceCd=410&Type=search" }, "geometry": { "type": "Point", "coordinates": [ 139.841150214155562, 38.790886380932605 ] } },
{ "type": "Feature", "properties": { "内容": "アインクサービスオビヤ【特定福祉用具販売】山形県飽海郡遊佐町遊佐字京田14-6", "url2": "https://www.kaigokensaku.mhlw.go.jp/06/index.php?action_kouhyou_detail_004_kani=true&JigyosyoCd=0673200358-00&ServiceCd=410&Type=search" }, "geometry": { "type": "Point", "coordinates": [ 139.9073548, 39.0176017 ] } }
]
}
