{
"type": "FeatureCollection",
"name": "geo_06_地域密着型介護老人福祉施設入所者生活介護",
"crs": { "type": "name", "properties": { "name": "urn:ogc:def:crs:OGC:1.3:CRS84" } },
"features": [
{ "type": "Feature", "properties": { "内容": "小規模特別養護老人ホーム「あっぷるの里久保田」【地域密着型介護老人福祉施設入所者生活介護】山形県山形市久保田一丁目７番７号", "url2": "https://www.kaigokensaku.mhlw.go.jp/06/index.php?action_kouhyou_detail_004_kani=true&JigyosyoCd=0690100391-00&ServiceCd=540&Type=search" }, "geometry": { "type": "Point", "coordinates": [ 140.318712199999936, 38.2484141 ] } },
{ "type": "Feature", "properties": { "内容": "小規模特別養護老人ホーム　福寿草小荷駄町【地域密着型介護老人福祉施設入所者生活介護】山形県山形市小荷駄町１２番４６号", "url2": "https://www.kaigokensaku.mhlw.go.jp/06/index.php?action_kouhyou_detail_004_kani=true&JigyosyoCd=0690100300-00&ServiceCd=540&Type=search" }, "geometry": { "type": "Point", "coordinates": [ 140.3427825, 38.238013 ] } },
{ "type": "Feature", "properties": { "内容": "特別養護老人ホームちとせノ杜【地域密着型介護老人福祉施設入所者生活介護】山形市落合町２０５", "url2": "https://www.kaigokensaku.mhlw.go.jp/06/index.php?action_kouhyou_detail_004_kani=true&JigyosyoCd=0690100292-00&ServiceCd=540&Type=search" }, "geometry": { "type": "Point", "coordinates": [ 140.350533600000063, 38.283716599999984 ] } },
{ "type": "Feature", "properties": { "内容": "特別養護老人ホーム　べにはなノ杜【地域密着型介護老人福祉施設入所者生活介護】山形県山形市大字大森853番地", "url2": "https://www.kaigokensaku.mhlw.go.jp/06/index.php?action_kouhyou_detail_004_kani=true&JigyosyoCd=0690100540-00&ServiceCd=540&Type=search" }, "geometry": { "type": "Point", "coordinates": [ 140.386328156066838, 38.31140672825061 ] } },
{ "type": "Feature", "properties": { "内容": "特別養護老人ホームせん寿ノ杜【地域密着型介護老人福祉施設入所者生活介護】山形県山形市漆山字住吉715", "url2": "https://www.kaigokensaku.mhlw.go.jp/06/index.php?action_kouhyou_detail_004_kani=true&JigyosyoCd=0690100649-00&ServiceCd=540&Type=search" }, "geometry": { "type": "Point", "coordinates": [ 140.3516055, 38.3098695 ] } },
{ "type": "Feature", "properties": { "内容": "社会福祉法人　ユトリア会　ユトリアケアセンターかすみ【地域密着型介護老人福祉施設入所者生活介護】山形県山形市香澄町二丁目３番３２号", "url2": "https://www.kaigokensaku.mhlw.go.jp/06/index.php?action_kouhyou_detail_004_kani=true&JigyosyoCd=0690100359-00&ServiceCd=540&Type=search" }, "geometry": { "type": "Point", "coordinates": [ 140.332627600000023, 38.2469563 ] } },
{ "type": "Feature", "properties": { "内容": "ユトリアケアセンターなりさわ【地域密着型介護老人福祉施設入所者生活介護】山形県山形市成沢西四丁目2番20号", "url2": "https://www.kaigokensaku.mhlw.go.jp/06/index.php?action_kouhyou_detail_004_kani=true&JigyosyoCd=0690100664-00&ServiceCd=540&Type=search" }, "geometry": { "type": "Point", "coordinates": [ 140.316813599999932, 38.2071345 ] } },
{ "type": "Feature", "properties": { "内容": "特別養護老人ホーム滝山なごみの里【地域密着型介護老人福祉施設入所者生活介護】山形県山形市東青田二丁目6番4号", "url2": "https://www.kaigokensaku.mhlw.go.jp/06/index.php?action_kouhyou_detail_004_kani=true&JigyosyoCd=0690100169-00&ServiceCd=540&Type=search" }, "geometry": { "type": "Point", "coordinates": [ 140.341260899999952, 38.2255891 ] } },
{ "type": "Feature", "properties": { "内容": "特別養護老人ホーム飯塚なごみの里【地域密着型介護老人福祉施設入所者生活介護】山形県山形市飯塚町１,４４７番地４", "url2": "https://www.kaigokensaku.mhlw.go.jp/06/index.php?action_kouhyou_detail_004_kani=true&JigyosyoCd=0690100201-00&ServiceCd=540&Type=search" }, "geometry": { "type": "Point", "coordinates": [ 140.300544700000046, 38.2555296 ] } },
{ "type": "Feature", "properties": { "内容": "やすらぎの里金井【地域密着型介護老人福祉施設入所者生活介護】山形市内表東1番地", "url2": "https://www.kaigokensaku.mhlw.go.jp/06/index.php?action_kouhyou_detail_004_kani=true&JigyosyoCd=0690100078-00&ServiceCd=540&Type=search" }, "geometry": { "type": "Point", "coordinates": [ 140.307257099999987, 38.2871295 ] } },
{ "type": "Feature", "properties": { "内容": "特別養護老人ホーム沼木敬寿園【地域密着型介護老人福祉施設入所者生活介護】山形県山形市大字沼木68-1", "url2": "https://www.kaigokensaku.mhlw.go.jp/06/index.php?action_kouhyou_detail_004_kani=true&JigyosyoCd=0690100375-00&ServiceCd=540&Type=search" }, "geometry": { "type": "Point", "coordinates": [ 140.291423900000041, 38.2444359 ] } },
{ "type": "Feature", "properties": { "内容": "特別養護老人ホーム鈴川敬寿園【地域密着型介護老人福祉施設入所者生活介護】山形市大野目２丁目２－６７", "url2": "https://www.kaigokensaku.mhlw.go.jp/06/index.php?action_kouhyou_detail_004_kani=true&JigyosyoCd=0690100136-00&ServiceCd=540&Type=search" }, "geometry": { "type": "Point", "coordinates": [ 140.3565886, 38.2776505 ] } },
{ "type": "Feature", "properties": { "内容": "特別養護老人ホームあかしや共生苑【地域密着型介護老人福祉施設入所者生活介護】山形県山形市桧町３－４－１７", "url2": "https://www.kaigokensaku.mhlw.go.jp/06/index.php?action_kouhyou_detail_004_kani=true&JigyosyoCd=0690100805-00&ServiceCd=540&Type=search" }, "geometry": { "type": "Point", "coordinates": [ 140.327985600000034, 38.2748756 ] } },
{ "type": "Feature", "properties": { "内容": "地域密着型特別養護老人ホームサンシャイン大森【地域密着型介護老人福祉施設入所者生活介護】山形市大森2139番地1", "url2": "https://www.kaigokensaku.mhlw.go.jp/06/index.php?action_kouhyou_detail_004_kani=true&JigyosyoCd=0690100532-00&ServiceCd=540&Type=search" }, "geometry": { "type": "Point", "coordinates": [ 140.38657760000001, 38.3069126 ] } },
{ "type": "Feature", "properties": { "内容": "小規模特別養護老人ホームみこころの園南山形【地域密着型介護老人福祉施設入所者生活介護】山形県山形市大字松原字横手779番地1", "url2": "https://www.kaigokensaku.mhlw.go.jp/06/index.php?action_kouhyou_detail_004_kani=true&JigyosyoCd=0690100565-00&ServiceCd=540&Type=search" }, "geometry": { "type": "Point", "coordinates": [ 140.301954130024711, 38.207271609439069 ] } },
{ "type": "Feature", "properties": { "内容": "小規模特別養護老人ホーム　東部の郷【地域密着型介護老人福祉施設入所者生活介護】山形県山形市松波三丁目４番５号ケアセンター松波", "url2": "https://www.kaigokensaku.mhlw.go.jp/06/index.php?action_kouhyou_detail_004_kani=true&JigyosyoCd=0690100557-00&ServiceCd=540&Type=search" }, "geometry": { "type": "Point", "coordinates": [ 140.367560700000013, 38.2423687 ] } },
{ "type": "Feature", "properties": { "内容": "小規模特別養護老人ホーム大曽根【地域密着型介護老人福祉施設入所者生活介護】山形県山形市大字上反田８１１－１", "url2": "https://www.kaigokensaku.mhlw.go.jp/06/index.php?action_kouhyou_detail_004_kani=true&JigyosyoCd=0690100623-00&ServiceCd=540&Type=search" }, "geometry": { "type": "Point", "coordinates": [ 140.256553976721193, 38.268884752339773 ] } },
{ "type": "Feature", "properties": { "内容": "地域密着型特別養護老人ホーム回春堂【地域密着型介護老人福祉施設入所者生活介護】大字花沢2986番地の1", "url2": "https://www.kaigokensaku.mhlw.go.jp/06/index.php?action_kouhyou_detail_004_kani=true&JigyosyoCd=0690400338-00&ServiceCd=540&Type=search" }, "geometry": { "type": "Point", "coordinates": [ 140.123850299999987, 37.9219953 ] } },
{ "type": "Feature", "properties": { "内容": "地域密着型特別養護老人ホームあづま【地域密着型介護老人福祉施設入所者生活介護】山形県米沢市大字李山8132番地11", "url2": "https://www.kaigokensaku.mhlw.go.jp/06/index.php?action_kouhyou_detail_004_kani=true&JigyosyoCd=0690400320-00&ServiceCd=540&Type=search" }, "geometry": { "type": "Point", "coordinates": [ 140.098130860713212, 37.860414909206895 ] } },
{ "type": "Feature", "properties": { "内容": "特別養護老人ホームぶなの杜【地域密着型介護老人福祉施設入所者生活介護】鶴岡市熊出字東村152-1", "url2": "https://www.kaigokensaku.mhlw.go.jp/06/index.php?action_kouhyou_detail_004_kani=true&JigyosyoCd=0690700083-00&ServiceCd=540&Type=search" }, "geometry": { "type": "Point", "coordinates": [ 139.851254499999982, 38.6341556 ] } },
{ "type": "Feature", "properties": { "内容": "地域密着型特別養護老人ホーム思恩【地域密着型介護老人福祉施設入所者生活介護】鶴岡市馬町字枇杷川原23番地", "url2": "https://www.kaigokensaku.mhlw.go.jp/06/index.php?action_kouhyou_detail_004_kani=true&JigyosyoCd=0690700422-00&ServiceCd=540&Type=search" }, "geometry": { "type": "Point", "coordinates": [ 139.767973558999614, 38.763429332100571 ] } },
{ "type": "Feature", "properties": { "内容": "小規模特別養護老人ホームともえ【地域密着型介護老人福祉施設入所者生活介護】山形県鶴岡市北茅原町17番1号恵泉会シニアサポートともえ", "url2": "https://www.kaigokensaku.mhlw.go.jp/06/index.php?action_kouhyou_detail_004_kani=true&JigyosyoCd=0690700380-00&ServiceCd=540&Type=search" }, "geometry": { "type": "Point", "coordinates": [ 139.842483047155014, 38.757948909483744 ] } },
{ "type": "Feature", "properties": { "内容": "サテライト池幸園【地域密着型介護老人福祉施設入所者生活介護】山形県鶴岡市陽光町9番20号", "url2": "https://www.kaigokensaku.mhlw.go.jp/06/index.php?action_kouhyou_detail_004_kani=true&JigyosyoCd=0690700307-00&ServiceCd=540&Type=search" }, "geometry": { "type": "Point", "coordinates": [ 139.815692899999931, 38.725086 ] } },
{ "type": "Feature", "properties": { "内容": "特別養護老人ホームかけはし【地域密着型介護老人福祉施設入所者生活介護】山形県鶴岡市民田字代家田９９－１", "url2": "https://www.kaigokensaku.mhlw.go.jp/06/index.php?action_kouhyou_detail_004_kani=true&JigyosyoCd=0690700125-00&ServiceCd=540&Type=search" }, "geometry": { "type": "Point", "coordinates": [ 139.8265814, 38.7047771 ] } },
{ "type": "Feature", "properties": { "内容": "地域密着型小規模特別養護老人ホームめぐみの郷しらやま【地域密着型介護老人福祉施設入所者生活介護】山形県鶴岡市白山字西木村101番地1", "url2": "https://www.kaigokensaku.mhlw.go.jp/06/index.php?action_kouhyou_detail_004_kani=true&JigyosyoCd=0690700232-00&ServiceCd=540&Type=search" }, "geometry": { "type": "Point", "coordinates": [ 139.779787021925671, 38.723222422302449 ] } },
{ "type": "Feature", "properties": { "内容": "特別養護老人ホームグランパ・グランマ【地域密着型介護老人福祉施設入所者生活介護】山形県酒田市新橋3丁目1番地の1", "url2": "https://www.kaigokensaku.mhlw.go.jp/06/index.php?action_kouhyou_detail_004_kani=true&JigyosyoCd=0690800396-00&ServiceCd=540&Type=search" }, "geometry": { "type": "Point", "coordinates": [ 139.8518731, 38.9165579 ] } },
{ "type": "Feature", "properties": { "内容": "地域密着型介護老人福祉施設あおい【地域密着型介護老人福祉施設入所者生活介護】山形県酒田市緑ヶ丘2-16-1", "url2": "https://www.kaigokensaku.mhlw.go.jp/06/index.php?action_kouhyou_detail_004_kani=true&JigyosyoCd=0690800248-00&ServiceCd=540&Type=search" }, "geometry": { "type": "Point", "coordinates": [ 139.808598500000016, 38.8964512 ] } },
{ "type": "Feature", "properties": { "内容": "地域密着型特別養護老人ホームサン・シティII【地域密着型介護老人福祉施設入所者生活介護】山形県酒田市曙町二丁目28番地の５", "url2": "https://www.kaigokensaku.mhlw.go.jp/06/index.php?action_kouhyou_detail_004_kani=true&JigyosyoCd=0690800206-00&ServiceCd=540&Type=search" }, "geometry": { "type": "Point", "coordinates": [ 139.863063199999942, 38.9189807 ] } },
{ "type": "Feature", "properties": { "内容": "地域密着型特別養護老人ホームあずま【地域密着型介護老人福祉施設入所者生活介護】山形県酒田市生石字奥山155番地１地域密着型特別養護老人ホームあずま", "url2": "https://www.kaigokensaku.mhlw.go.jp/06/index.php?action_kouhyou_detail_004_kani=true&JigyosyoCd=0690800339-00&ServiceCd=540&Type=search" }, "geometry": { "type": "Point", "coordinates": [ 139.940125, 38.9222768 ] } },
{ "type": "Feature", "properties": { "内容": "小規模特別養護老人ホーム　ライフケア黒森【地域密着型介護老人福祉施設入所者生活介護】山形県酒田市黒森字葭葉山５４番１０", "url2": "https://www.kaigokensaku.mhlw.go.jp/06/index.php?action_kouhyou_detail_004_kani=true&JigyosyoCd=0690800289-00&ServiceCd=540&Type=search" }, "geometry": { "type": "Point", "coordinates": [ 139.816974100000039, 38.853046 ] } },
{ "type": "Feature", "properties": { "内容": "特別養護老人ホーム醍醐【地域密着型介護老人福祉施設入所者生活介護】山形県寒河江市慈恩寺235番地", "url2": "https://www.kaigokensaku.mhlw.go.jp/06/index.php?action_kouhyou_detail_004_kani=true&JigyosyoCd=0691200091-00&ServiceCd=540&Type=search" }, "geometry": { "type": "Point", "coordinates": [ 140.255225721348552, 38.406859142741752 ] } },
{ "type": "Feature", "properties": { "内容": "特別養護老人ホームさくら【地域密着型介護老人福祉施設入所者生活介護】山形県寒河江市大字白岩112番地の62", "url2": "https://www.kaigokensaku.mhlw.go.jp/06/index.php?action_kouhyou_detail_004_kani=true&JigyosyoCd=0691200158-00&ServiceCd=540&Type=search" }, "geometry": { "type": "Point", "coordinates": [ 140.2310817, 38.408048 ] } },
{ "type": "Feature", "properties": { "内容": "地域密着型特別養護老人ホーム長生園【地域密着型介護老人福祉施設入所者生活介護】山形県寒河江市大字柴橋２２４６番地の１", "url2": "https://www.kaigokensaku.mhlw.go.jp/06/index.php?action_kouhyou_detail_004_kani=true&JigyosyoCd=0691200133-00&ServiceCd=540&Type=search" }, "geometry": { "type": "Point", "coordinates": [ 140.2543091, 38.3695606 ] } },
{ "type": "Feature", "properties": { "内容": "地域密着型特別養護老人ホームさがえ【地域密着型介護老人福祉施設入所者生活介護】寒河江市大字白岩6330番地の1", "url2": "https://www.kaigokensaku.mhlw.go.jp/06/index.php?action_kouhyou_detail_004_kani=true&JigyosyoCd=0691200109-00&ServiceCd=540&Type=search" }, "geometry": { "type": "Point", "coordinates": [ 140.220867610775713, 38.40959168059841 ] } },
{ "type": "Feature", "properties": { "内容": "地域密着型特別養護老人ホームみずほの里【地域密着型介護老人福祉施設入所者生活介護】山形県上山市牧野字清水21-1", "url2": "https://www.kaigokensaku.mhlw.go.jp/06/index.php?action_kouhyou_detail_004_kani=true&JigyosyoCd=0691300073-00&ServiceCd=540&Type=search" }, "geometry": { "type": "Point", "coordinates": [ 140.301631300000054, 38.1158696 ] } },
{ "type": "Feature", "properties": { "内容": "地域密着型特別養護老人ホームながすずの里【地域密着型介護老人福祉施設入所者生活介護】山形県上山市長清水2丁目5番19号", "url2": "https://www.kaigokensaku.mhlw.go.jp/06/index.php?action_kouhyou_detail_004_kani=true&JigyosyoCd=0691300040-00&ServiceCd=540&Type=search" }, "geometry": { "type": "Point", "coordinates": [ 140.273644989058596, 38.140976544978258 ] } },
{ "type": "Feature", "properties": { "内容": "地域密着型特別養護老人ホーム袖崎【地域密着型介護老人福祉施設入所者生活介護】山形県村山市大字土生田２６０−４", "url2": "https://www.kaigokensaku.mhlw.go.jp/06/index.php?action_kouhyou_detail_004_kani=true&JigyosyoCd=0691400063-00&ServiceCd=540&Type=search" }, "geometry": { "type": "Point", "coordinates": [ 140.400975300000027, 38.5435626 ] } },
{ "type": "Feature", "properties": { "内容": "地域密着型特別養護老人ホームむらやま【地域密着型介護老人福祉施設入所者生活介護】山形県村山市中央二丁目３番４６号", "url2": "https://www.kaigokensaku.mhlw.go.jp/06/index.php?action_kouhyou_detail_004_kani=true&JigyosyoCd=0691400055-00&ServiceCd=540&Type=search" }, "geometry": { "type": "Point", "coordinates": [ 140.375286299999971, 38.4826771 ] } },
{ "type": "Feature", "properties": { "内容": "小規模特別養護老人ホームはやまホーム【地域密着型介護老人福祉施設入所者生活介護】村山市大字湯野沢1881番地の6", "url2": "https://www.kaigokensaku.mhlw.go.jp/06/index.php?action_kouhyou_detail_004_kani=true&JigyosyoCd=0691400014-00&ServiceCd=540&Type=search" }, "geometry": { "type": "Point", "coordinates": [ 140.318539083467158, 38.47187639768736 ] } },
{ "type": "Feature", "properties": { "内容": "地域密着型特別養護老人ホーム野の香【地域密着型介護老人福祉施設入所者生活介護】長井市館町南９番６３号", "url2": "https://www.kaigokensaku.mhlw.go.jp/06/index.php?action_kouhyou_detail_004_kani=true&JigyosyoCd=0691500052-00&ServiceCd=540&Type=search" }, "geometry": { "type": "Point", "coordinates": [ 140.0426271, 38.092676 ] } },
{ "type": "Feature", "properties": { "内容": "特別養護老人ホームつるかめの縁【地域密着型介護老人福祉施設入所者生活介護】山形県天童市大字小関７７番地１", "url2": "https://www.kaigokensaku.mhlw.go.jp/06/index.php?action_kouhyou_detail_004_kani=true&JigyosyoCd=0691600142-00&ServiceCd=540&Type=search" }, "geometry": { "type": "Point", "coordinates": [ 140.365984608598296, 38.370435210178002 ] } },
{ "type": "Feature", "properties": { "内容": "地域密着型特別養護老人ホーム　きらめきの里【地域密着型介護老人福祉施設入所者生活介護】山形県天童市大字山口４５４０－１", "url2": "https://www.kaigokensaku.mhlw.go.jp/06/index.php?action_kouhyou_detail_004_kani=true&JigyosyoCd=0691600118-00&ServiceCd=540&Type=search" }, "geometry": { "type": "Point", "coordinates": [ 140.408921299999946, 38.3864044 ] } },
{ "type": "Feature", "properties": { "内容": "地域密着型特別養護老人ホーム清幸園【地域密着型介護老人福祉施設入所者生活介護】山形県天童市大字大清水491番地1", "url2": "https://www.kaigokensaku.mhlw.go.jp/06/index.php?action_kouhyou_detail_004_kani=true&JigyosyoCd=0691600092-00&ServiceCd=540&Type=search" }, "geometry": { "type": "Point", "coordinates": [ 140.352769699999953, 38.3875534 ] } },
{ "type": "Feature", "properties": { "内容": "地域密着型特別養護老人ホームたかだま【地域密着型介護老人福祉施設入所者生活介護】山形県天童市大字清池１５５９番１", "url2": "https://www.kaigokensaku.mhlw.go.jp/06/index.php?action_kouhyou_detail_004_kani=true&JigyosyoCd=0691600084-00&ServiceCd=540&Type=search" }, "geometry": { "type": "Point", "coordinates": [ 140.352644571025081, 38.329714659612485 ] } },
{ "type": "Feature", "properties": { "内容": "地域密着型特別養護老人ホーム本丸ホーム【地域密着型介護老人福祉施設入所者生活介護】山形県東根市本丸南1-10-16", "url2": "https://www.kaigokensaku.mhlw.go.jp/06/index.php?action_kouhyou_detail_004_kani=true&JigyosyoCd=0691700025-00&ServiceCd=540&Type=search" }, "geometry": { "type": "Point", "coordinates": [ 140.39977870000007, 38.4418368 ] } },
{ "type": "Feature", "properties": { "内容": "特別養護老人ホームつばさノ杜【地域密着型介護老人福祉施設入所者生活介護】山形県南陽市若狭郷屋８１１番地の１", "url2": "https://www.kaigokensaku.mhlw.go.jp/06/index.php?action_kouhyou_detail_004_kani=true&JigyosyoCd=0691900104-00&ServiceCd=540&Type=search" }, "geometry": { "type": "Point", "coordinates": [ 140.145975604893465, 38.052352635739837 ] } },
{ "type": "Feature", "properties": { "内容": "桜の里双葉【地域密着型介護老人福祉施設入所者生活介護】南陽市椚塚１６９０", "url2": "https://www.kaigokensaku.mhlw.go.jp/06/index.php?action_kouhyou_detail_004_kani=true&JigyosyoCd=0691900054-00&ServiceCd=540&Type=search" }, "geometry": { "type": "Point", "coordinates": [ 140.159713399999987, 38.0452257 ] } },
{ "type": "Feature", "properties": { "内容": "地域密着型特別養護老人ホームやまのべ荘【地域密着型介護老人福祉施設入所者生活介護】山形県東村山郡山辺町大字大塚８１４番地の２", "url2": "https://www.kaigokensaku.mhlw.go.jp/06/index.php?action_kouhyou_detail_004_kani=true&JigyosyoCd=0692200017-00&ServiceCd=540&Type=search" }, "geometry": { "type": "Point", "coordinates": [ 140.27461310000001, 38.2788934 ] } },
{ "type": "Feature", "properties": { "内容": "中山ひまわり荘指定地域密着型介護老人福祉施設【地域密着型介護老人福祉施設入所者生活介護】山形県東村山郡中山町大字柳沢2333番地", "url2": "https://www.kaigokensaku.mhlw.go.jp/06/index.php?action_kouhyou_detail_004_kani=true&JigyosyoCd=0692200025-00&ServiceCd=540&Type=search" }, "geometry": { "type": "Point", "coordinates": [ 140.259755700000028, 38.3292051 ] } },
{ "type": "Feature", "properties": { "内容": "地域密着型特別養護老人ホームひいなの里【地域密着型介護老人福祉施設入所者生活介護】山形県西村山郡河北町谷地字月山堂１２１７－５", "url2": "https://www.kaigokensaku.mhlw.go.jp/06/index.php?action_kouhyou_detail_004_kani=true&JigyosyoCd=0692300023-00&ServiceCd=540&Type=search" }, "geometry": { "type": "Point", "coordinates": [ 140.308585, 38.4126332 ] } },
{ "type": "Feature", "properties": { "内容": "地域密着型特別養護老人ホーム眺葉の家【地域密着型介護老人福祉施設入所者生活介護】山形県西村山郡河北町谷地字東685番地", "url2": "https://www.kaigokensaku.mhlw.go.jp/06/index.php?action_kouhyou_detail_004_kani=true&JigyosyoCd=0692300106-00&ServiceCd=540&Type=search" }, "geometry": { "type": "Point", "coordinates": [ 140.322686100000027, 38.425088 ] } },
{ "type": "Feature", "properties": { "内容": "地域密着型特別養護老人ホームソーレ大石田【地域密着型介護老人福祉施設入所者生活介護】山形県北村山郡大石田町大字大石田駒籠４１３番地", "url2": "https://www.kaigokensaku.mhlw.go.jp/06/index.php?action_kouhyou_detail_004_kani=true&JigyosyoCd=0692400013-00&ServiceCd=540&Type=search" }, "geometry": { "type": "Point", "coordinates": [ 140.338133047888192, 38.626190689821485 ] } },
{ "type": "Feature", "properties": { "内容": "地域密着型介護老人福祉施設ほなみ【地域密着型介護老人福祉施設入所者生活介護】山形県最上郡舟形町舟形４２番地１", "url2": "https://www.kaigokensaku.mhlw.go.jp/06/index.php?action_kouhyou_detail_004_kani=true&JigyosyoCd=0692500044-00&ServiceCd=540&Type=search" }, "geometry": { "type": "Point", "coordinates": [ 140.3224788, 38.6906833 ] } },
{ "type": "Feature", "properties": { "内容": "地域密着型特別養護老人ホーム「悠悠」【地域密着型介護老人福祉施設入所者生活介護】山形県最上郡真室川町大字新町４６９番５", "url2": "https://www.kaigokensaku.mhlw.go.jp/06/index.php?action_kouhyou_detail_004_kani=true&JigyosyoCd=0692500069-00&ServiceCd=540&Type=search" }, "geometry": { "type": "Point", "coordinates": [ 140.2476514, 38.8513072 ] } },
{ "type": "Feature", "properties": { "内容": "特別養護老人ホーム　マイスカイ中山【地域密着型介護老人福祉施設入所者生活介護】西置賜郡白鷹町大字中山２７６０番地", "url2": "https://www.kaigokensaku.mhlw.go.jp/06/index.php?action_kouhyou_detail_004_kani=true&JigyosyoCd=0692700032-00&ServiceCd=540&Type=search" }, "geometry": { "type": "Point", "coordinates": [ 140.147580799999986, 38.23384930000001 ] } },
{ "type": "Feature", "properties": { "内容": "地域密着型特別養護老人ホームひめさゆりの丘【地域密着型介護老人福祉施設入所者生活介護】山形県西置賜郡飯豊町大字添川3514番地82", "url2": "https://www.kaigokensaku.mhlw.go.jp/06/index.php?action_kouhyou_detail_004_kani=true&JigyosyoCd=0692700040-00&ServiceCd=540&Type=search" }, "geometry": { "type": "Point", "coordinates": [ 140.029609, 38.0297904 ] } },
{ "type": "Feature", "properties": { "内容": "ユニット型地域密着型特別養護老人ホームなの花荘【地域密着型介護老人福祉施設入所者生活介護】山形県東田川郡三川町大字横山字堤１８９番地２", "url2": "https://www.kaigokensaku.mhlw.go.jp/06/index.php?action_kouhyou_detail_004_kani=true&JigyosyoCd=0693000069-00&ServiceCd=540&Type=search" }, "geometry": { "type": "Point", "coordinates": [ 139.8493075, 38.7817436 ] } },
{ "type": "Feature", "properties": { "内容": "地域密着型　特別養護老人ホーム　ラ・ルーナ【地域密着型介護老人福祉施設入所者生活介護】山形県東田川郡庄内町余目字矢口　92番地1", "url2": "https://www.kaigokensaku.mhlw.go.jp/06/index.php?action_kouhyou_detail_004_kani=true&JigyosyoCd=0693000077-00&ServiceCd=540&Type=search" }, "geometry": { "type": "Point", "coordinates": [ 139.90850649999993, 38.8393633 ] } },
{ "type": "Feature", "properties": { "内容": "特別養護老人ホームにしだて【地域密着型介護老人福祉施設入所者生活介護】山形県飽海郡遊佐町吹浦字西楯２３番地の９", "url2": "https://www.kaigokensaku.mhlw.go.jp/06/index.php?action_kouhyou_detail_004_kani=true&JigyosyoCd=0693200032-00&ServiceCd=540&Type=search" }, "geometry": { "type": "Point", "coordinates": [ 139.874639500000058, 39.0766412 ] } },
{ "type": "Feature", "properties": { "内容": "特別養護老人ホーム松濤荘【地域密着型介護老人福祉施設入所者生活介護】山形県飽海郡遊佐町菅里字菅野南山７番地１", "url2": "https://www.kaigokensaku.mhlw.go.jp/06/index.php?action_kouhyou_detail_004_kani=true&JigyosyoCd=0693200024-00&ServiceCd=540&Type=search" }, "geometry": { "type": "Point", "coordinates": [ 139.878132, 39.0467673 ] } }
]
}
