{
"type": "FeatureCollection",
"name": "geo_06_訪問リハビリテーション",
"crs": { "type": "name", "properties": { "name": "urn:ogc:def:crs:OGC:1.3:CRS84" } },
"features": [
{ "type": "Feature", "properties": { "内容": "医療法人徳洲会山形徳洲会病院【訪問リハビリテーション】山形市清住町2丁目3-51", "url2": "https://www.kaigokensaku.mhlw.go.jp/06/index.php?action_kouhyou_detail_004_kani=true&JigyosyoCd=0610114894-00&ServiceCd=140&Type=search" }, "geometry": { "type": "Point", "coordinates": [ 140.311796100000038, 38.2561827 ] } },
{ "type": "Feature", "properties": { "内容": "さとう花の森呼吸器内科クリニック訪問リハビリテーションそらいろ【訪問リハビリテーション】山形県山形市馬見ヶ崎3丁目8番35号", "url2": "https://www.kaigokensaku.mhlw.go.jp/06/index.php?action_kouhyou_detail_004_kani=true&JigyosyoCd=0610116659-00&ServiceCd=140&Type=search" }, "geometry": { "type": "Point", "coordinates": [ 140.3276454, 38.2805465 ] } },
{ "type": "Feature", "properties": { "内容": "至誠堂総合病院【訪問リハビリテーション】山形市桜町7番44号", "url2": "https://www.kaigokensaku.mhlw.go.jp/06/index.php?action_kouhyou_detail_004_kani=true&JigyosyoCd=0610111239-00&ServiceCd=140&Type=search" }, "geometry": { "type": "Point", "coordinates": [ 140.3328029, 38.2537754 ] } },
{ "type": "Feature", "properties": { "内容": "介護老人保健施設さくらパレス【訪問リハビリテーション】山形県山形市桜田西四丁目３番２６号", "url2": "https://www.kaigokensaku.mhlw.go.jp/06/index.php?action_kouhyou_detail_004_kani=true&JigyosyoCd=0650180011-00&ServiceCd=140&Type=search" }, "geometry": { "type": "Point", "coordinates": [ 140.319177399999944, 38.2184651 ] } },
{ "type": "Feature", "properties": { "内容": "訪問診療クリニックやまがた【訪問リハビリテーション】山形県山形市銅町2-13-11", "url2": "https://www.kaigokensaku.mhlw.go.jp/06/index.php?action_kouhyou_detail_004_kani=true&JigyosyoCd=0610116535-00&ServiceCd=140&Type=search" }, "geometry": { "type": "Point", "coordinates": [ 140.33977440000001, 38.2719964 ] } },
{ "type": "Feature", "properties": { "内容": "医療法人よこやまクリニック訪問リハビリテーション【訪問リハビリテーション】米沢市東1丁目3-21", "url2": "https://www.kaigokensaku.mhlw.go.jp/06/index.php?action_kouhyou_detail_004_kani=true&JigyosyoCd=0670402114-00&ServiceCd=140&Type=search" }, "geometry": { "type": "Point", "coordinates": [ 140.128047, 37.9041093 ] } },
{ "type": "Feature", "properties": { "内容": "特定医療法人　舟山病院【訪問リハビリテーション】山形県米沢市駅前2-4-8", "url2": "https://www.kaigokensaku.mhlw.go.jp/06/index.php?action_kouhyou_detail_004_kani=true&JigyosyoCd=0610410219-00&ServiceCd=140&Type=search" }, "geometry": { "type": "Point", "coordinates": [ 140.122065341802909, 37.909498586587368 ] } },
{ "type": "Feature", "properties": { "内容": "三友堂訪問リハビリテーション【訪問リハビリテーション】山形県米沢市福田町２丁目１番５５号", "url2": "https://www.kaigokensaku.mhlw.go.jp/06/index.php?action_kouhyou_detail_004_kani=true&JigyosyoCd=0610411761-00&ServiceCd=140&Type=search" }, "geometry": { "type": "Point", "coordinates": [ 140.119665433729551, 37.903413512467914 ] } },
{ "type": "Feature", "properties": { "内容": "介護老人保健施設あづま【訪問リハビリテーション】山形県米沢市大字李山8132番地11", "url2": "https://www.kaigokensaku.mhlw.go.jp/06/index.php?action_kouhyou_detail_004_kani=true&JigyosyoCd=0650480015-00&ServiceCd=140&Type=search" }, "geometry": { "type": "Point", "coordinates": [ 140.098289499999964, 37.8609767 ] } },
{ "type": "Feature", "properties": { "内容": "サテライト老健のぞみ【訪問リハビリテーション】山形県鶴岡市日枝字小真木原116-8サテライト老健のぞみ", "url2": "https://www.kaigokensaku.mhlw.go.jp/06/index.php?action_kouhyou_detail_004_kani=true&JigyosyoCd=0650780042-00&ServiceCd=140&Type=search" }, "geometry": { "type": "Point", "coordinates": [ 139.8125708, 38.7116043 ] } },
{ "type": "Feature", "properties": { "内容": "鶴岡協立リハビリテーション病院【訪問リハビリテーション】鶴岡市上山添字神明前38", "url2": "https://www.kaigokensaku.mhlw.go.jp/06/index.php?action_kouhyou_detail_004_kani=true&JigyosyoCd=0610712093-00&ServiceCd=140&Type=search" }, "geometry": { "type": "Point", "coordinates": [ 139.839833900000031, 38.6828134 ] } },
{ "type": "Feature", "properties": { "内容": "サテライト老健ちわら【訪問リハビリテーション】山形県鶴岡市北茅原町5番10号サテライト老健ちわら", "url2": "https://www.kaigokensaku.mhlw.go.jp/06/index.php?action_kouhyou_detail_004_kani=true&JigyosyoCd=0650780067-00&ServiceCd=140&Type=search" }, "geometry": { "type": "Point", "coordinates": [ 139.8409373, 38.7546846 ] } },
{ "type": "Feature", "properties": { "内容": "訪問リハビリテーション　いでは【訪問リハビリテーション】山形県鶴岡市羽黒町荒川字谷地堰42番4号", "url2": "https://www.kaigokensaku.mhlw.go.jp/06/index.php?action_kouhyou_detail_004_kani=true&JigyosyoCd=0670701960-00&ServiceCd=140&Type=search" }, "geometry": { "type": "Point", "coordinates": [ 139.899480499999981, 38.7183385 ] } },
{ "type": "Feature", "properties": { "内容": "介護老人保健施設シェ・モワ【訪問リハビリテーション】酒田市緑町13-37", "url2": "https://www.kaigokensaku.mhlw.go.jp/06/index.php?action_kouhyou_detail_004_kani=true&JigyosyoCd=0650880008-00&ServiceCd=140&Type=search" }, "geometry": { "type": "Point", "coordinates": [ 139.8527468, 38.9106949 ] } },
{ "type": "Feature", "properties": { "内容": "医療法人本間病院【訪問リハビリテーション】酒田市中町3丁目５－２３", "url2": "https://www.kaigokensaku.mhlw.go.jp/06/index.php?action_kouhyou_detail_004_kani=true&JigyosyoCd=0610812224-00&ServiceCd=140&Type=search" }, "geometry": { "type": "Point", "coordinates": [ 139.834151, 38.9170304 ] } },
{ "type": "Feature", "properties": { "内容": "医療法人　丸岡医院【訪問リハビリテーション】山形県酒田市松原南15-1", "url2": "https://www.kaigokensaku.mhlw.go.jp/06/index.php?action_kouhyou_detail_004_kani=true&JigyosyoCd=0610811788-00&ServiceCd=140&Type=search" }, "geometry": { "type": "Point", "coordinates": [ 139.8522064, 38.9001294 ] } },
{ "type": "Feature", "properties": { "内容": "健生ふれあいクリニック【訪問リハビリテーション】山形県酒田市泉町1番地16", "url2": "https://www.kaigokensaku.mhlw.go.jp/06/index.php?action_kouhyou_detail_004_kani=true&JigyosyoCd=0610812067-00&ServiceCd=140&Type=search" }, "geometry": { "type": "Point", "coordinates": [ 139.847178, 38.9339594 ] } },
{ "type": "Feature", "properties": { "内容": "老人保健施設　明日葉【訪問リハビリテーション】酒田市曙町２－１８－６", "url2": "https://www.kaigokensaku.mhlw.go.jp/06/index.php?action_kouhyou_detail_004_kani=true&JigyosyoCd=0650880016-00&ServiceCd=140&Type=search" }, "geometry": { "type": "Point", "coordinates": [ 139.864415799999961, 38.9199279 ] } },
{ "type": "Feature", "properties": { "内容": "おやま整形外科クリニック【訪問リハビリテーション】山形県寒河江市七日町5-1", "url2": "https://www.kaigokensaku.mhlw.go.jp/06/index.php?action_kouhyou_detail_004_kani=true&JigyosyoCd=0611210857-00&ServiceCd=140&Type=search" }, "geometry": { "type": "Point", "coordinates": [ 140.281865836770663, 38.380637868893857 ] } },
{ "type": "Feature", "properties": { "内容": "介護老人保健施設　寒河江やすらぎの里【訪問リハビリテーション】寒河江市本楯二丁目２４番地1", "url2": "https://www.kaigokensaku.mhlw.go.jp/06/index.php?action_kouhyou_detail_004_kani=true&JigyosyoCd=0651280000-00&ServiceCd=140&Type=search" }, "geometry": { "type": "Point", "coordinates": [ 140.292274, 38.3637076 ] } },
{ "type": "Feature", "properties": { "内容": "リバーヒル長井訪問リハビリセンター【訪問リハビリテーション】山形県長井市寺泉3525-1", "url2": "https://www.kaigokensaku.mhlw.go.jp/06/index.php?action_kouhyou_detail_004_kani=true&JigyosyoCd=0671500296-00&ServiceCd=140&Type=search" }, "geometry": { "type": "Point", "coordinates": [ 140.000894099999982, 38.1057177 ] } },
{ "type": "Feature", "properties": { "内容": "ミロク脳神経リハビリクリニック【訪問リハビリテーション】山形県天童市鎌田2丁目5番1号", "url2": "https://www.kaigokensaku.mhlw.go.jp/06/index.php?action_kouhyou_detail_004_kani=true&JigyosyoCd=0611611195-00&ServiceCd=140&Type=search" }, "geometry": { "type": "Point", "coordinates": [ 140.38725367539368, 38.355809199447854 ] } },
{ "type": "Feature", "properties": { "内容": "介護老人保健施設　ナーシングホームさくらんぼ【訪問リハビリテーション】山形県東根市大字野田1921", "url2": "https://www.kaigokensaku.mhlw.go.jp/06/index.php?action_kouhyou_detail_004_kani=true&JigyosyoCd=0651780009-00&ServiceCd=140&Type=search" }, "geometry": { "type": "Point", "coordinates": [ 140.3578233, 38.4334623 ] } },
{ "type": "Feature", "properties": { "内容": "医療法人財団明理会　山形ロイヤル病院【訪問リハビリテーション】山形県東根市大森二丁目3番6号", "url2": "https://www.kaigokensaku.mhlw.go.jp/06/index.php?action_kouhyou_detail_004_kani=true&JigyosyoCd=0611710401-00&ServiceCd=140&Type=search" }, "geometry": { "type": "Point", "coordinates": [ 140.385206186508213, 38.429941474522728 ] } },
{ "type": "Feature", "properties": { "内容": "介護老人保健施設ハイマート福原【訪問リハビリテーション】山形県尾花沢市大字野黒沢554番地29", "url2": "https://www.kaigokensaku.mhlw.go.jp/06/index.php?action_kouhyou_detail_004_kani=true&JigyosyoCd=0651880007-00&ServiceCd=140&Type=search" }, "geometry": { "type": "Point", "coordinates": [ 140.383734319049012, 38.629132461978919 ] } },
{ "type": "Feature", "properties": { "内容": "社会福祉法人南陽　介護老人保健施設ほなみ荘【訪問リハビリテーション】山形県南陽市宮内3750-1", "url2": "https://www.kaigokensaku.mhlw.go.jp/06/index.php?action_kouhyou_detail_004_kani=true&JigyosyoCd=0651980013-00&ServiceCd=140&Type=search" }, "geometry": { "type": "Point", "coordinates": [ 140.13510740000001, 38.0774051 ] } },
{ "type": "Feature", "properties": { "内容": "介護老人保健施設メルヘン　訪問リハビリテーション【訪問リハビリテーション】山形県東村山郡山辺町大字大寺字竹ノ花1152番1", "url2": "https://www.kaigokensaku.mhlw.go.jp/06/index.php?action_kouhyou_detail_004_kani=true&JigyosyoCd=0652280009-00&ServiceCd=140&Type=search" }, "geometry": { "type": "Point", "coordinates": [ 140.2650774, 38.3069517 ] } },
{ "type": "Feature", "properties": { "内容": "朝日町立病院【訪問リハビリテーション】山形県西村山郡朝日町大字宮宿843番地", "url2": "https://www.kaigokensaku.mhlw.go.jp/06/index.php?action_kouhyou_detail_004_kani=true&JigyosyoCd=0612310193-00&ServiceCd=140&Type=search" }, "geometry": { "type": "Point", "coordinates": [ 140.1435371, 38.2995061 ] } },
{ "type": "Feature", "properties": { "内容": "町立金山診療所【訪問リハビリテーション】山形県最上郡金山町大字金山548番地2", "url2": "https://www.kaigokensaku.mhlw.go.jp/06/index.php?action_kouhyou_detail_004_kani=true&JigyosyoCd=0612510511-00&ServiceCd=140&Type=search" }, "geometry": { "type": "Point", "coordinates": [ 140.332586299999946, 38.8793369 ] } },
{ "type": "Feature", "properties": { "内容": "最上町立最上病院【訪問リハビリテーション】山形県最上郡最上町向町64-3", "url2": "https://www.kaigokensaku.mhlw.go.jp/06/index.php?action_kouhyou_detail_004_kani=true&JigyosyoCd=0612510420-00&ServiceCd=140&Type=search" }, "geometry": { "type": "Point", "coordinates": [ 140.5163152, 38.753337100000017 ] } },
{ "type": "Feature", "properties": { "内容": "公立高畠病院【訪問リハビリテーション】山形県東置賜郡高畠町大字高畠386番地", "url2": "https://www.kaigokensaku.mhlw.go.jp/06/index.php?action_kouhyou_detail_004_kani=true&JigyosyoCd=0612610451-00&ServiceCd=140&Type=search" }, "geometry": { "type": "Point", "coordinates": [ 140.189868499999989, 38.001167 ] } },
{ "type": "Feature", "properties": { "内容": "白鷹町立病院【訪問リハビリテーション】山形県西置賜郡白鷹町大字荒砥甲501番地", "url2": "https://www.kaigokensaku.mhlw.go.jp/06/index.php?action_kouhyou_detail_004_kani=true&JigyosyoCd=0612710376-00&ServiceCd=140&Type=search" }, "geometry": { "type": "Point", "coordinates": [ 140.099865300000033, 38.1837894 ] } },
{ "type": "Feature", "properties": { "内容": "医療法人　徳洲会　庄内余目病院【訪問リハビリテーション】山形県東田川郡庄内町松陽１－１－１", "url2": "https://www.kaigokensaku.mhlw.go.jp/06/index.php?action_kouhyou_detail_004_kani=true&JigyosyoCd=0613010792-00&ServiceCd=140&Type=search" }, "geometry": { "type": "Point", "coordinates": [ 139.8956918, 38.8519704 ] } }
]
}
