{
"type": "FeatureCollection",
"name": "geo_6_1",
"crs": { "type": "name", "properties": { "name": "urn:ogc:def:crs:OGC:1.3:CRS84" } },
"features": [
{ "type": "Feature", "properties": { "ID": 61106510014, "正式名称": "医療法人篠田好生会　千歳篠田病院", "機関区分": 1, "都道府県コード": 6, "市区町村コード": 201, "所在地": "山形県山形市長町二丁目１０番５６号", "緯度": 38.288958, "経度": 140.341182, "url": "https://www.iryou.teikyouseido.mhlw.go.jp/znk-web/juminkanja/S2430/initialize?prefCd=06&kikanCd=1106510014&kikanKbn=1", "url2": "http://www.chitoseshinoda-hp.com", "内容": "医療法人篠田好生会　千歳篠田病院【1:病院】【診療科目:0】【一般病床数:0療養病床数:0精神病床数:282感染症病床数:0合計病床数:282】山形県山形市長町二丁目１０番５６号" }, "geometry": { "type": "Point", "coordinates": [ 140.341182, 38.288958 ] } },
{ "type": "Feature", "properties": { "ID": 61106510027, "正式名称": "社会医療法人二本松会山形さくら町病院", "機関区分": 1, "都道府県コード": 6, "市区町村コード": 201, "所在地": "山形県山形市桜町２番７５号", "緯度": 38.251458, "経度": 140.32975, "url": "https://www.iryou.teikyouseido.mhlw.go.jp/znk-web/juminkanja/S2430/initialize?prefCd=06&kikanCd=1106510027&kikanKbn=1", "url2": "http://sakuracho.net", "内容": "社会医療法人二本松会山形さくら町病院【1:病院】【診療科目:0】【一般病床数:0療養病床数:0精神病床数:339感染症病床数:0合計病床数:339】山形県山形市桜町２番７５号" }, "geometry": { "type": "Point", "coordinates": [ 140.32975, 38.251458 ] } },
{ "type": "Feature", "properties": { "ID": 61106510043, "正式名称": "山形市立病院済生館", "機関区分": 1, "都道府県コード": 6, "市区町村コード": 201, "所在地": "山形県山形市七日町１丁目３－２６", "緯度": 38.252584, "経度": 140.337471, "url": "https://www.iryou.teikyouseido.mhlw.go.jp/znk-web/juminkanja/S2430/initialize?prefCd=06&kikanCd=1106510043&kikanKbn=1", "url2": "http://www.saiseikan.jp/", "内容": "山形市立病院済生館【1:病院】【診療科目:0】【一般病床数:528療養病床数:0精神病床数:0感染症病床数:0合計病床数:528】山形県山形市七日町１丁目３－２６" }, "geometry": { "type": "Point", "coordinates": [ 140.337471, 38.252584 ] } },
{ "type": "Feature", "properties": { "ID": 61106510069, "正式名称": "公立学校共済組合東北中央病院", "機関区分": 1, "都道府県コード": 6, "市区町村コード": 201, "所在地": "山形県山形市和合町三丁目２番５号", "緯度": 38.259566, "経度": 140.361569, "url": "https://www.iryou.teikyouseido.mhlw.go.jp/znk-web/juminkanja/S2430/initialize?prefCd=06&kikanCd=1106510069&kikanKbn=1", "url2": "https://tohoku-ctr-hsp.com", "内容": "公立学校共済組合東北中央病院【1:病院】【診療科目:0】【一般病床数:242療養病床数:0精神病床数:0感染症病床数:0合計病床数:242】山形県山形市和合町三丁目２番５号" }, "geometry": { "type": "Point", "coordinates": [ 140.361569, 38.259566 ] } },
{ "type": "Feature", "properties": { "ID": 61106510072, "正式名称": "医療法人篠田好生会篠田総合病院", "機関区分": 1, "都道府県コード": 6, "市区町村コード": 201, "所在地": "山形県山形市桜町２番６８号", "緯度": 38.251645, "経度": 140.33113, "url": "https://www.iryou.teikyouseido.mhlw.go.jp/znk-web/juminkanja/S2430/initialize?prefCd=06&kikanCd=1106510072&kikanKbn=1", "url2": "http://www.shinoda-hp.or.jp/", "内容": "医療法人篠田好生会篠田総合病院【1:病院】【診療科目:0】【一般病床数:220療養病床数:160精神病床数:0感染症病床数:0合計病床数:380】山形県山形市桜町２番６８号" }, "geometry": { "type": "Point", "coordinates": [ 140.33113, 38.251645 ] } },
{ "type": "Feature", "properties": { "ID": 61106510085, "正式名称": "医療法人横山厚生会横山病院", "機関区分": 1, "都道府県コード": 6, "市区町村コード": 201, "所在地": "山形県山形市十日町三丁目６番４８号", "緯度": 38.244082, "経度": 140.334611, "url": "https://www.iryou.teikyouseido.mhlw.go.jp/znk-web/juminkanja/S2430/initialize?prefCd=06&kikanCd=1106510085&kikanKbn=1", "url2": "http://www.yokohosp.com", "内容": "医療法人横山厚生会横山病院【1:病院】【診療科目:0】【一般病床数:30療養病床数:0精神病床数:0感染症病床数:0合計病床数:30】山形県山形市十日町三丁目６番４８号" }, "geometry": { "type": "Point", "coordinates": [ 140.334611, 38.244082 ] } },
{ "type": "Feature", "properties": { "ID": 61106510102, "正式名称": "社会医療法人松柏会至誠堂総合病院", "機関区分": 1, "都道府県コード": 6, "市区町村コード": 201, "所在地": "山形県山形市桜町７－４４", "緯度": 38.252293, "経度": 140.33243, "url": "https://www.iryou.teikyouseido.mhlw.go.jp/znk-web/juminkanja/S2430/initialize?prefCd=06&kikanCd=1106510102&kikanKbn=1", "url2": "http://www.shiseido-hp.jp", "内容": "社会医療法人松柏会至誠堂総合病院【1:病院】【診療科目:0】【一般病床数:199療養病床数:0精神病床数:0感染症病床数:0合計病床数:199】山形県山形市桜町７－４４" }, "geometry": { "type": "Point", "coordinates": [ 140.33243, 38.252293 ] } },
{ "type": "Feature", "properties": { "ID": 61106510115, "正式名称": "医療法人社団小白川至誠堂病院", "機関区分": 1, "都道府県コード": 6, "市区町村コード": 201, "所在地": "山形県山形市東原町１－１２－２６", "緯度": 38.24907, "経度": 140.346337, "url": "https://www.iryou.teikyouseido.mhlw.go.jp/znk-web/juminkanja/S2430/initialize?prefCd=06&kikanCd=1106510115&kikanKbn=1", "url2": "http://kojirakawa-shiseido-hp.com", "内容": "医療法人社団小白川至誠堂病院【1:病院】【診療科目:0】【一般病床数:46療養病床数:99精神病床数:0感染症病床数:0合計病床数:145】山形県山形市東原町１－１２－２６" }, "geometry": { "type": "Point", "coordinates": [ 140.346337, 38.24907 ] } },
{ "type": "Feature", "properties": { "ID": 61106510144, "正式名称": "独立行政法人国立病院機構山形病院", "機関区分": 1, "都道府県コード": 6, "市区町村コード": 201, "所在地": "山形県山形市行才", "緯度": 38.287554, "経度": 140.308988, "url": "https://www.iryou.teikyouseido.mhlw.go.jp/znk-web/juminkanja/S2430/initialize?prefCd=06&kikanCd=1106510144&kikanKbn=1", "url2": "https://yamagata.hosp.go.jp/", "内容": "独立行政法人国立病院機構山形病院【1:病院】【診療科目:0】【一般病床数:300療養病床数:0精神病床数:0感染症病床数:0合計病床数:300】山形県山形市行才" }, "geometry": { "type": "Point", "coordinates": [ 140.308988, 38.287554 ] } },
{ "type": "Feature", "properties": { "ID": 61106510157, "正式名称": "国立大学法人山形大学医学部附属病院", "機関区分": 1, "都道府県コード": 6, "市区町村コード": 201, "所在地": "山形県山形市飯田西２丁目２－２", "緯度": 38.215236, "経度": 140.320446, "url": "https://www.iryou.teikyouseido.mhlw.go.jp/znk-web/juminkanja/S2430/initialize?prefCd=06&kikanCd=1106510157&kikanKbn=1", "url2": "http://www.id.yamagata-u.ac.jp/", "内容": "国立大学法人山形大学医学部附属病院【1:病院】【診療科目:0】【一般病床数:601療養病床数:0精神病床数:36感染症病床数:0合計病床数:637】山形県山形市飯田西２丁目２－２" }, "geometry": { "type": "Point", "coordinates": [ 140.320446, 38.215236 ] } },
{ "type": "Feature", "properties": { "ID": 61106510160, "正式名称": "社会医療法人二本松会かみのやま病院", "機関区分": 1, "都道府県コード": 6, "市区町村コード": 207, "所在地": "山形県上山市金谷字下河原１３７０", "緯度": 38.17248, "経度": 140.30174, "url": "https://www.iryou.teikyouseido.mhlw.go.jp/znk-web/juminkanja/S2430/initialize?prefCd=06&kikanCd=1106510160&kikanKbn=1", "url2": "http://kaminoyama.org", "内容": "社会医療法人二本松会かみのやま病院【1:病院】【診療科目:0】【一般病床数:0療養病床数:0精神病床数:332感染症病床数:0合計病床数:332】山形県上山市金谷字下河原１３７０" }, "geometry": { "type": "Point", "coordinates": [ 140.30174, 38.17248 ] } },
{ "type": "Feature", "properties": { "ID": 61106510203, "正式名称": "山形県立こども医療療育センター", "機関区分": 1, "都道府県コード": 6, "市区町村コード": 207, "所在地": "山形県上山市河崎三丁目７番１号", "緯度": 38.151956, "経度": 140.262424, "url": "https://www.iryou.teikyouseido.mhlw.go.jp/znk-web/juminkanja/S2430/initialize?prefCd=06&kikanCd=1106510203&kikanKbn=1", "url2": "https://www.pref.yamagata.jp/091007/kenfuku/shogai/iryo/kodomoiryouryouikucenter/index.html", "内容": "山形県立こども医療療育センター【1:病院】【診療科目:0】【一般病床数:60療養病床数:0精神病床数:0感染症病床数:0合計病床数:60】山形県上山市河崎三丁目７番１号" }, "geometry": { "type": "Point", "coordinates": [ 140.262424, 38.151956 ] } },
{ "type": "Feature", "properties": { "ID": 61106510216, "正式名称": "天童市民病院", "機関区分": 1, "都道府県コード": 6, "市区町村コード": 210, "所在地": "山形県天童市駅西五丁目２番１号", "緯度": 38.354518, "経度": 140.362929, "url": "https://www.iryou.teikyouseido.mhlw.go.jp/znk-web/juminkanja/S2430/initialize?prefCd=06&kikanCd=1106510216&kikanKbn=1", "url2": "http://www.tendo-city-hospital.jp/", "内容": "天童市民病院【1:病院】【診療科目:0】【一般病床数:54療養病床数:30精神病床数:0感染症病床数:0合計病床数:84】山形県天童市駅西五丁目２番１号" }, "geometry": { "type": "Point", "coordinates": [ 140.362929, 38.354518 ] } },
{ "type": "Feature", "properties": { "ID": 61106510232, "正式名称": "医療法人社団斗南会秋野病院", "機関区分": 1, "都道府県コード": 6, "市区町村コード": 210, "所在地": "山形県天童市久野本３６２番地の１", "緯度": 38.381401, "経度": 140.382842, "url": "https://www.iryou.teikyouseido.mhlw.go.jp/znk-web/juminkanja/S2430/initialize?prefCd=06&kikanCd=1106510232&kikanKbn=1", "url2": "http://www.akino-hp.com", "内容": "医療法人社団斗南会秋野病院【1:病院】【診療科目:0】【一般病床数:0療養病床数:0精神病床数:226感染症病床数:0合計病床数:226】山形県天童市久野本３６２番地の１" }, "geometry": { "type": "Point", "coordinates": [ 140.382842, 38.381401 ] } },
{ "type": "Feature", "properties": { "ID": 61106510245, "正式名称": "医療法人社団丹心会吉岡病院", "機関区分": 1, "都道府県コード": 6, "市区町村コード": 210, "所在地": "山形県天童市東本町三丁目５番２１号", "緯度": 38.357674, "経度": 140.379452, "url": "https://www.iryou.teikyouseido.mhlw.go.jp/znk-web/juminkanja/S2430/initialize?prefCd=06&kikanCd=1106510245&kikanKbn=1", "url2": "http://www.yoshioka-hp.or.jp/", "内容": "医療法人社団丹心会吉岡病院【1:病院】【診療科目:0】【一般病床数:78療養病床数:48精神病床数:0感染症病床数:0合計病床数:126】山形県天童市東本町三丁目５番２１号" }, "geometry": { "type": "Point", "coordinates": [ 140.379452, 38.357674 ] } },
{ "type": "Feature", "properties": { "ID": 61106510258, "正式名称": "若宮病院", "機関区分": 1, "都道府県コード": 6, "市区町村コード": 201, "所在地": "山形県山形市吉原２丁目１５番地３号", "緯度": 38.229632, "経度": 140.309753, "url": "https://www.iryou.teikyouseido.mhlw.go.jp/znk-web/juminkanja/S2430/initialize?prefCd=06&kikanCd=1106510258&kikanKbn=1", "url2": "http://www.koutoku.or.jp/", "内容": "若宮病院【1:病院】【診療科目:0】【一般病床数:0療養病床数:0精神病床数:113感染症病床数:0合計病床数:113】山形県山形市吉原２丁目１５番地３号" }, "geometry": { "type": "Point", "coordinates": [ 140.309753, 38.229632 ] } },
{ "type": "Feature", "properties": { "ID": 61106510287, "正式名称": "みゆき会病院", "機関区分": 1, "都道府県コード": 6, "市区町村コード": 207, "所在地": "山形県上山市弁天２－２－１１", "緯度": 38.169927, "経度": 140.292653, "url": "https://www.iryou.teikyouseido.mhlw.go.jp/znk-web/juminkanja/S2430/initialize?prefCd=06&kikanCd=1106510287&kikanKbn=1", "url2": "http://www.miyuki.or.jp", "内容": "みゆき会病院【1:病院】【診療科目:0】【一般病床数:93療養病床数:90精神病床数:0感染症病床数:0合計病床数:183】山形県上山市弁天２－２－１１" }, "geometry": { "type": "Point", "coordinates": [ 140.292653, 38.169927 ] } },
{ "type": "Feature", "properties": { "ID": 61106510290, "正式名称": "井出眼科病院", "機関区分": 1, "都道府県コード": 6, "市区町村コード": 201, "所在地": "山形県山形市香澄町３丁目６番１３号", "緯度": 38.246601, "経度": 140.330014, "url": "https://www.iryou.teikyouseido.mhlw.go.jp/znk-web/juminkanja/S2430/initialize?prefCd=06&kikanCd=1106510290&kikanKbn=1", "url2": "http://www.ideganka.or.jp/", "内容": "井出眼科病院【1:病院】【診療科目:0】【一般病床数:26療養病床数:0精神病床数:0感染症病床数:0合計病床数:26】山形県山形市香澄町３丁目６番１３号" }, "geometry": { "type": "Point", "coordinates": [ 140.330014, 38.246601 ] } },
{ "type": "Feature", "properties": { "ID": 61106510304, "正式名称": "山形厚生病院", "機関区分": 1, "都道府県コード": 6, "市区町村コード": 201, "所在地": "山形県山形市菅沢字鬼越２５５", "緯度": 38.219696, "経度": 140.268298, "url": "https://www.iryou.teikyouseido.mhlw.go.jp/znk-web/juminkanja/S2430/initialize?prefCd=06&kikanCd=1106510304&kikanKbn=1", "url2": "http://tmw.or.jp/Hospital/", "内容": "山形厚生病院【1:病院】【診療科目:0】【一般病床数:0療養病床数:0精神病床数:312感染症病床数:0合計病床数:312】山形県山形市菅沢字鬼越２５５" }, "geometry": { "type": "Point", "coordinates": [ 140.268298, 38.219696 ] } },
{ "type": "Feature", "properties": { "ID": 61106510317, "正式名称": "社会福祉法人恩賜財団済生会山形済生病院", "機関区分": 1, "都道府県コード": 6, "市区町村コード": 201, "所在地": "山形県山形市沖町７９－１", "緯度": 38.28513, "経度": 140.334949, "url": "https://www.iryou.teikyouseido.mhlw.go.jp/znk-web/juminkanja/S2430/initialize?prefCd=06&kikanCd=1106510317&kikanKbn=1", "url2": "https://www.ameria.org", "内容": "社会福祉法人恩賜財団済生会山形済生病院【1:病院】【診療科目:0】【一般病床数:411療養病床数:0精神病床数:0感染症病床数:0合計病床数:411】山形県山形市沖町７９－１" }, "geometry": { "type": "Point", "coordinates": [ 140.334949, 38.28513 ] } },
{ "type": "Feature", "properties": { "ID": 61106520017, "正式名称": "寒河江市立病院", "機関区分": 1, "都道府県コード": 6, "市区町村コード": 206, "所在地": "山形県寒河江市大字寒河江字塩水８０", "緯度": 38.377497, "経度": 140.262751, "url": "https://www.iryou.teikyouseido.mhlw.go.jp/znk-web/juminkanja/S2430/initialize?prefCd=06&kikanCd=1106520017&kikanKbn=1", "url2": "https://www.sagae-city-hospital.net", "内容": "寒河江市立病院【1:病院】【診療科目:0】【一般病床数:56療養病床数:42精神病床数:0感染症病床数:0合計病床数:98】山形県寒河江市大字寒河江字塩水８０" }, "geometry": { "type": "Point", "coordinates": [ 140.262751, 38.377497 ] } },
{ "type": "Feature", "properties": { "ID": 61106520046, "正式名称": "山形県立河北病院", "機関区分": 1, "都道府県コード": 6, "市区町村コード": 321, "所在地": "山形県西村山郡河北町谷地字月山堂１１１", "緯度": 38.414569, "経度": 140.309096, "url": "https://www.iryou.teikyouseido.mhlw.go.jp/znk-web/juminkanja/S2430/initialize?prefCd=06&kikanCd=1106520046&kikanKbn=1", "url2": "http://www.kahoku-hospital.jp/", "内容": "山形県立河北病院【1:病院】【診療科目:0】【一般病床数:130療養病床数:0精神病床数:0感染症病床数:6合計病床数:136】山形県西村山郡河北町谷地字月山堂１１１" }, "geometry": { "type": "Point", "coordinates": [ 140.309096, 38.414569 ] } },
{ "type": "Feature", "properties": { "ID": 61106520059, "正式名称": "西川町立病院", "機関区分": 1, "都道府県コード": 6, "市区町村コード": 322, "所在地": "山形県西村山郡西川町海味５８１番地", "緯度": 38.427221, "経度": 140.144847, "url": "https://www.iryou.teikyouseido.mhlw.go.jp/znk-web/juminkanja/S2430/initialize?prefCd=06&kikanCd=1106520059&kikanKbn=1", "url2": "https://www.town.nishikawa.yamagata.jp/site/hospital/", "内容": "西川町立病院【1:病院】【診療科目:0】【一般病床数:28療養病床数:0精神病床数:0感染症病床数:0合計病床数:28】山形県西村山郡西川町海味５８１番地" }, "geometry": { "type": "Point", "coordinates": [ 140.144847, 38.427221 ] } },
{ "type": "Feature", "properties": { "ID": 61106520062, "正式名称": "朝日町立病院", "機関区分": 1, "都道府県コード": 6, "市区町村コード": 323, "所在地": "山形県西村山郡朝日町大字宮宿８４３番地", "緯度": 38.299746, "経度": 140.142873, "url": "https://www.iryou.teikyouseido.mhlw.go.jp/znk-web/juminkanja/S2430/initialize?prefCd=06&kikanCd=1106520062&kikanKbn=1", "url2": "https://www.town.asahi.yamagata.jp/", "内容": "朝日町立病院【1:病院】【診療科目:0】【一般病床数:40療養病床数:0精神病床数:0感染症病床数:0合計病床数:40】山形県西村山郡朝日町大字宮宿８４３番地" }, "geometry": { "type": "Point", "coordinates": [ 140.142873, 38.299746 ] } },
{ "type": "Feature", "properties": { "ID": 61106520088, "正式名称": "小原病院", "機関区分": 1, "都道府県コード": 6, "市区町村コード": 321, "所在地": "山形県西村山郡河北町谷地", "緯度": 38.415694, "経度": 140.307324, "url": "https://www.iryou.teikyouseido.mhlw.go.jp/znk-web/juminkanja/S2430/initialize?prefCd=06&kikanCd=1106520088&kikanKbn=1", "url2": "http://www.obara-hospital.jp/", "内容": "小原病院【1:病院】【診療科目:0】【一般病床数:0療養病床数:0精神病床数:176感染症病床数:0合計病床数:176】山形県西村山郡河北町谷地" }, "geometry": { "type": "Point", "coordinates": [ 140.307324, 38.415694 ] } },
{ "type": "Feature", "properties": { "ID": 61106530010, "正式名称": "北村山公立病院", "機関区分": 1, "都道府県コード": 6, "市区町村コード": 211, "所在地": "山形県東根市温泉町２丁目１５番１号", "緯度": 38.46131, "経度": 140.388096, "url": "https://www.iryou.teikyouseido.mhlw.go.jp/znk-web/juminkanja/S2430/initialize?prefCd=06&kikanCd=1106530010&kikanKbn=1", "url2": "https://www.hosp-kitamurayama.jp", "内容": "北村山公立病院【1:病院】【診療科目:0】【一般病床数:300療養病床数:0精神病床数:0感染症病床数:0合計病床数:300】山形県東根市温泉町２丁目１５番１号" }, "geometry": { "type": "Point", "coordinates": [ 140.388096, 38.46131 ] } },
{ "type": "Feature", "properties": { "ID": 61106530052, "正式名称": "医療法人敬愛会尾花沢病院", "機関区分": 1, "都道府県コード": 6, "市区町村コード": 212, "所在地": "山形県尾花沢市朧気６９５番地の３", "緯度": 38.586246, "経度": 140.402495, "url": "https://www.iryou.teikyouseido.mhlw.go.jp/znk-web/juminkanja/S2430/initialize?prefCd=06&kikanCd=1106530052&kikanKbn=1", "url2": "https://obahos.com/", "内容": "医療法人敬愛会尾花沢病院【1:病院】【診療科目:0】【一般病床数:0療養病床数:26精神病床数:126感染症病床数:0合計病床数:152】山形県尾花沢市朧気６９５番地の３" }, "geometry": { "type": "Point", "coordinates": [ 140.402495, 38.586246 ] } },
{ "type": "Feature", "properties": { "ID": 61106530065, "正式名称": "医療法人財団　明理会　山形ロイヤル病院", "機関区分": 1, "都道府県コード": 6, "市区町村コード": 211, "所在地": "山形県東根市大森二丁目３番６号", "緯度": 38.430181, "経度": 140.384799, "url": "https://www.iryou.teikyouseido.mhlw.go.jp/znk-web/juminkanja/S2430/initialize?prefCd=06&kikanCd=1106530065&kikanKbn=1", "url2": "http://www.ims.g.jp/yamagata-royal/", "内容": "医療法人財団　明理会　山形ロイヤル病院【1:病院】【診療科目:0】【一般病床数:0療養病床数:322精神病床数:0感染症病床数:0合計病床数:322】山形県東根市大森二丁目３番６号" }, "geometry": { "type": "Point", "coordinates": [ 140.384799, 38.430181 ] } },
{ "type": "Feature", "properties": { "ID": 61106530078, "正式名称": "山形県立中央病院", "機関区分": 1, "都道府県コード": 6, "市区町村コード": 201, "所在地": "山形県山形市大字青柳１８００", "緯度": 38.300115, "経度": 140.34612, "url": "https://www.iryou.teikyouseido.mhlw.go.jp/znk-web/juminkanja/S2430/initialize?prefCd=06&kikanCd=1106530078&kikanKbn=1", "url2": "http://www.ypch.gr.jp/", "内容": "山形県立中央病院【1:病院】【診療科目:0】【一般病床数:607療養病床数:0精神病床数:0感染症病床数:2合計病床数:609】山形県山形市大字青柳１８００" }, "geometry": { "type": "Point", "coordinates": [ 140.34612, 38.300115 ] } },
{ "type": "Feature", "properties": { "ID": 61106530081, "正式名称": "医療法人徳洲会　山形徳洲会病院", "機関区分": 1, "都道府県コード": 6, "市区町村コード": 201, "所在地": "山形県山形市清住町２－３－５１", "緯度": 38.255175, "経度": 140.311729, "url": "https://www.iryou.teikyouseido.mhlw.go.jp/znk-web/juminkanja/S2430/initialize?prefCd=06&kikanCd=1106530081&kikanKbn=1", "url2": "http://www.yamatoku-hp.jp", "内容": "医療法人徳洲会　山形徳洲会病院【1:病院】【診療科目:0】【一般病床数:193療養病床数:90精神病床数:0感染症病床数:0合計病床数:283】山形県山形市清住町２－３－５１" }, "geometry": { "type": "Point", "coordinates": [ 140.311729, 38.255175 ] } },
{ "type": "Feature", "properties": { "ID": 61106530108, "正式名称": "医療法人篠田好生会天童温泉篠田病院", "機関区分": 1, "都道府県コード": 6, "市区町村コード": 210, "所在地": "山形県天童市鎌田一丁目７－１", "緯度": 38.360348, "経度": 140.384866, "url": "https://www.iryou.teikyouseido.mhlw.go.jp/znk-web/juminkanja/S2430/initialize?prefCd=06&kikanCd=1106530108&kikanKbn=1", "url2": "http://www.tendo-shinoda.jp/", "内容": "医療法人篠田好生会天童温泉篠田病院【1:病院】【診療科目:0】【一般病床数:60療養病床数:0精神病床数:0感染症病床数:0合計病床数:60】山形県天童市鎌田一丁目７－１" }, "geometry": { "type": "Point", "coordinates": [ 140.384866, 38.360348 ] } },
{ "type": "Feature", "properties": { "ID": 61106530111, "正式名称": "矢吹病院", "機関区分": 1, "都道府県コード": 6, "市区町村コード": 201, "所在地": "山形県山形市嶋北四丁目５番５号", "緯度": 38.28669, "経度": 140.316975, "url": "https://www.iryou.teikyouseido.mhlw.go.jp/znk-web/juminkanja/S2430/initialize?prefCd=06&kikanCd=1106530111&kikanKbn=1", "url2": "http://www.seieig.or.jp/", "内容": "矢吹病院【1:病院】【診療科目:0】【一般病床数:40療養病床数:0精神病床数:0感染症病床数:0合計病床数:40】山形県山形市嶋北四丁目５番５号" }, "geometry": { "type": "Point", "coordinates": [ 140.316975, 38.28669 ] } },
{ "type": "Feature", "properties": { "ID": 61106530124, "正式名称": "医療法人ゆうし会南さがえ病院", "機関区分": 1, "都道府県コード": 6, "市区町村コード": 206, "所在地": "山形県寒河江市島島東８７番地２", "緯度": 38.356619, "経度": 140.278581, "url": "https://www.iryou.teikyouseido.mhlw.go.jp/znk-web/juminkanja/S2430/initialize?prefCd=06&kikanCd=1106530124&kikanKbn=1", "url2": "https://minamisagae-hosp.or.jp/", "内容": "医療法人ゆうし会南さがえ病院【1:病院】【診療科目:0】【一般病床数:0療養病床数:0精神病床数:130感染症病床数:0合計病床数:130】山形県寒河江市島島東８７番地２" }, "geometry": { "type": "Point", "coordinates": [ 140.278581, 38.356619 ] } },
{ "type": "Feature", "properties": { "ID": 61106540013, "正式名称": "医療法人社団清明会　ＰＦＣ　ＨＯＳＰＩＴＡＬ", "機関区分": 1, "都道府県コード": 6, "市区町村コード": 205, "所在地": "山形県新庄市福田", "緯度": 38.741959, "経度": 140.267706, "url": "https://www.iryou.teikyouseido.mhlw.go.jp/znk-web/juminkanja/S2430/initialize?prefCd=06&kikanCd=1106540013&kikanKbn=1", "url2": "https://seimei-kai.or.jp", "内容": "医療法人社団清明会　ＰＦＣ　ＨＯＳＰＩＴＡＬ【1:病院】【診療科目:0】【一般病床数:0療養病床数:0精神病床数:180感染症病床数:0合計病床数:180】山形県新庄市福田" }, "geometry": { "type": "Point", "coordinates": [ 140.267706, 38.741959 ] } },
{ "type": "Feature", "properties": { "ID": 61106540084, "正式名称": "最上町立最上病院", "機関区分": 1, "都道府県コード": 6, "市区町村コード": 362, "所在地": "山形県最上郡最上町大字向町６４番地の３", "緯度": 38.753046, "経度": 140.516315, "url": "https://www.iryou.teikyouseido.mhlw.go.jp/znk-web/juminkanja/S2430/initialize?prefCd=06&kikanCd=1106540084&kikanKbn=1", "url2": "https://town.mogami.lg.jp/hospital/", "内容": "最上町立最上病院【1:病院】【診療科目:0】【一般病床数:60療養病床数:0精神病床数:0感染症病床数:0合計病床数:60】山形県最上郡最上町大字向町６４番地の３" }, "geometry": { "type": "Point", "coordinates": [ 140.516315, 38.753046 ] } },
{ "type": "Feature", "properties": { "ID": 61106540097, "正式名称": "医療法人徳洲会新庄徳洲会病院", "機関区分": 1, "都道府県コード": 6, "市区町村コード": 205, "所在地": "山形県新庄市大字鳥越字駒場４６２３", "緯度": 38.740465, "経度": 140.312861, "url": "https://www.iryou.teikyouseido.mhlw.go.jp/znk-web/juminkanja/S2430/initialize?prefCd=06&kikanCd=1106540097&kikanKbn=1", "url2": "https://www.shin-toku.com", "内容": "医療法人徳洲会新庄徳洲会病院【1:病院】【診療科目:0】【一般病床数:178療養病床数:92精神病床数:0感染症病床数:0合計病床数:270】山形県新庄市大字鳥越字駒場４６２３" }, "geometry": { "type": "Point", "coordinates": [ 140.312861, 38.740465 ] } },
{ "type": "Feature", "properties": { "ID": 61106540104, "正式名称": "町立真室川病院", "機関区分": 1, "都道府県コード": 6, "市区町村コード": 364, "所在地": "山形県最上郡真室川町大字新町４６９−１", "緯度": 38.851307, "経度": 140.247651, "url": "https://www.iryou.teikyouseido.mhlw.go.jp/znk-web/juminkanja/S2430/initialize?prefCd=06&kikanCd=1106540104&kikanKbn=1", "url2": "http://www.web-clover.net/mamurogawa-byouin/", "内容": "町立真室川病院【1:病院】【診療科目:0】【一般病床数:55療養病床数:0精神病床数:0感染症病床数:0合計病床数:55】山形県最上郡真室川町大字新町４６９−１" }, "geometry": { "type": "Point", "coordinates": [ 140.247651, 38.851307 ] } },
{ "type": "Feature", "properties": { "ID": 61106540127, "正式名称": "山形県立新庄病院", "機関区分": 1, "都道府県コード": 6, "市区町村コード": 205, "所在地": "山形県新庄市金沢７２０番地の１", "緯度": 38.767951, "経度": 140.309244, "url": "https://www.iryou.teikyouseido.mhlw.go.jp/znk-web/juminkanja/S2430/initialize?prefCd=06&kikanCd=1106540127&kikanKbn=1", "url2": "http://www.ysh.pref.yamagata.jp", "内容": "山形県立新庄病院【1:病院】【診療科目:0】【一般病床数:321療養病床数:0精神病床数:0感染症病床数:4合計病床数:325】山形県新庄市金沢７２０番地の１" }, "geometry": { "type": "Point", "coordinates": [ 140.309244, 38.767951 ] } },
{ "type": "Feature", "properties": { "ID": 61106550029, "正式名称": "医療法人酒田東病院", "機関区分": 1, "都道府県コード": 6, "市区町村コード": 204, "所在地": "山形県酒田市こあら３丁目５番地の２", "緯度": 38.912088, "経度": 139.862244, "url": "https://www.iryou.teikyouseido.mhlw.go.jp/znk-web/juminkanja/S2430/initialize?prefCd=06&kikanCd=1106550029&kikanKbn=1", "url2": "http://www.higashi-hp.jp", "内容": "医療法人酒田東病院【1:病院】【診療科目:0】【一般病床数:0療養病床数:0精神病床数:120感染症病床数:0合計病床数:120】山形県酒田市こあら３丁目５番地の２" }, "geometry": { "type": "Point", "coordinates": [ 139.862244, 38.912088 ] } },
{ "type": "Feature", "properties": { "ID": 61106550032, "正式名称": "日本海酒田リハビリテーション病院", "機関区分": 1, "都道府県コード": 6, "市区町村コード": 204, "所在地": "山形県酒田市千石町二丁目３番２０号", "緯度": 38.90449, "経度": 139.839568, "url": "https://www.iryou.teikyouseido.mhlw.go.jp/znk-web/juminkanja/S2430/initialize?prefCd=06&kikanCd=1106550032&kikanKbn=1", "url2": "http://www.nihonkai-hos.jp/medicalcenter/", "内容": "日本海酒田リハビリテーション病院【1:病院】【診療科目:0】【一般病床数:0療養病床数:114精神病床数:0感染症病床数:0合計病床数:114】山形県酒田市千石町二丁目３番２０号" }, "geometry": { "type": "Point", "coordinates": [ 139.839568, 38.90449 ] } },
{ "type": "Feature", "properties": { "ID": 61106550058, "正式名称": "順仁堂遊佐病院", "機関区分": 1, "都道府県コード": 6, "市区町村コード": 461, "所在地": "山形県飽海郡遊佐町遊佐字石田７", "緯度": 39.017569, "経度": 139.906109, "url": "https://www.iryou.teikyouseido.mhlw.go.jp/znk-web/juminkanja/S2430/initialize?prefCd=06&kikanCd=1106550058&kikanKbn=1", "url2": "http://www.yuza-hospital.jp/", "内容": "順仁堂遊佐病院【1:病院】【診療科目:0】【一般病床数:0療養病床数:74精神病床数:0感染症病床数:0合計病床数:74】山形県飽海郡遊佐町遊佐字石田７" }, "geometry": { "type": "Point", "coordinates": [ 139.906109, 39.017569 ] } },
{ "type": "Feature", "properties": { "ID": 61106550074, "正式名称": "医療法人徳洲会庄内余目病院", "機関区分": 1, "都道府県コード": 6, "市区町村コード": 428, "所在地": "山形県東田川郡庄内町松陽一丁目１番地１", "緯度": 38.851981, "経度": 139.89607, "url": "https://www.iryou.teikyouseido.mhlw.go.jp/znk-web/juminkanja/S2430/initialize?prefCd=06&kikanCd=1106550074&kikanKbn=1", "url2": "http://www.amarume-hp.jp", "内容": "医療法人徳洲会庄内余目病院【1:病院】【診療科目:0】【一般病床数:202療養病床数:122精神病床数:0感染症病床数:0合計病床数:324】山形県東田川郡庄内町松陽一丁目１番地１" }, "geometry": { "type": "Point", "coordinates": [ 139.89607, 38.851981 ] } },
{ "type": "Feature", "properties": { "ID": 61106550087, "正式名称": "日本海総合病院", "機関区分": 1, "都道府県コード": 6, "市区町村コード": 204, "所在地": "山形県酒田市あきほ町３０番地", "緯度": 38.890497, "経度": 139.854423, "url": "https://www.iryou.teikyouseido.mhlw.go.jp/znk-web/juminkanja/S2430/initialize?prefCd=06&kikanCd=1106550087&kikanKbn=1", "url2": "http://www.nihonkai-hos.jp/hospital/", "内容": "日本海総合病院【1:病院】【診療科目:0】【一般病床数:586療養病床数:0精神病床数:0感染症病床数:4合計病床数:590】山形県酒田市あきほ町３０番地" }, "geometry": { "type": "Point", "coordinates": [ 139.854423, 38.890497 ] } },
{ "type": "Feature", "properties": { "ID": 61106570083, "正式名称": "鶴岡協立病院", "機関区分": 1, "都道府県コード": 6, "市区町村コード": 203, "所在地": "山形県鶴岡市文園町９ー３４", "緯度": 38.71409, "経度": 139.827531, "url": "https://www.iryou.teikyouseido.mhlw.go.jp/znk-web/juminkanja/S2430/initialize?prefCd=06&kikanCd=1106570083&kikanKbn=1", "url2": "http://y-mcoop.com/hospital/", "内容": "鶴岡協立病院【1:病院】【診療科目:0】【一般病床数:160療養病床数:0精神病床数:0感染症病床数:0合計病床数:160】山形県鶴岡市文園町９ー３４" }, "geometry": { "type": "Point", "coordinates": [ 139.827531, 38.71409 ] } },
{ "type": "Feature", "properties": { "ID": 61106580015, "正式名称": "公立置賜南陽病院", "機関区分": 1, "都道府県コード": 6, "市区町村コード": 213, "所在地": "山形県南陽市宮内１２０４", "緯度": 38.070034, "経度": 140.144275, "url": "https://www.iryou.teikyouseido.mhlw.go.jp/znk-web/juminkanja/S2430/initialize?prefCd=06&kikanCd=1106580015&kikanKbn=1", "url2": "https://www.okitama-hp.or.jp/nanyo-hospital.html", "内容": "公立置賜南陽病院【1:病院】【診療科目:0】【一般病床数:50療養病床数:0精神病床数:0感染症病床数:0合計病床数:50】山形県南陽市宮内１２０４" }, "geometry": { "type": "Point", "coordinates": [ 140.144275, 38.070034 ] } },
{ "type": "Feature", "properties": { "ID": 61106580028, "正式名称": "佐藤病院", "機関区分": 1, "都道府県コード": 6, "市区町村コード": 213, "所在地": "山形県南陽市椚塚９４８－１", "緯度": 38.043245, "経度": 140.172479, "url": "https://www.iryou.teikyouseido.mhlw.go.jp/znk-web/juminkanja/S2430/initialize?prefCd=06&kikanCd=1106580028&kikanKbn=1", "url2": "http://www.koutoku.or.jp", "内容": "佐藤病院【1:病院】【診療科目:0】【一般病床数:0療養病床数:0精神病床数:114感染症病床数:0合計病床数:114】山形県南陽市椚塚９４８－１" }, "geometry": { "type": "Point", "coordinates": [ 140.172479, 38.043245 ] } },
{ "type": "Feature", "properties": { "ID": 61106590018, "正式名称": "公立置賜長井病院", "機関区分": 1, "都道府県コード": 6, "市区町村コード": 209, "所在地": "山形県長井市屋城町２－１", "緯度": 38.111296, "経度": 140.04091, "url": "https://www.iryou.teikyouseido.mhlw.go.jp/znk-web/juminkanja/S2430/initialize?prefCd=06&kikanCd=1106590018&kikanKbn=1", "url2": null, "内容": "公立置賜長井病院【1:病院】【診療科目:0】【一般病床数:50療養病床数:0精神病床数:0感染症病床数:0合計病床数:50】山形県長井市屋城町２－１" }, "geometry": { "type": "Point", "coordinates": [ 140.04091, 38.111296 ] } },
{ "type": "Feature", "properties": { "ID": 61106590034, "正式名称": "白鷹町立病院", "機関区分": 1, "都道府県コード": 6, "市区町村コード": 402, "所在地": "山形県西置賜郡白鷹町荒砥甲５０１番地", "緯度": 38.179075, "経度": 140.094094, "url": "https://www.iryou.teikyouseido.mhlw.go.jp/znk-web/juminkanja/S2430/initialize?prefCd=06&kikanCd=1106590034&kikanKbn=1", "url2": "http://www.hospital.shirataka.yamagata.jp", "内容": "白鷹町立病院【1:病院】【診療科目:0】【一般病床数:57療養病床数:0精神病床数:0感染症病床数:0合計病床数:57】山形県西置賜郡白鷹町荒砥甲５０１番地" }, "geometry": { "type": "Point", "coordinates": [ 140.094094, 38.179075 ] } },
{ "type": "Feature", "properties": { "ID": 61106600012, "正式名称": "独立行政法人国立病院機構米沢病院", "機関区分": 1, "都道府県コード": 6, "市区町村コード": 202, "所在地": "山形県米沢市大字三沢２６１００−１", "緯度": 37.882321, "経度": 140.140392, "url": "https://www.iryou.teikyouseido.mhlw.go.jp/znk-web/juminkanja/S2430/initialize?prefCd=06&kikanCd=1106600012&kikanKbn=1", "url2": "https://yonezawa.hosp.go.jp/", "内容": "独立行政法人国立病院機構米沢病院【1:病院】【診療科目:0】【一般病床数:220療養病床数:0精神病床数:0感染症病床数:0合計病床数:220】山形県米沢市大字三沢２６１００−１" }, "geometry": { "type": "Point", "coordinates": [ 140.140392, 37.882321 ] } },
{ "type": "Feature", "properties": { "ID": 61106600025, "正式名称": "米沢市立病院", "機関区分": 1, "都道府県コード": 6, "市区町村コード": 202, "所在地": "山形県米沢市相生町６－３６", "緯度": 37.904078, "経度": 140.119361, "url": "https://www.iryou.teikyouseido.mhlw.go.jp/znk-web/juminkanja/S2430/initialize?prefCd=06&kikanCd=1106600025&kikanKbn=1", "url2": "http://yonezawa-city-hospital.jp/", "内容": "米沢市立病院【1:病院】【診療科目:0】【一般病床数:263療養病床数:0精神病床数:0感染症病床数:0合計病床数:263】山形県米沢市相生町６－３６" }, "geometry": { "type": "Point", "coordinates": [ 140.119361, 37.904078 ] } },
{ "type": "Feature", "properties": { "ID": 61106600041, "正式名称": "医療法人舟山病院", "機関区分": 1, "都道府県コード": 6, "市区町村コード": 202, "所在地": "山形県米沢市駅前２−４−８", "緯度": 37.909506, "経度": 140.122262, "url": "https://www.iryou.teikyouseido.mhlw.go.jp/znk-web/juminkanja/S2430/initialize?prefCd=06&kikanCd=1106600041&kikanKbn=1", "url2": "http://fnymhp.jp", "内容": "医療法人舟山病院【1:病院】【診療科目:0】【一般病床数:120療養病床数:54精神病床数:0感染症病床数:0合計病床数:174】山形県米沢市駅前２−４−８" }, "geometry": { "type": "Point", "coordinates": [ 140.122262, 37.909506 ] } },
{ "type": "Feature", "properties": { "ID": 61106600067, "正式名称": "公立高畠病院", "機関区分": 1, "都道府県コード": 6, "市区町村コード": 381, "所在地": "山形県東置賜郡高畠町高畠３８６番地", "緯度": 38.001167, "経度": 140.189866, "url": "https://www.iryou.teikyouseido.mhlw.go.jp/znk-web/juminkanja/S2430/initialize?prefCd=06&kikanCd=1106600067&kikanKbn=1", "url2": "http://www.takahatahospital.jp/", "内容": "公立高畠病院【1:病院】【診療科目:0】【一般病床数:89療養病床数:41精神病床数:0感染症病床数:0合計病床数:130】山形県東置賜郡高畠町高畠３８６番地" }, "geometry": { "type": "Point", "coordinates": [ 140.189866, 38.001167 ] } },
{ "type": "Feature", "properties": { "ID": 61106610015, "正式名称": "小国町立病院", "機関区分": 1, "都道府県コード": 6, "市区町村コード": 401, "所在地": "山形県西置賜郡小国町あけぼの一丁目１番地", "緯度": 38.058263, "経度": 139.755809, "url": "https://www.iryou.teikyouseido.mhlw.go.jp/znk-web/juminkanja/S2430/initialize?prefCd=06&kikanCd=1106610015&kikanKbn=1", "url2": "http://www.ogunibyoin.jp/", "内容": "小国町立病院【1:病院】【診療科目:0】【一般病床数:0療養病床数:26精神病床数:0感染症病床数:0合計病床数:26】山形県西置賜郡小国町あけぼの一丁目１番地" }, "geometry": { "type": "Point", "coordinates": [ 139.755809, 38.058263 ] } },
{ "type": "Feature", "properties": { "ID": 61106610028, "正式名称": "公立置賜総合病院", "機関区分": 1, "都道府県コード": 6, "市区町村コード": 382, "所在地": "山形県東置賜郡川西町西大塚２０００番地", "緯度": 38.04954, "経度": 140.05864, "url": "https://www.iryou.teikyouseido.mhlw.go.jp/znk-web/juminkanja/S2430/initialize?prefCd=06&kikanCd=1106610028&kikanKbn=1", "url2": "http://www.okitama-hp.or.jp/", "内容": "公立置賜総合病院【1:病院】【診療科目:0】【一般病床数:420療養病床数:0精神病床数:46感染症病床数:4合計病床数:470】山形県東置賜郡川西町西大塚２０００番地" }, "geometry": { "type": "Point", "coordinates": [ 140.05864, 38.04954 ] } },
{ "type": "Feature", "properties": { "ID": 61106610031, "正式名称": "川西湖山病院", "機関区分": 1, "都道府県コード": 6, "市区町村コード": 382, "所在地": "山形県東置賜郡川西町下奥田３７９６－２０", "緯度": 37.989225, "経度": 140.043175, "url": "https://www.iryou.teikyouseido.mhlw.go.jp/znk-web/juminkanja/S2430/initialize?prefCd=06&kikanCd=1106610031&kikanKbn=1", "url2": "https://ryokuaikai.com/", "内容": "川西湖山病院【1:病院】【診療科目:0】【一般病床数:0療養病床数:109精神病床数:0感染症病床数:0合計病床数:109】山形県東置賜郡川西町下奥田３７９６－２０" }, "geometry": { "type": "Point", "coordinates": [ 140.043175, 37.989225 ] } },
{ "type": "Feature", "properties": { "ID": 61106610044, "正式名称": "医療法人　杏山会　吉川記念病院", "機関区分": 1, "都道府県コード": 6, "市区町村コード": 209, "所在地": "山形県長井市成田１８８８番地１", "緯度": 38.131575, "経度": 140.036354, "url": "https://www.iryou.teikyouseido.mhlw.go.jp/znk-web/juminkanja/S2430/initialize?prefCd=06&kikanCd=1106610044&kikanKbn=1", "url2": "http://www.yoshikawa-hp.com/", "内容": "医療法人　杏山会　吉川記念病院【1:病院】【診療科目:0】【一般病床数:0療養病床数:30精神病床数:125感染症病床数:0合計病床数:175】山形県長井市成田１８８８番地１" }, "geometry": { "type": "Point", "coordinates": [ 140.036354, 38.131575 ] } },
{ "type": "Feature", "properties": { "ID": 61106610057, "正式名称": "社会医療法人公徳会米沢こころの病院", "機関区分": 1, "都道府県コード": 6, "市区町村コード": 202, "所在地": "山形県米沢市アルカディア１丁目８０８番３２", "緯度": 37.911127, "経度": 140.142699, "url": "https://www.iryou.teikyouseido.mhlw.go.jp/znk-web/juminkanja/S2430/initialize?prefCd=06&kikanCd=1106610057&kikanKbn=1", "url2": "http://kokorohp.koutoku.or.jp/", "内容": "社会医療法人公徳会米沢こころの病院【1:病院】【診療科目:0】【一般病床数:0療養病床数:0精神病床数:114感染症病床数:0合計病床数:114】山形県米沢市アルカディア１丁目８０８番３２" }, "geometry": { "type": "Point", "coordinates": [ 140.142699, 37.911127 ] } },
{ "type": "Feature", "properties": { "ID": 61106610060, "正式名称": "三友堂病院", "機関区分": 1, "都道府県コード": 6, "市区町村コード": 202, "所在地": "山形県米沢市福田町２－１－５５", "緯度": 37.918926, "経度": 140.105463, "url": "https://www.iryou.teikyouseido.mhlw.go.jp/znk-web/juminkanja/S2430/initialize?prefCd=06&kikanCd=1106610060&kikanKbn=1", "url2": "http://www.sanyudo.or.jp", "内容": "三友堂病院【1:病院】【診療科目:0】【一般病床数:109療養病床数:90精神病床数:0感染症病床数:0合計病床数:199】山形県米沢市福田町２－１－５５" }, "geometry": { "type": "Point", "coordinates": [ 140.105463, 37.918926 ] } },
{ "type": "Feature", "properties": { "ID": 61106620018, "正式名称": "鶴岡協立リハビリテーション病院", "機関区分": 1, "都道府県コード": 6, "市区町村コード": 203, "所在地": "山形県鶴岡市上山添字神明前３８", "緯度": 38.682819, "経度": 139.839842, "url": "https://www.iryou.teikyouseido.mhlw.go.jp/znk-web/juminkanja/S2430/initialize?prefCd=06&kikanCd=1106620018&kikanKbn=1", "url2": "http://y-mcoop.com/rehabili/", "内容": "鶴岡協立リハビリテーション病院【1:病院】【診療科目:0】【一般病床数:0療養病床数:156精神病床数:0感染症病床数:0合計病床数:156】山形県鶴岡市上山添字神明前３８" }, "geometry": { "type": "Point", "coordinates": [ 139.839842, 38.682819 ] } },
{ "type": "Feature", "properties": { "ID": 61106620021, "正式名称": "産婦人科・小児科三井病院", "機関区分": 1, "都道府県コード": 6, "市区町村コード": 203, "所在地": "山形県鶴岡市美咲町２８−１", "緯度": 38.737057, "経度": 139.799155, "url": "https://www.iryou.teikyouseido.mhlw.go.jp/znk-web/juminkanja/S2430/initialize?prefCd=06&kikanCd=1106620021&kikanKbn=1", "url2": "http://mitsui-hospital.net/", "内容": "産婦人科・小児科三井病院【1:病院】【診療科目:0】【一般病床数:41療養病床数:0精神病床数:0感染症病床数:0合計病床数:41】山形県鶴岡市美咲町２８−１" }, "geometry": { "type": "Point", "coordinates": [ 139.799155, 38.737057 ] } },
{ "type": "Feature", "properties": { "ID": 61106620034, "正式名称": "鶴岡市立湯田川温泉リハビリテーション病院", "機関区分": 1, "都道府県コード": 6, "市区町村コード": 203, "所在地": "山形県鶴岡市湯田川字中田３５番地１０", "緯度": 38.700643, "経度": 139.773372, "url": "https://www.iryou.teikyouseido.mhlw.go.jp/znk-web/juminkanja/S2430/initialize?prefCd=06&kikanCd=1106620034&kikanKbn=1", "url2": "https://yutagawa-med.jp/", "内容": "鶴岡市立湯田川温泉リハビリテーション病院【1:病院】【診療科目:0】【一般病床数:0療養病床数:120精神病床数:0感染症病床数:0合計病床数:120】山形県鶴岡市湯田川字中田３５番地１０" }, "geometry": { "type": "Point", "coordinates": [ 139.773372, 38.700643 ] } },
{ "type": "Feature", "properties": { "ID": 61106620047, "正式名称": "鶴岡市立荘内病院", "機関区分": 1, "都道府県コード": 6, "市区町村コード": 203, "所在地": "山形県鶴岡市泉町４番２０号", "緯度": 38.731797, "経度": 139.829633, "url": "https://www.iryou.teikyouseido.mhlw.go.jp/znk-web/juminkanja/S2430/initialize?prefCd=06&kikanCd=1106620047&kikanKbn=1", "url2": "https://www.shonai-hos.jp/", "内容": "鶴岡市立荘内病院【1:病院】【診療科目:0】【一般病床数:521療養病床数:0精神病床数:0感染症病床数:0合計病床数:521】山形県鶴岡市泉町４番２０号" }, "geometry": { "type": "Point", "coordinates": [ 139.829633, 38.731797 ] } },
{ "type": "Feature", "properties": { "ID": 61106620050, "正式名称": "医療法人本間病院", "機関区分": 1, "都道府県コード": 6, "市区町村コード": 204, "所在地": "山形県酒田市中町三丁目５番２３号", "緯度": 38.91703, "経度": 139.833938, "url": "https://www.iryou.teikyouseido.mhlw.go.jp/znk-web/juminkanja/S2430/initialize?prefCd=06&kikanCd=1106620050&kikanKbn=1", "url2": "http://www.kenyukai-sakata.jp/", "内容": "医療法人本間病院【1:病院】【診療科目:0】【一般病床数:108療養病床数:50精神病床数:0感染症病床数:0合計病床数:158】山形県酒田市中町三丁目５番２３号" }, "geometry": { "type": "Point", "coordinates": [ 139.833938, 38.91703 ] } },
{ "type": "Feature", "properties": { "ID": 61106620063, "正式名称": "医療法人社団愛陽会三川病院", "機関区分": 1, "都道府県コード": 6, "市区町村コード": 426, "所在地": "山形県東田川郡三川町大字横山字堤３９番地", "緯度": 38.787496, "経度": 139.851582, "url": "https://www.iryou.teikyouseido.mhlw.go.jp/znk-web/juminkanja/S2430/initialize?prefCd=06&kikanCd=1106620063&kikanKbn=1", "url2": "http://www.aiyoukai-mikawahp.com/", "内容": "医療法人社団愛陽会三川病院【1:病院】【診療科目:0】【一般病床数:0療養病床数:50精神病床数:96感染症病床数:0合計病床数:146】山形県東田川郡三川町大字横山字堤３９番地" }, "geometry": { "type": "Point", "coordinates": [ 139.851582, 38.787496 ] } },
{ "type": "Feature", "properties": { "ID": 61106620076, "正式名称": "山形県立こころの医療センター", "機関区分": 1, "都道府県コード": 6, "市区町村コード": 203, "所在地": "山形県鶴岡市北茅原町１３番１号", "緯度": 38.756701, "経度": 139.841847, "url": "https://www.iryou.teikyouseido.mhlw.go.jp/znk-web/juminkanja/S2430/initialize?prefCd=06&kikanCd=1106620076&kikanKbn=1", "url2": "http://cocorohosp-yamagata.jp/", "内容": "山形県立こころの医療センター【1:病院】【診療科目:0】【一般病床数:0療養病床数:0精神病床数:214感染症病床数:0合計病床数:214】山形県鶴岡市北茅原町１３番１号" }, "geometry": { "type": "Point", "coordinates": [ 139.841847, 38.756701 ] } },
{ "type": "Feature", "properties": { "ID": 61106620089, "正式名称": "山容病院", "機関区分": 1, "都道府県コード": 6, "市区町村コード": 204, "所在地": "山形県酒田市浜松町１番７号", "緯度": 38.938387, "経度": 139.823358, "url": "https://www.iryou.teikyouseido.mhlw.go.jp/znk-web/juminkanja/S2430/initialize?prefCd=06&kikanCd=1106620089&kikanKbn=1", "url2": "http://www.sanyokai.jp", "内容": "山容病院【1:病院】【診療科目:0】【一般病床数:0療養病床数:0精神病床数:220感染症病床数:0合計病床数:220】山形県酒田市浜松町１番７号" }, "geometry": { "type": "Point", "coordinates": [ 139.823358, 38.938387 ] } }
]
}
