{
"type": "FeatureCollection",
"name": "geo_06_訪問介護",
"crs": { "type": "name", "properties": { "name": "urn:ogc:def:crs:OGC:1.3:CRS84" } },
"features": [
{ "type": "Feature", "properties": { "内容": "ホームケア土屋山形【訪問介護】山形県山形市城北町2丁目10-9", "url2": "https://www.kaigokensaku.mhlw.go.jp/06/index.php?action_kouhyou_detail_004_kani=true&JigyosyoCd=0670104835-00&ServiceCd=110&Type=search" }, "geometry": { "type": "Point", "coordinates": [ 140.3255705, 38.2602615 ] } },
{ "type": "Feature", "properties": { "内容": "エ・アロール　ベーシック【訪問介護】山形県山形市桜田西2丁目5-12", "url2": "https://www.kaigokensaku.mhlw.go.jp/06/index.php?action_kouhyou_detail_004_kani=true&JigyosyoCd=0670102995-00&ServiceCd=110&Type=search" }, "geometry": { "type": "Point", "coordinates": [ 140.329561300000023, 38.2434815 ] } },
{ "type": "Feature", "properties": { "内容": "街の介護屋さんピース【訪問介護】山形県山形市双月町四丁目6番7号", "url2": "https://www.kaigokensaku.mhlw.go.jp/06/index.php?action_kouhyou_detail_004_kani=true&JigyosyoCd=0670105063-00&ServiceCd=110&Type=search" }, "geometry": { "type": "Point", "coordinates": [ 140.3539013, 38.2541575 ] } },
{ "type": "Feature", "properties": { "内容": "ニチイケアセンター山形五十鈴【訪問介護】山形県山形市五十鈴２丁目２―６８", "url2": "https://www.kaigokensaku.mhlw.go.jp/06/index.php?action_kouhyou_detail_004_kani=true&JigyosyoCd=0670100585-00&ServiceCd=110&Type=search" }, "geometry": { "type": "Point", "coordinates": [ 140.3528417, 38.2733675 ] } },
{ "type": "Feature", "properties": { "内容": "ニチイケアセンター山形【訪問介護】山形県山形市上町3丁目12-6", "url2": "https://www.kaigokensaku.mhlw.go.jp/06/index.php?action_kouhyou_detail_004_kani=true&JigyosyoCd=0670100486-00&ServiceCd=110&Type=search" }, "geometry": { "type": "Point", "coordinates": [ 140.319406800000024, 38.2400066 ] } },
{ "type": "Feature", "properties": { "内容": "ニチイケアセンター山形中央【訪問介護】山形市城西町4丁目18番30号", "url2": "https://www.kaigokensaku.mhlw.go.jp/06/index.php?action_kouhyou_detail_004_kani=true&JigyosyoCd=0670100924-00&ServiceCd=110&Type=search" }, "geometry": { "type": "Point", "coordinates": [ 140.32228090000001, 38.2598132 ] } },
{ "type": "Feature", "properties": { "内容": "ニチイケアセンター江俣【訪問介護】山形県山形市江俣４丁目20番17号サンセットアベニュー1階101号室", "url2": "https://www.kaigokensaku.mhlw.go.jp/06/index.php?action_kouhyou_detail_004_kani=true&JigyosyoCd=0670104645-00&ServiceCd=110&Type=search" }, "geometry": { "type": "Point", "coordinates": [ 140.3155362, 38.2790286 ] } },
{ "type": "Feature", "properties": { "内容": "ﾆﾁｲｹｱｾﾝﾀｰみなみはら【訪問介護】山形県山形市南原町1丁目18番1号コーポ青柳102号室", "url2": "https://www.kaigokensaku.mhlw.go.jp/06/index.php?action_kouhyou_detail_004_kani=true&JigyosyoCd=0670104652-00&ServiceCd=110&Type=search" }, "geometry": { "type": "Point", "coordinates": [ 140.343896299999983, 38.2373406 ] } },
{ "type": "Feature", "properties": { "内容": "医心館訪問介護ステーション山形【訪問介護】山形県山形市馬見ヶ崎1丁目10-25", "url2": "https://www.kaigokensaku.mhlw.go.jp/06/index.php?action_kouhyou_detail_004_kani=true&JigyosyoCd=0670104629-00&ServiceCd=110&Type=search" }, "geometry": { "type": "Point", "coordinates": [ 140.334297900000024, 38.2813016 ] } },
{ "type": "Feature", "properties": { "内容": "医心館訪問介護ステーション山形Ⅱ【訪問介護】山形県山形市南栄町二丁目14番2号", "url2": "https://www.kaigokensaku.mhlw.go.jp/06/index.php?action_kouhyou_detail_004_kani=true&JigyosyoCd=0670104868-00&ServiceCd=110&Type=search" }, "geometry": { "type": "Point", "coordinates": [ 140.31915810000001, 38.2311622 ] } },
{ "type": "Feature", "properties": { "内容": "訪問介護アイラ【訪問介護】山形県山形市小立4丁目20番3号アルファＡ101号室", "url2": "https://www.kaigokensaku.mhlw.go.jp/06/index.php?action_kouhyou_detail_004_kani=true&JigyosyoCd=0670104892-00&ServiceCd=110&Type=search" }, "geometry": { "type": "Point", "coordinates": [ 140.3464511, 38.224118 ] } },
{ "type": "Feature", "properties": { "内容": "指定訪問介護事業所つむぐ縁【訪問介護】山形県山形市松栄一丁目３－８山形県産業創造支援センター２０１", "url2": "https://www.kaigokensaku.mhlw.go.jp/06/index.php?action_kouhyou_detail_004_kani=true&JigyosyoCd=0670105139-00&ServiceCd=110&Type=search" }, "geometry": { "type": "Point", "coordinates": [ 140.297897674763817, 38.239210093802313 ] } },
{ "type": "Feature", "properties": { "内容": "ＳＯＭＰＯケア　山形桜田　訪問介護【訪問介護】山形市桜田西4-17-1桜田悠々館2Ｆ-D号室", "url2": "https://www.kaigokensaku.mhlw.go.jp/06/index.php?action_kouhyou_detail_004_kani=true&JigyosyoCd=0670104496-00&ServiceCd=110&Type=search" }, "geometry": { "type": "Point", "coordinates": [ 140.315243900000041, 38.2187167 ] } },
{ "type": "Feature", "properties": { "内容": "ヘルパーステーション虹【訪問介護】山形県山形市北町三丁目1-37協同の家虹", "url2": "https://www.kaigokensaku.mhlw.go.jp/06/index.php?action_kouhyou_detail_004_kani=true&JigyosyoCd=0670104314-00&ServiceCd=110&Type=search" }, "geometry": { "type": "Point", "coordinates": [ 140.329260400000067, 38.2720399 ] } },
{ "type": "Feature", "properties": { "内容": "アースサポート山形【訪問介護】山形県山形市吉原1丁目11-13", "url2": "https://www.kaigokensaku.mhlw.go.jp/06/index.php?action_kouhyou_detail_004_kani=true&JigyosyoCd=0670101617-00&ServiceCd=110&Type=search" }, "geometry": { "type": "Point", "coordinates": [ 140.315521009031727, 38.228292377269256 ] } },
{ "type": "Feature", "properties": { "内容": "ＪＡやまがた福祉センター青田【訪問介護】山形県山形市青田一丁目４番２１号", "url2": "https://www.kaigokensaku.mhlw.go.jp/06/index.php?action_kouhyou_detail_004_kani=true&JigyosyoCd=0670103159-00&ServiceCd=110&Type=search" }, "geometry": { "type": "Point", "coordinates": [ 140.329464700000017, 38.2261331 ] } },
{ "type": "Feature", "properties": { "内容": "山形市社会福祉協議会訪問介護事業所【訪問介護】山形県山形市城西町二丁目２－２２", "url2": "https://www.kaigokensaku.mhlw.go.jp/06/index.php?action_kouhyou_detail_004_kani=true&JigyosyoCd=0670100676-00&ServiceCd=110&Type=search" }, "geometry": { "type": "Point", "coordinates": [ 140.322033799999986, 38.2546692 ] } },
{ "type": "Feature", "properties": { "内容": "訪問介護事業所Ｔｒｉｍ【訪問介護】山形県山形市江俣五丁目1番1号　シャーメゾン・ベレオ102", "url2": "https://www.kaigokensaku.mhlw.go.jp/06/index.php?action_kouhyou_detail_004_kani=true&JigyosyoCd=0670105071-00&ServiceCd=110&Type=search" }, "geometry": { "type": "Point", "coordinates": [ 140.314443864285124, 38.276549643448483 ] } },
{ "type": "Feature", "properties": { "内容": "ヘルパーステーション　樫の木【訪問介護】山形市上町４丁目６－２４", "url2": "https://www.kaigokensaku.mhlw.go.jp/06/index.php?action_kouhyou_detail_004_kani=true&JigyosyoCd=0670103167-00&ServiceCd=110&Type=search" }, "geometry": { "type": "Point", "coordinates": [ 140.313329599999946, 38.2444227 ] } },
{ "type": "Feature", "properties": { "内容": "訪問介護こころ【訪問介護】山形県山形市山家町2-7-17", "url2": "https://www.kaigokensaku.mhlw.go.jp/06/index.php?action_kouhyou_detail_004_kani=true&JigyosyoCd=0670104397-00&ServiceCd=110&Type=search" }, "geometry": { "type": "Point", "coordinates": [ 140.361518899999965, 38.2632355 ] } },
{ "type": "Feature", "properties": { "内容": "訪問介護こころやまがた【訪問介護】山形県山形市中桜田1丁目12-6桜田庭学館101号室", "url2": "https://www.kaigokensaku.mhlw.go.jp/06/index.php?action_kouhyou_detail_004_kani=true&JigyosyoCd=0670105147-00&ServiceCd=110&Type=search" }, "geometry": { "type": "Point", "coordinates": [ 140.332122199999986, 38.2180823 ] } },
{ "type": "Feature", "properties": { "内容": "愛和ケアセンター【訪問介護】山形市漆山1835", "url2": "https://www.kaigokensaku.mhlw.go.jp/06/index.php?action_kouhyou_detail_004_kani=true&JigyosyoCd=0670101146-00&ServiceCd=110&Type=search" }, "geometry": { "type": "Point", "coordinates": [ 140.354420144180295, 38.316795911075218 ] } },
{ "type": "Feature", "properties": { "内容": "敬寿園訪問介護事業所【訪問介護】山形市大字妙見寺５００－１", "url2": "https://www.kaigokensaku.mhlw.go.jp/06/index.php?action_kouhyou_detail_004_kani=true&JigyosyoCd=0670100569-00&ServiceCd=110&Type=search" }, "geometry": { "type": "Point", "coordinates": [ 140.377843200000029, 38.2370975 ] } },
{ "type": "Feature", "properties": { "内容": "訪問介護ステーションプルメリア【訪問介護】山形県山形市嶋南二丁目2番7号", "url2": "https://www.kaigokensaku.mhlw.go.jp/06/index.php?action_kouhyou_detail_004_kani=true&JigyosyoCd=0670103589-00&ServiceCd=110&Type=search" }, "geometry": { "type": "Point", "coordinates": [ 140.318486600000028, 38.2786778 ] } },
{ "type": "Feature", "properties": { "内容": "訪問介護エス＆ケイ【訪問介護】山形県山形市西田３丁目３番１５号", "url2": "https://www.kaigokensaku.mhlw.go.jp/06/index.php?action_kouhyou_detail_004_kani=true&JigyosyoCd=0670104108-00&ServiceCd=110&Type=search" }, "geometry": { "type": "Point", "coordinates": [ 140.315207900000019, 38.2666411 ] } },
{ "type": "Feature", "properties": { "内容": "訪問介護つばさ【訪問介護】山形県山形市北町2‐6-6", "url2": "https://www.kaigokensaku.mhlw.go.jp/06/index.php?action_kouhyou_detail_004_kani=true&JigyosyoCd=0670105022-00&ServiceCd=110&Type=search" }, "geometry": { "type": "Point", "coordinates": [ 140.3300111, 38.2705257 ] } },
{ "type": "Feature", "properties": { "内容": "わたげの会訪問介護事業所【訪問介護】山形市上町1-9-17", "url2": "https://www.kaigokensaku.mhlw.go.jp/06/index.php?action_kouhyou_detail_004_kani=true&JigyosyoCd=0670100528-00&ServiceCd=110&Type=search" }, "geometry": { "type": "Point", "coordinates": [ 140.319903899999986, 38.2419481 ] } },
{ "type": "Feature", "properties": { "内容": "指定訪問介護事業所　ヘルパーステーションよねき【訪問介護】山形県山形市大字前明石字京旦121-1", "url2": "https://www.kaigokensaku.mhlw.go.jp/06/index.php?action_kouhyou_detail_004_kani=true&JigyosyoCd=0670101484-00&ServiceCd=110&Type=search" }, "geometry": { "type": "Point", "coordinates": [ 140.301037, 38.2317957 ] } },
{ "type": "Feature", "properties": { "内容": "セントケア山形【訪問介護】山形県山形市十日町3丁目6番43号ほうゆうキャピタル", "url2": "https://www.kaigokensaku.mhlw.go.jp/06/index.php?action_kouhyou_detail_004_kani=true&JigyosyoCd=0670104587-00&ServiceCd=110&Type=search" }, "geometry": { "type": "Point", "coordinates": [ 140.334080500000027, 38.2437502 ] } },
{ "type": "Feature", "properties": { "内容": "愛・訪問介護ステーション山形【訪問介護】山形県山形市春日町5-15エルエスペランス104", "url2": "https://www.kaigokensaku.mhlw.go.jp/06/index.php?action_kouhyou_detail_004_kani=true&JigyosyoCd=0670104223-00&ServiceCd=110&Type=search" }, "geometry": { "type": "Point", "coordinates": [ 140.317856600000027, 38.2520749 ] } },
{ "type": "Feature", "properties": { "内容": "愛・訪問介護ステーション山形北【訪問介護】山形県山形市大野目3-2-7レジデンス武田105", "url2": "https://www.kaigokensaku.mhlw.go.jp/06/index.php?action_kouhyou_detail_004_kani=true&JigyosyoCd=0670105097-00&ServiceCd=110&Type=search" }, "geometry": { "type": "Point", "coordinates": [ 140.35903, 38.2804419 ] } },
{ "type": "Feature", "properties": { "内容": "ゴールデンスタッフ山形【訪問介護】山形県山形市上町五丁目5番地27号フォレストネットビル201号", "url2": "https://www.kaigokensaku.mhlw.go.jp/06/index.php?action_kouhyou_detail_004_kani=true&JigyosyoCd=0670102623-00&ServiceCd=110&Type=search" }, "geometry": { "type": "Point", "coordinates": [ 140.3120854, 38.24277 ] } },
{ "type": "Feature", "properties": { "内容": "あすなろ訪問介護事業所【訪問介護】山形県山形市桧町二丁目7-35", "url2": "https://www.kaigokensaku.mhlw.go.jp/06/index.php?action_kouhyou_detail_004_kani=true&JigyosyoCd=0670104843-00&ServiceCd=110&Type=search" }, "geometry": { "type": "Point", "coordinates": [ 140.3331507, 38.2764872 ] } },
{ "type": "Feature", "properties": { "内容": "訪問介護事業所　てらす【訪問介護】山形県山形市飯田西四丁目12番8号", "url2": "https://www.kaigokensaku.mhlw.go.jp/06/index.php?action_kouhyou_detail_004_kani=true&JigyosyoCd=0670104785-00&ServiceCd=110&Type=search" }, "geometry": { "type": "Point", "coordinates": [ 140.317318699999959, 38.211828200000014 ] } },
{ "type": "Feature", "properties": { "内容": "せんじゅ在宅サービス【訪問介護】山形市鳥居ケ丘18-1", "url2": "https://www.kaigokensaku.mhlw.go.jp/06/index.php?action_kouhyou_detail_004_kani=true&JigyosyoCd=0670102896-00&ServiceCd=110&Type=search" }, "geometry": { "type": "Point", "coordinates": [ 140.334432942225845, 38.228158502143309 ] } },
{ "type": "Feature", "properties": { "内容": "くつろ木吉の原訪問介護事業所【訪問介護】山形市若宮四丁目1番1号", "url2": "https://www.kaigokensaku.mhlw.go.jp/06/index.php?action_kouhyou_detail_004_kani=true&JigyosyoCd=0670103704-00&ServiceCd=110&Type=search" }, "geometry": { "type": "Point", "coordinates": [ 140.308404998194902, 38.228213617840865 ] } },
{ "type": "Feature", "properties": { "内容": "吉村建装訪問介護事業部【訪問介護】山形県米沢市城西４丁目２番５０号", "url2": "https://www.kaigokensaku.mhlw.go.jp/06/index.php?action_kouhyou_detail_004_kani=true&JigyosyoCd=0670402106-00&ServiceCd=110&Type=search" }, "geometry": { "type": "Point", "coordinates": [ 140.095467365378084, 37.915185245172935 ] } },
{ "type": "Feature", "properties": { "内容": "ＪＡ山形おきたま福祉センター川西【訪問介護】山形県米沢市広幡町上小菅638-4", "url2": "https://www.kaigokensaku.mhlw.go.jp/06/index.php?action_kouhyou_detail_004_kani=true&JigyosyoCd=0670401926-00&ServiceCd=110&Type=search" }, "geometry": { "type": "Point", "coordinates": [ 140.078617507901981, 37.945791021253669 ] } },
{ "type": "Feature", "properties": { "内容": "訪問介護ステーション万益舎【訪問介護】山形県米沢市大字笹野595番地の19", "url2": "https://www.kaigokensaku.mhlw.go.jp/06/index.php?action_kouhyou_detail_004_kani=true&JigyosyoCd=0670401934-00&ServiceCd=110&Type=search" }, "geometry": { "type": "Point", "coordinates": [ 140.110360065047075, 37.881627990603853 ] } },
{ "type": "Feature", "properties": { "内容": "ニチイケアセンター米沢【訪問介護】米沢市金池五丁目１３－２１", "url2": "https://www.kaigokensaku.mhlw.go.jp/06/index.php?action_kouhyou_detail_004_kani=true&JigyosyoCd=0670400357-00&ServiceCd=110&Type=search" }, "geometry": { "type": "Point", "coordinates": [ 140.119108399999959, 37.9251676 ] } },
{ "type": "Feature", "properties": { "内容": "ニチイケアセンター米沢大町【訪問介護】山形県米沢市大町2丁目3番57号メゾン・ライゼ105号室", "url2": "https://www.kaigokensaku.mhlw.go.jp/06/index.php?action_kouhyou_detail_004_kani=true&JigyosyoCd=0670401991-00&ServiceCd=110&Type=search" }, "geometry": { "type": "Point", "coordinates": [ 140.112197499999979, 37.9073125 ] } },
{ "type": "Feature", "properties": { "内容": "ニチイケアセンター西米沢【訪問介護】米沢市成島町２丁目１番１１０-１６号ニチイケアセンター西米沢", "url2": "https://www.kaigokensaku.mhlw.go.jp/06/index.php?action_kouhyou_detail_004_kani=true&JigyosyoCd=0670400811-00&ServiceCd=110&Type=search" }, "geometry": { "type": "Point", "coordinates": [ 140.085128325131222, 37.921059514121275 ] } },
{ "type": "Feature", "properties": { "内容": "シエンズホームケア事務所米沢【訪問介護】山形県米沢市大町3丁目6番39号", "url2": "https://www.kaigokensaku.mhlw.go.jp/06/index.php?action_kouhyou_detail_004_kani=true&JigyosyoCd=0670402171-00&ServiceCd=110&Type=search" }, "geometry": { "type": "Point", "coordinates": [ 140.1122296, 37.9085139 ] } },
{ "type": "Feature", "properties": { "内容": "ケアセンターマロニエ【訪問介護】山形県米沢市徳町210-1", "url2": "https://www.kaigokensaku.mhlw.go.jp/06/index.php?action_kouhyou_detail_004_kani=true&JigyosyoCd=0670402221-00&ServiceCd=110&Type=search" }, "geometry": { "type": "Point", "coordinates": [ 140.09695, 37.92182 ] } },
{ "type": "Feature", "properties": { "内容": "ケアセンターてらす【訪問介護】山形県米沢市窪田町窪田1435-13", "url2": "https://www.kaigokensaku.mhlw.go.jp/06/index.php?action_kouhyou_detail_004_kani=true&JigyosyoCd=0670401975-00&ServiceCd=110&Type=search" }, "geometry": { "type": "Point", "coordinates": [ 140.1253044, 37.9548036 ] } },
{ "type": "Feature", "properties": { "内容": "スマートライフ訪問介護事業所【訪問介護】山形県米沢市駅前1丁目1‐110", "url2": "https://www.kaigokensaku.mhlw.go.jp/06/index.php?action_kouhyou_detail_004_kani=true&JigyosyoCd=0670401892-00&ServiceCd=110&Type=search" }, "geometry": { "type": "Point", "coordinates": [ 140.129382911045042, 37.908718989722125 ] } },
{ "type": "Feature", "properties": { "内容": "ココロケア米沢【訪問介護】山形県米沢市下花沢三丁目9-52", "url2": "https://www.kaigokensaku.mhlw.go.jp/06/index.php?action_kouhyou_detail_004_kani=true&JigyosyoCd=0670401728-00&ServiceCd=110&Type=search" }, "geometry": { "type": "Point", "coordinates": [ 140.12792328095091, 37.917455740927103 ] } },
{ "type": "Feature", "properties": { "内容": "株式会社サン十字ホームヘルプサービス【訪問介護】山形県米沢市中田町751-1", "url2": "https://www.kaigokensaku.mhlw.go.jp/06/index.php?action_kouhyou_detail_004_kani=true&JigyosyoCd=0670400258-00&ServiceCd=110&Type=search" }, "geometry": { "type": "Point", "coordinates": [ 140.128683799999976, 37.9438379 ] } },
{ "type": "Feature", "properties": { "内容": "ぬくもり訪問介護事業所【訪問介護】山形県米沢市松が岬2丁目6-16", "url2": "https://www.kaigokensaku.mhlw.go.jp/06/index.php?action_kouhyou_detail_004_kani=true&JigyosyoCd=0670401298-00&ServiceCd=110&Type=search" }, "geometry": { "type": "Point", "coordinates": [ 140.099351500000012, 37.910437800000018 ] } },
{ "type": "Feature", "properties": { "内容": "さんデイケアホームヘルパーステーション【訪問介護】山形県米沢市大字簗沢3463番地", "url2": "https://www.kaigokensaku.mhlw.go.jp/06/index.php?action_kouhyou_detail_004_kani=true&JigyosyoCd=0670400324-00&ServiceCd=110&Type=search" }, "geometry": { "type": "Point", "coordinates": [ 140.051989400000025, 37.8886862 ] } },
{ "type": "Feature", "properties": { "内容": "有限会社　ヴィーヴル【訪問介護】山形県米沢市門東町2丁目7番21号チャーメリー上杉公園１階", "url2": "https://www.kaigokensaku.mhlw.go.jp/06/index.php?action_kouhyou_detail_004_kani=true&JigyosyoCd=0670400894-00&ServiceCd=110&Type=search" }, "geometry": { "type": "Point", "coordinates": [ 140.108601763228876, 37.909305006304429 ] } },
{ "type": "Feature", "properties": { "内容": "ラベンダーの丘　訪問介護センター【訪問介護】山形県米沢市直江石堤28-2", "url2": "https://www.kaigokensaku.mhlw.go.jp/06/index.php?action_kouhyou_detail_004_kani=true&JigyosyoCd=0670401124-00&ServiceCd=110&Type=search" }, "geometry": { "type": "Point", "coordinates": [ 140.117284400000017, 37.8747846 ] } },
{ "type": "Feature", "properties": { "内容": "楽らくケアセンター指定訪問介護事業所【訪問介護】山形県米沢市大町5丁目4-51", "url2": "https://www.kaigokensaku.mhlw.go.jp/06/index.php?action_kouhyou_detail_004_kani=true&JigyosyoCd=0670400613-00&ServiceCd=110&Type=search" }, "geometry": { "type": "Point", "coordinates": [ 140.113631955088664, 37.913287621327534 ] } },
{ "type": "Feature", "properties": { "内容": "おいたまの郷指定訪問介護事業所【訪問介護】米沢市下新田28番地", "url2": "https://www.kaigokensaku.mhlw.go.jp/06/index.php?action_kouhyou_detail_004_kani=true&JigyosyoCd=0670400431-00&ServiceCd=110&Type=search" }, "geometry": { "type": "Point", "coordinates": [ 140.148228300000028, 37.9595032 ] } },
{ "type": "Feature", "properties": { "内容": "ツクイ米沢　介護【訪問介護】山形県米沢市栄町1-4", "url2": "https://www.kaigokensaku.mhlw.go.jp/06/index.php?action_kouhyou_detail_004_kani=true&JigyosyoCd=0670402072-00&ServiceCd=110&Type=search" }, "geometry": { "type": "Point", "coordinates": [ 140.1144854, 37.9219475 ] } },
{ "type": "Feature", "properties": { "内容": "山形県高齢者福祉生活協同組合米沢地域福祉事業所「まごころ」【訪問介護】山形県米沢市舘山1丁目1番19号", "url2": "https://www.kaigokensaku.mhlw.go.jp/06/index.php?action_kouhyou_detail_004_kani=true&JigyosyoCd=0670400571-00&ServiceCd=110&Type=search" }, "geometry": { "type": "Point", "coordinates": [ 140.080592542883352, 37.91094551228187 ] } },
{ "type": "Feature", "properties": { "内容": "米沢清友会ヘルパーステーション【訪問介護】山形県米沢市金池７丁目６－６０", "url2": "https://www.kaigokensaku.mhlw.go.jp/06/index.php?action_kouhyou_detail_004_kani=true&JigyosyoCd=0670401793-00&ServiceCd=110&Type=search" }, "geometry": { "type": "Point", "coordinates": [ 140.118319299999939, 37.92832 ] } },
{ "type": "Feature", "properties": { "内容": "愛のまちホームヘルパーステーション【訪問介護】山形県米沢市城北１丁目2-5", "url2": "https://www.kaigokensaku.mhlw.go.jp/06/index.php?action_kouhyou_detail_004_kani=true&JigyosyoCd=0670402130-00&ServiceCd=110&Type=search" }, "geometry": { "type": "Point", "coordinates": [ 140.105818699999986, 37.9141135 ] } },
{ "type": "Feature", "properties": { "内容": "ケアセンターなごみ【訪問介護】山形県米沢市泉町二丁目１番６号", "url2": "https://www.kaigokensaku.mhlw.go.jp/06/index.php?action_kouhyou_detail_004_kani=true&JigyosyoCd=0671900017-00&ServiceCd=110&Type=search" }, "geometry": { "type": "Point", "coordinates": [ 140.103662727586425, 37.895739710285213 ] } },
{ "type": "Feature", "properties": { "内容": "訪問介護ステーション　花はな【訪問介護】山形県米沢市城南一丁目５番４１号", "url2": "https://www.kaigokensaku.mhlw.go.jp/06/index.php?action_kouhyou_detail_004_kani=true&JigyosyoCd=0670401595-00&ServiceCd=110&Type=search" }, "geometry": { "type": "Point", "coordinates": [ 140.106193022259475, 37.906701730599664 ] } },
{ "type": "Feature", "properties": { "内容": "花の里　訪問介護事業所【訪問介護】山形県米沢市大字笹野170番地", "url2": "https://www.kaigokensaku.mhlw.go.jp/06/index.php?action_kouhyou_detail_004_kani=true&JigyosyoCd=0670402262-00&ServiceCd=110&Type=search" }, "geometry": { "type": "Point", "coordinates": [ 140.111257, 37.8769795 ] } },
{ "type": "Feature", "properties": { "内容": "訪問介護　きんもくせい【訪問介護】山形県鶴岡市上山添字神明前310", "url2": "https://www.kaigokensaku.mhlw.go.jp/06/index.php?action_kouhyou_detail_004_kani=true&JigyosyoCd=0670701812-00&ServiceCd=110&Type=search" }, "geometry": { "type": "Point", "coordinates": [ 139.843774991054346, 38.677007474095213 ] } },
{ "type": "Feature", "properties": { "内容": "ヘルパーセンター　アライブ【訪問介護】山形県鶴岡市昭和町７番１６号", "url2": "https://www.kaigokensaku.mhlw.go.jp/06/index.php?action_kouhyou_detail_004_kani=true&JigyosyoCd=0670701549-00&ServiceCd=110&Type=search" }, "geometry": { "type": "Point", "coordinates": [ 139.834811697553249, 38.726650759956691 ] } },
{ "type": "Feature", "properties": { "内容": "すずらん・ケア有限会社【訪問介護】鶴岡市日出一丁目３番３１号", "url2": "https://www.kaigokensaku.mhlw.go.jp/06/index.php?action_kouhyou_detail_004_kani=true&JigyosyoCd=0670700640-00&ServiceCd=110&Type=search" }, "geometry": { "type": "Point", "coordinates": [ 139.842457200000013, 38.722545 ] } },
{ "type": "Feature", "properties": { "内容": "ニチイケアセンタ－鶴岡【訪問介護】山形県鶴岡市若葉町23番38号", "url2": "https://www.kaigokensaku.mhlw.go.jp/06/index.php?action_kouhyou_detail_004_kani=true&JigyosyoCd=0670700376-00&ServiceCd=110&Type=search" }, "geometry": { "type": "Point", "coordinates": [ 139.827036099999987, 38.731752300000011 ] } },
{ "type": "Feature", "properties": { "内容": "ニチイケアセンター鶴岡みさき【訪問介護】山形県鶴岡市美咲町7-16", "url2": "https://www.kaigokensaku.mhlw.go.jp/06/index.php?action_kouhyou_detail_004_kani=true&JigyosyoCd=0670700491-00&ServiceCd=110&Type=search" }, "geometry": { "type": "Point", "coordinates": [ 139.80043, 38.7359652 ] } },
{ "type": "Feature", "properties": { "内容": "ニチイケアセンター宝田【訪問介護】山形県鶴岡市宝田三丁目10番45号", "url2": "https://www.kaigokensaku.mhlw.go.jp/06/index.php?action_kouhyou_detail_004_kani=true&JigyosyoCd=0670702026-00&ServiceCd=110&Type=search" }, "geometry": { "type": "Point", "coordinates": [ 139.846608400000036, 38.7499978 ] } },
{ "type": "Feature", "properties": { "内容": "ニチイケアセンター桜新町【訪問介護】山形県鶴岡市桜新町12番12号", "url2": "https://www.kaigokensaku.mhlw.go.jp/06/index.php?action_kouhyou_detail_004_kani=true&JigyosyoCd=0670702034-00&ServiceCd=110&Type=search" }, "geometry": { "type": "Point", "coordinates": [ 139.840078875532555, 38.717784585277457 ] } },
{ "type": "Feature", "properties": { "内容": "ケアリッツ【訪問介護】山形県鶴岡市羽黒町川代字八森238番地", "url2": "https://www.kaigokensaku.mhlw.go.jp/06/index.php?action_kouhyou_detail_004_kani=true&JigyosyoCd=0670701507-00&ServiceCd=110&Type=search" }, "geometry": { "type": "Point", "coordinates": [ 139.920729899999969, 38.6900584 ] } },
{ "type": "Feature", "properties": { "内容": "ホームヘルパーセンターしおん【訪問介護】山形県鶴岡市馬町字枇杷川原23番地", "url2": "https://www.kaigokensaku.mhlw.go.jp/06/index.php?action_kouhyou_detail_004_kani=true&JigyosyoCd=0670700293-00&ServiceCd=110&Type=search" }, "geometry": { "type": "Point", "coordinates": [ 139.767826618707971, 38.763484602163523 ] } },
{ "type": "Feature", "properties": { "内容": "ホームヘルプ温寿荘【訪問介護】山形県鶴岡市槙代丁53番地１", "url2": "https://www.kaigokensaku.mhlw.go.jp/06/index.php?action_kouhyou_detail_004_kani=true&JigyosyoCd=0673100053-00&ServiceCd=110&Type=search" }, "geometry": { "type": "Point", "coordinates": [ 139.593908, 38.6012141 ] } },
{ "type": "Feature", "properties": { "内容": "ホームヘルパーかみじ荘【訪問介護】山形県鶴岡市羽黒町手向薬師沢１９８番地３", "url2": "https://www.kaigokensaku.mhlw.go.jp/06/index.php?action_kouhyou_detail_004_kani=true&JigyosyoCd=0673000386-00&ServiceCd=110&Type=search" }, "geometry": { "type": "Point", "coordinates": [ 139.941135300000042, 38.7180786 ] } },
{ "type": "Feature", "properties": { "内容": "ホームヘルパーセンターともえ【訪問介護】山形県鶴岡市北茅原町17番1号", "url2": "https://www.kaigokensaku.mhlw.go.jp/06/index.php?action_kouhyou_detail_004_kani=true&JigyosyoCd=0670700137-00&ServiceCd=110&Type=search" }, "geometry": { "type": "Point", "coordinates": [ 139.842502858180268, 38.757720851617073 ] } },
{ "type": "Feature", "properties": { "内容": "ヘルパーステーション　はーとふる海老島【訪問介護】山形県鶴岡市日枝字海老島64", "url2": "https://www.kaigokensaku.mhlw.go.jp/06/index.php?action_kouhyou_detail_004_kani=true&JigyosyoCd=0670701242-00&ServiceCd=110&Type=search" }, "geometry": { "type": "Point", "coordinates": [ 139.836661899999967, 38.6168234 ] } },
{ "type": "Feature", "properties": { "内容": "みつたま訪問介護事業所【訪問介護】山形県鶴岡市大西町19番14号", "url2": "https://www.kaigokensaku.mhlw.go.jp/06/index.php?action_kouhyou_detail_004_kani=true&JigyosyoCd=0670702042-00&ServiceCd=110&Type=search" }, "geometry": { "type": "Point", "coordinates": [ 139.807755899999989, 38.7283903 ] } },
{ "type": "Feature", "properties": { "内容": "在宅支援サービス　澄花【訪問介護】山形県鶴岡市大山字堤下2番31号", "url2": "https://www.kaigokensaku.mhlw.go.jp/06/index.php?action_kouhyou_detail_004_kani=true&JigyosyoCd=0670701994-00&ServiceCd=110&Type=search" }, "geometry": { "type": "Point", "coordinates": [ 139.757414035150418, 38.747799910639117 ] } },
{ "type": "Feature", "properties": { "内容": "のぞみの園訪問介護サービス【訪問介護】山形県鶴岡市北茅原町5-10", "url2": "https://www.kaigokensaku.mhlw.go.jp/06/index.php?action_kouhyou_detail_004_kani=true&JigyosyoCd=0670700566-00&ServiceCd=110&Type=search" }, "geometry": { "type": "Point", "coordinates": [ 139.841059459246821, 38.75472716644196 ] } },
{ "type": "Feature", "properties": { "内容": "訪問介護ひまわり【訪問介護】山形県鶴岡市稲生一丁目3番5号", "url2": "https://www.kaigokensaku.mhlw.go.jp/06/index.php?action_kouhyou_detail_004_kani=true&JigyosyoCd=0670700111-00&ServiceCd=110&Type=search" }, "geometry": { "type": "Point", "coordinates": [ 139.81246550000003, 38.7206169 ] } },
{ "type": "Feature", "properties": { "内容": "健楽園ホームヘルパーセンター【訪問介護】山形県鶴岡市美原町３番７号", "url2": "https://www.kaigokensaku.mhlw.go.jp/06/index.php?action_kouhyou_detail_004_kani=true&JigyosyoCd=0670700335-00&ServiceCd=110&Type=search" }, "geometry": { "type": "Point", "coordinates": [ 139.821192500000052, 38.7218226 ] } },
{ "type": "Feature", "properties": { "内容": "鶴岡市社会福祉協議会訪問介護事業所【訪問介護】山形県鶴岡市西新斎町１４番２６号鶴岡ふれあいプラザかたりあい", "url2": "https://www.kaigokensaku.mhlw.go.jp/06/index.php?action_kouhyou_detail_004_kani=true&JigyosyoCd=0670701614-00&ServiceCd=110&Type=search" }, "geometry": { "type": "Point", "coordinates": [ 139.814420400000017, 38.7378404 ] } },
{ "type": "Feature", "properties": { "内容": "瑞穂の郷　訪問介護ステーション【訪問介護】鶴岡市羽黒町細谷字北田１２８－１", "url2": "https://www.kaigokensaku.mhlw.go.jp/06/index.php?action_kouhyou_detail_004_kani=true&JigyosyoCd=0670701200-00&ServiceCd=110&Type=search" }, "geometry": { "type": "Point", "coordinates": [ 139.8616022, 38.737413 ] } },
{ "type": "Feature", "properties": { "内容": "鶴岡地域福祉事業所ヘルパーステーション海老島【訪問介護】山形県鶴岡市大西町3番35号", "url2": "https://www.kaigokensaku.mhlw.go.jp/06/index.php?action_kouhyou_detail_004_kani=true&JigyosyoCd=0670700269-00&ServiceCd=110&Type=search" }, "geometry": { "type": "Point", "coordinates": [ 139.810929269897429, 38.728678831902336 ] } },
{ "type": "Feature", "properties": { "内容": "ヘルパーステーション奏【訪問介護】山形県鶴岡市藤沢字石渡15-12", "url2": "https://www.kaigokensaku.mhlw.go.jp/06/index.php?action_kouhyou_detail_004_kani=true&JigyosyoCd=0670702075-00&ServiceCd=110&Type=search" }, "geometry": { "type": "Point", "coordinates": [ 139.776375839431097, 38.697494258759832 ] } },
{ "type": "Feature", "properties": { "内容": "ヘルパーステーションぬくもり【訪問介護】鶴岡市日枝字海老島３６番４号", "url2": "https://www.kaigokensaku.mhlw.go.jp/06/index.php?action_kouhyou_detail_004_kani=true&JigyosyoCd=0670701093-00&ServiceCd=110&Type=search" }, "geometry": { "type": "Point", "coordinates": [ 139.826161700000057, 38.7131513 ] } },
{ "type": "Feature", "properties": { "内容": "庄内たがわ農業協同組合【訪問介護】山形県鶴岡市長沼字宮前23番1", "url2": "https://www.kaigokensaku.mhlw.go.jp/06/index.php?action_kouhyou_detail_004_kani=true&JigyosyoCd=0670701788-00&ServiceCd=110&Type=search" }, "geometry": { "type": "Point", "coordinates": [ 139.873939676728469, 38.803090552128651 ] } },
{ "type": "Feature", "properties": { "内容": "愛ネット　さかた【訪問介護】山形県酒田市ゆたか２丁目１４－２SハイツＡ号", "url2": "https://www.kaigokensaku.mhlw.go.jp/06/index.php?action_kouhyou_detail_004_kani=true&JigyosyoCd=0670802255-00&ServiceCd=110&Type=search" }, "geometry": { "type": "Point", "coordinates": [ 139.846521599999988, 38.9383557 ] } },
{ "type": "Feature", "properties": { "内容": "酒田市社会福祉協議会【訪問介護】山形県酒田市新橋二丁目1番地の19", "url2": "https://www.kaigokensaku.mhlw.go.jp/06/index.php?action_kouhyou_detail_004_kani=true&JigyosyoCd=0670800150-00&ServiceCd=110&Type=search" }, "geometry": { "type": "Point", "coordinates": [ 139.8537447, 38.9194692 ] } },
{ "type": "Feature", "properties": { "内容": "訪問介護事業所「幸楽荘」【訪問介護】山形県酒田市市条字荒瀬115番地", "url2": "https://www.kaigokensaku.mhlw.go.jp/06/index.php?action_kouhyou_detail_004_kani=true&JigyosyoCd=0673200135-00&ServiceCd=110&Type=search" }, "geometry": { "type": "Point", "coordinates": [ 139.931896400000028, 38.9655746 ] } },
{ "type": "Feature", "properties": { "内容": "シエ・モワ訪問介護サービス【訪問介護】酒田市緑町13－38", "url2": "https://www.kaigokensaku.mhlw.go.jp/06/index.php?action_kouhyou_detail_004_kani=true&JigyosyoCd=0670800291-00&ServiceCd=110&Type=search" }, "geometry": { "type": "Point", "coordinates": [ 139.852761699999974, 38.9109116 ] } },
{ "type": "Feature", "properties": { "内容": "医療法人徳洲会　介護老人保健施設　徳田山介護センター【訪問介護】山形県酒田市相沢字道脇７", "url2": "https://www.kaigokensaku.mhlw.go.jp/06/index.php?action_kouhyou_detail_004_kani=true&JigyosyoCd=0673200069-00&ServiceCd=110&Type=search" }, "geometry": { "type": "Point", "coordinates": [ 139.939425829938841, 38.876271154915671 ] } },
{ "type": "Feature", "properties": { "内容": "訪問介護事業所はなはま【訪問介護】山形県酒田市高砂２丁目１番１７号", "url2": "https://www.kaigokensaku.mhlw.go.jp/06/index.php?action_kouhyou_detail_004_kani=true&JigyosyoCd=0670802297-00&ServiceCd=110&Type=search" }, "geometry": { "type": "Point", "coordinates": [ 139.8230654, 38.9400202 ] } },
{ "type": "Feature", "properties": { "内容": "ニチイケアセンター酒田みずほ【訪問介護】山形県酒田市亀ヶ崎3丁目5番地55号", "url2": "https://www.kaigokensaku.mhlw.go.jp/06/index.php?action_kouhyou_detail_004_kani=true&JigyosyoCd=0670800564-00&ServiceCd=110&Type=search" }, "geometry": { "type": "Point", "coordinates": [ 139.844065099999938, 38.9047675 ] } },
{ "type": "Feature", "properties": { "内容": "ニチイケアセンターこあら【訪問介護】山形県酒田市こあら二丁目５番地の２", "url2": "https://www.kaigokensaku.mhlw.go.jp/06/index.php?action_kouhyou_detail_004_kani=true&JigyosyoCd=0670800853-00&ServiceCd=110&Type=search" }, "geometry": { "type": "Point", "coordinates": [ 139.863329900000053, 38.9146672 ] } },
{ "type": "Feature", "properties": { "内容": "ニチイケアセンタ－東泉【訪問介護】山形県酒田市東泉町5丁目8-10", "url2": "https://www.kaigokensaku.mhlw.go.jp/06/index.php?action_kouhyou_detail_004_kani=true&JigyosyoCd=0670800739-00&ServiceCd=110&Type=search" }, "geometry": { "type": "Point", "coordinates": [ 139.853166500000043, 38.9328791 ] } },
{ "type": "Feature", "properties": { "内容": "ニチイケアセンター酒田【訪問介護】山形県酒田市中町1丁目13番15号本立ビル1Ｆ", "url2": "https://www.kaigokensaku.mhlw.go.jp/06/index.php?action_kouhyou_detail_004_kani=true&JigyosyoCd=0670800309-00&ServiceCd=110&Type=search" }, "geometry": { "type": "Point", "coordinates": [ 139.837820800000031, 38.9150164 ] } },
{ "type": "Feature", "properties": { "内容": "ニチイケアセンターゆするべ【訪問介護】山形県酒田市遊摺部村立5番地の1フィールファイン酒田A203号", "url2": "https://www.kaigokensaku.mhlw.go.jp/06/index.php?action_kouhyou_detail_004_kani=true&JigyosyoCd=0670802115-00&ServiceCd=110&Type=search" }, "geometry": { "type": "Point", "coordinates": [ 139.877458400000023, 38.8840305 ] } },
{ "type": "Feature", "properties": { "内容": "ニチイケアセンターあすか【訪問介護】山形県酒田市飛鳥字中島3-18", "url2": "https://www.kaigokensaku.mhlw.go.jp/06/index.php?action_kouhyou_detail_004_kani=true&JigyosyoCd=0670802149-00&ServiceCd=110&Type=search" }, "geometry": { "type": "Point", "coordinates": [ 139.92536352579495, 38.88605114871735 ] } },
{ "type": "Feature", "properties": { "内容": "訪問介護事業所　ゆい【訪問介護】山形県酒田市臼ケ沢字池田通１２２番地有料老人ホームゆい", "url2": "https://www.kaigokensaku.mhlw.go.jp/06/index.php?action_kouhyou_detail_004_kani=true&JigyosyoCd=0670802305-00&ServiceCd=110&Type=search" }, "geometry": { "type": "Point", "coordinates": [ 139.978507991401642, 38.820184201787491 ] } },
{ "type": "Feature", "properties": { "内容": "酒田第一タクシー指定訪問介護事業所【訪問介護】山形県酒田市あきほ町651番4号", "url2": "https://www.kaigokensaku.mhlw.go.jp/06/index.php?action_kouhyou_detail_004_kani=true&JigyosyoCd=0670800697-00&ServiceCd=110&Type=search" }, "geometry": { "type": "Point", "coordinates": [ 139.850871730165323, 38.890921647038077 ] } },
{ "type": "Feature", "properties": { "内容": "ヘルパーステーションあらた【訪問介護】酒田市東町一丁目15番地の25", "url2": "https://www.kaigokensaku.mhlw.go.jp/06/index.php?action_kouhyou_detail_004_kani=true&JigyosyoCd=0670802073-00&ServiceCd=110&Type=search" }, "geometry": { "type": "Point", "coordinates": [ 139.832694091614144, 38.923687087241824 ] } },
{ "type": "Feature", "properties": { "内容": "みすみ指定訪問介護事業所【訪問介護】山形県酒田市楢橋字大柳1番地１６", "url2": "https://www.kaigokensaku.mhlw.go.jp/06/index.php?action_kouhyou_detail_004_kani=true&JigyosyoCd=0673200051-00&ServiceCd=110&Type=search" }, "geometry": { "type": "Point", "coordinates": [ 139.9508697, 38.8917528 ] } },
{ "type": "Feature", "properties": { "内容": "アースサポート酒田【訪問介護】山形県酒田市若原町5番2", "url2": "https://www.kaigokensaku.mhlw.go.jp/06/index.php?action_kouhyou_detail_004_kani=true&JigyosyoCd=0670801406-00&ServiceCd=110&Type=search" }, "geometry": { "type": "Point", "coordinates": [ 139.843492388103357, 38.897734337688519 ] } },
{ "type": "Feature", "properties": { "内容": "丸岡医院訪問介護事業所【訪問介護】山形県酒田市亀ケ崎7丁目４－２２", "url2": "https://www.kaigokensaku.mhlw.go.jp/06/index.php?action_kouhyou_detail_004_kani=true&JigyosyoCd=0670800846-00&ServiceCd=110&Type=search" }, "geometry": { "type": "Point", "coordinates": [ 139.8498664, 38.896585600000016 ] } },
{ "type": "Feature", "properties": { "内容": "サン・シティ指定訪問介護事業所【訪問介護】山形県酒田市曙町二丁目28番地の5", "url2": "https://www.kaigokensaku.mhlw.go.jp/06/index.php?action_kouhyou_detail_004_kani=true&JigyosyoCd=0670800168-00&ServiceCd=110&Type=search" }, "geometry": { "type": "Point", "coordinates": [ 139.863063199999942, 38.9189807 ] } },
{ "type": "Feature", "properties": { "内容": "ヘルパーステーションにしの【訪問介護】山形県酒田市泉町1番地16", "url2": "https://www.kaigokensaku.mhlw.go.jp/06/index.php?action_kouhyou_detail_004_kani=true&JigyosyoCd=0670800275-00&ServiceCd=110&Type=search" }, "geometry": { "type": "Point", "coordinates": [ 139.847178, 38.9339594 ] } },
{ "type": "Feature", "properties": { "内容": "訪問介護事業所　すみか【訪問介護】山形県酒田市熊野田字仁田１１－２", "url2": "https://www.kaigokensaku.mhlw.go.jp/06/index.php?action_kouhyou_detail_004_kani=true&JigyosyoCd=0670802347-00&ServiceCd=110&Type=search" }, "geometry": { "type": "Point", "coordinates": [ 139.8909543, 38.9154983 ] } },
{ "type": "Feature", "properties": { "内容": "酒田地域福祉事業所　ヘルパーステーション　こだま【訪問介護】山形県酒田市光ヶ丘5丁目13番32号", "url2": "https://www.kaigokensaku.mhlw.go.jp/06/index.php?action_kouhyou_detail_004_kani=true&JigyosyoCd=0670800317-00&ServiceCd=110&Type=search" }, "geometry": { "type": "Point", "coordinates": [ 139.824387600000023, 38.9352197 ] } },
{ "type": "Feature", "properties": { "内容": "ホームヘルプサービスキャット【訪問介護】山形県酒田市高砂3丁目8-35", "url2": "https://www.kaigokensaku.mhlw.go.jp/06/index.php?action_kouhyou_detail_004_kani=true&JigyosyoCd=0670800531-00&ServiceCd=110&Type=search" }, "geometry": { "type": "Point", "coordinates": [ 139.825838524453729, 38.943860881203122 ] } },
{ "type": "Feature", "properties": { "内容": "訪問介護　八重櫻【訪問介護】山形県酒田市牧曽根字宮ノ越92番地3", "url2": "https://www.kaigokensaku.mhlw.go.jp/06/index.php?action_kouhyou_detail_004_kani=true&JigyosyoCd=0670801943-00&ServiceCd=110&Type=search" }, "geometry": { "type": "Point", "coordinates": [ 139.8744034, 38.936185 ] } },
{ "type": "Feature", "properties": { "内容": "訪問介護すずらん【訪問介護】山形県酒田市上安町3-7-11", "url2": "https://www.kaigokensaku.mhlw.go.jp/06/index.php?action_kouhyou_detail_004_kani=true&JigyosyoCd=0670801448-00&ServiceCd=110&Type=search" }, "geometry": { "type": "Point", "coordinates": [ 139.865965196295178, 38.929876877122062 ] } },
{ "type": "Feature", "properties": { "内容": "ＪＡ庄内みどり福祉センター【訪問介護】山形県酒田市熊手島字道の下熊興屋17番1", "url2": "https://www.kaigokensaku.mhlw.go.jp/06/index.php?action_kouhyou_detail_004_kani=true&JigyosyoCd=0670801729-00&ServiceCd=110&Type=search" }, "geometry": { "type": "Point", "coordinates": [ 139.893676699999986, 38.9067299 ] } },
{ "type": "Feature", "properties": { "内容": "かすみそう【訪問介護】酒田市ゆたか1丁目8-10西友ハイツ1D", "url2": "https://www.kaigokensaku.mhlw.go.jp/06/index.php?action_kouhyou_detail_004_kani=true&JigyosyoCd=0670801976-00&ServiceCd=110&Type=search" }, "geometry": { "type": "Point", "coordinates": [ 139.841312540928641, 38.934799293418365 ] } },
{ "type": "Feature", "properties": { "内容": "もみの木訪問介護事業所【訪問介護】山形県新庄市五日町字宮内２４０番地２", "url2": "https://www.kaigokensaku.mhlw.go.jp/06/index.php?action_kouhyou_detail_004_kani=true&JigyosyoCd=0671100030-00&ServiceCd=110&Type=search" }, "geometry": { "type": "Point", "coordinates": [ 140.288037199999962, 38.7591934 ] } },
{ "type": "Feature", "properties": { "内容": "医療法人徳洲会　新庄徳洲会介護センター【訪問介護】山形県新庄市大字鳥越字駒場4623", "url2": "https://www.kaigokensaku.mhlw.go.jp/06/index.php?action_kouhyou_detail_004_kani=true&JigyosyoCd=0671100378-00&ServiceCd=110&Type=search" }, "geometry": { "type": "Point", "coordinates": [ 140.311380900000017, 38.7382994 ] } },
{ "type": "Feature", "properties": { "内容": "訪問介護事業所・のぞみ【訪問介護】山形県新庄市金沢2575番地", "url2": "https://www.kaigokensaku.mhlw.go.jp/06/index.php?action_kouhyou_detail_004_kani=true&JigyosyoCd=0671101293-00&ServiceCd=110&Type=search" }, "geometry": { "type": "Point", "coordinates": [ 140.3043649, 38.751633141215663 ] } },
{ "type": "Feature", "properties": { "内容": "ニチイケアセンター若葉【訪問介護】新庄市若葉町24-19スプレム21　1F", "url2": "https://www.kaigokensaku.mhlw.go.jp/06/index.php?action_kouhyou_detail_004_kani=true&JigyosyoCd=0671100410-00&ServiceCd=110&Type=search" }, "geometry": { "type": "Point", "coordinates": [ 140.301191, 38.7600156 ] } },
{ "type": "Feature", "properties": { "内容": "ＳＯＭＰＯケア　新庄金沢　訪問介護【訪問介護】山形県新庄市金沢1863-1", "url2": "https://www.kaigokensaku.mhlw.go.jp/06/index.php?action_kouhyou_detail_004_kani=true&JigyosyoCd=0671101194-00&ServiceCd=110&Type=search" }, "geometry": { "type": "Point", "coordinates": [ 140.311441599999966, 38.7535226 ] } },
{ "type": "Feature", "properties": { "内容": "どんぐり【訪問介護】新庄市本町6－11", "url2": "https://www.kaigokensaku.mhlw.go.jp/06/index.php?action_kouhyou_detail_004_kani=true&JigyosyoCd=0671100584-00&ServiceCd=110&Type=search" }, "geometry": { "type": "Point", "coordinates": [ 140.301905600000026, 38.7675595 ] } },
{ "type": "Feature", "properties": { "内容": "有限会社ケアワーク新庄訪問介護事業所【訪問介護】山形県新庄市上金沢町9番37号", "url2": "https://www.kaigokensaku.mhlw.go.jp/06/index.php?action_kouhyou_detail_004_kani=true&JigyosyoCd=0671100048-00&ServiceCd=110&Type=search" }, "geometry": { "type": "Point", "coordinates": [ 140.305816899999968, 38.7527336 ] } },
{ "type": "Feature", "properties": { "内容": "新庄地域福祉事業所ヘルパーステーションさんのほり【訪問介護】山形県新庄市大字鳥越1013-37", "url2": "https://www.kaigokensaku.mhlw.go.jp/06/index.php?action_kouhyou_detail_004_kani=true&JigyosyoCd=0671100238-00&ServiceCd=110&Type=search" }, "geometry": { "type": "Point", "coordinates": [ 140.304815297267197, 38.745900301169137 ] } },
{ "type": "Feature", "properties": { "内容": "カイセイ訪問介護事業所【訪問介護】山形県新庄市末広町７-４", "url2": "https://www.kaigokensaku.mhlw.go.jp/06/index.php?action_kouhyou_detail_004_kani=true&JigyosyoCd=0672500634-00&ServiceCd=110&Type=search" }, "geometry": { "type": "Point", "coordinates": [ 140.304433499999959, 38.7563332 ] } },
{ "type": "Feature", "properties": { "内容": "ヘルパーセンター神室荘【訪問介護】山形県新庄市十日町1319番地養護老人ホーム神室荘内", "url2": "https://www.kaigokensaku.mhlw.go.jp/06/index.php?action_kouhyou_detail_004_kani=true&JigyosyoCd=0671101095-00&ServiceCd=110&Type=search" }, "geometry": { "type": "Point", "coordinates": [ 140.311592799999971, 38.7889352 ] } },
{ "type": "Feature", "properties": { "内容": "訪問介護事業所すまいる【訪問介護】新庄市金沢2002番地１", "url2": "https://www.kaigokensaku.mhlw.go.jp/06/index.php?action_kouhyou_detail_004_kani=true&JigyosyoCd=0671101004-00&ServiceCd=110&Type=search" }, "geometry": { "type": "Point", "coordinates": [ 140.311497978044173, 38.751430414521678 ] } },
{ "type": "Feature", "properties": { "内容": "寒河江市社会福祉協議会指定訪問介護事業所【訪問介護】寒河江市中央二丁目2番1号寒河江市ハートフルセンター内", "url2": "https://www.kaigokensaku.mhlw.go.jp/06/index.php?action_kouhyou_detail_004_kani=true&JigyosyoCd=0671200111-00&ServiceCd=110&Type=search" }, "geometry": { "type": "Point", "coordinates": [ 140.277252699999963, 38.3829216 ] } },
{ "type": "Feature", "properties": { "内容": "さがえ西村山農業協同組合【訪問介護】山形県寒河江市大字寒河江字久保２番地ＪＡ健康福祉センター", "url2": "https://www.kaigokensaku.mhlw.go.jp/06/index.php?action_kouhyou_detail_004_kani=true&JigyosyoCd=0671200137-00&ServiceCd=110&Type=search" }, "geometry": { "type": "Point", "coordinates": [ 140.256409385211214, 38.365498938548704 ] } },
{ "type": "Feature", "properties": { "内容": "ニチイケアセンターさがえ【訪問介護】山形県寒河江市大字寒河江字横道13-1", "url2": "https://www.kaigokensaku.mhlw.go.jp/06/index.php?action_kouhyou_detail_004_kani=true&JigyosyoCd=0671200244-00&ServiceCd=110&Type=search" }, "geometry": { "type": "Point", "coordinates": [ 140.281227800000011, 38.3672819 ] } },
{ "type": "Feature", "properties": { "内容": "ニチイケアセンター西さがえ【訪問介護】山形県寒河江市大字寒河江字鶴田10-2", "url2": "https://www.kaigokensaku.mhlw.go.jp/06/index.php?action_kouhyou_detail_004_kani=true&JigyosyoCd=0671200707-00&ServiceCd=110&Type=search" }, "geometry": { "type": "Point", "coordinates": [ 140.259685499999989, 38.3797272 ] } },
{ "type": "Feature", "properties": { "内容": "訪問介護つつじ【訪問介護】山形県寒河江市寒河江塩水６－１", "url2": "https://www.kaigokensaku.mhlw.go.jp/06/index.php?action_kouhyou_detail_004_kani=true&JigyosyoCd=0671200608-00&ServiceCd=110&Type=search" }, "geometry": { "type": "Point", "coordinates": [ 140.260913427894593, 38.379304907315714 ] } },
{ "type": "Feature", "properties": { "内容": "みずき介護サービス【訪問介護】寒河江市大字西根字石川西228番1", "url2": "https://www.kaigokensaku.mhlw.go.jp/06/index.php?action_kouhyou_detail_004_kani=true&JigyosyoCd=0671200434-00&ServiceCd=110&Type=search" }, "geometry": { "type": "Point", "coordinates": [ 140.2807216, 38.3888016 ] } },
{ "type": "Feature", "properties": { "内容": "ＳＯＭＰＯケア　上山　訪問介護【訪問介護】山形県上山市石曽根37", "url2": "https://www.kaigokensaku.mhlw.go.jp/06/index.php?action_kouhyou_detail_004_kani=true&JigyosyoCd=0671300622-00&ServiceCd=110&Type=search" }, "geometry": { "type": "Point", "coordinates": [ 140.260059, 38.1359745 ] } },
{ "type": "Feature", "properties": { "内容": "上山市社会福祉協議会指定訪問介護事業所【訪問介護】上山市南町４番５－１２号", "url2": "https://www.kaigokensaku.mhlw.go.jp/06/index.php?action_kouhyou_detail_004_kani=true&JigyosyoCd=0671300093-00&ServiceCd=110&Type=search" }, "geometry": { "type": "Point", "coordinates": [ 140.274887300000046, 38.1497455 ] } },
{ "type": "Feature", "properties": { "内容": "みゆきヘルパーステーション【訪問介護】山形県上山市弁天２丁目2-11", "url2": "https://www.kaigokensaku.mhlw.go.jp/06/index.php?action_kouhyou_detail_004_kani=true&JigyosyoCd=0671300267-00&ServiceCd=110&Type=search" }, "geometry": { "type": "Point", "coordinates": [ 140.292603900000017, 38.1699242 ] } },
{ "type": "Feature", "properties": { "内容": "訪問介護ベテスダ【訪問介護】山形県村山市大字湯野沢1922-2", "url2": "https://www.kaigokensaku.mhlw.go.jp/06/index.php?action_kouhyou_detail_004_kani=true&JigyosyoCd=0671400430-00&ServiceCd=110&Type=search" }, "geometry": { "type": "Point", "coordinates": [ 140.32106, 38.4712953 ] } },
{ "type": "Feature", "properties": { "内容": "村山市社会福祉協議会訪問介護事業所【訪問介護】山形県村山市中央１－５－２４", "url2": "https://www.kaigokensaku.mhlw.go.jp/06/index.php?action_kouhyou_detail_004_kani=true&JigyosyoCd=0671400075-00&ServiceCd=110&Type=search" }, "geometry": { "type": "Point", "coordinates": [ 140.378986, 38.4814939 ] } },
{ "type": "Feature", "properties": { "内容": "ニチイケアセンター村山【訪問介護】山形県村山市楯岡五日町16-15", "url2": "https://www.kaigokensaku.mhlw.go.jp/06/index.php?action_kouhyou_detail_004_kani=true&JigyosyoCd=0671400158-00&ServiceCd=110&Type=search" }, "geometry": { "type": "Point", "coordinates": [ 140.387035400000059, 38.4780527 ] } },
{ "type": "Feature", "properties": { "内容": "指定訪問介護事業所　村山光ホーム【訪問介護】山形県村山市楯岡笛田二丁目19番40号", "url2": "https://www.kaigokensaku.mhlw.go.jp/06/index.php?action_kouhyou_detail_004_kani=true&JigyosyoCd=0671400380-00&ServiceCd=110&Type=search" }, "geometry": { "type": "Point", "coordinates": [ 140.402772799999951, 38.4793113 ] } },
{ "type": "Feature", "properties": { "内容": "訪問介護こでまりの会【訪問介護】山形県村山市駅西18番23号バーンアネックスC", "url2": "https://www.kaigokensaku.mhlw.go.jp/06/index.php?action_kouhyou_detail_004_kani=true&JigyosyoCd=0671400174-00&ServiceCd=110&Type=search" }, "geometry": { "type": "Point", "coordinates": [ 140.384410699999989, 38.4769833 ] } },
{ "type": "Feature", "properties": { "内容": "長井市社会福祉協議会　指定訪問介護事業所【訪問介護】山形県長井市館町北6番19号", "url2": "https://www.kaigokensaku.mhlw.go.jp/06/index.php?action_kouhyou_detail_004_kani=true&JigyosyoCd=0671500023-00&ServiceCd=110&Type=search" }, "geometry": { "type": "Point", "coordinates": [ 140.043354499999964, 38.1007 ] } },
{ "type": "Feature", "properties": { "内容": "ヘルパーステーション　風ぐるま【訪問介護】山形県長井市今泉2945-3", "url2": "https://www.kaigokensaku.mhlw.go.jp/06/index.php?action_kouhyou_detail_004_kani=true&JigyosyoCd=0671500304-00&ServiceCd=110&Type=search" }, "geometry": { "type": "Point", "coordinates": [ 140.045731499999988, 38.0523859 ] } },
{ "type": "Feature", "properties": { "内容": "株式会社サン十字ホームヘルプサービス長井【訪問介護】山形県長井市栄町4番21号ダイワビル２階", "url2": "https://www.kaigokensaku.mhlw.go.jp/06/index.php?action_kouhyou_detail_004_kani=true&JigyosyoCd=0671500502-00&ServiceCd=110&Type=search" }, "geometry": { "type": "Point", "coordinates": [ 140.037085199999979, 38.1068908 ] } },
{ "type": "Feature", "properties": { "内容": "ケアサービスさくら　指定訪問介護事業所【訪問介護】山形県長井市平山２７８２番地", "url2": "https://www.kaigokensaku.mhlw.go.jp/06/index.php?action_kouhyou_detail_004_kani=true&JigyosyoCd=0671500130-00&ServiceCd=110&Type=search" }, "geometry": { "type": "Point", "coordinates": [ 140.0116520190237, 38.106047514463945 ] } },
{ "type": "Feature", "properties": { "内容": "ニチイケアセンター天童【訪問介護】山形県天童市中里７－４－５", "url2": "https://www.kaigokensaku.mhlw.go.jp/06/index.php?action_kouhyou_detail_004_kani=true&JigyosyoCd=0671600153-00&ServiceCd=110&Type=search" }, "geometry": { "type": "Point", "coordinates": [ 140.365851199999952, 38.3278872 ] } },
{ "type": "Feature", "properties": { "内容": "ＳＯＭＰＯケア　天童　訪問介護【訪問介護】山形県天童市老野森２丁目７－１熊沢テナント１号", "url2": "https://www.kaigokensaku.mhlw.go.jp/06/index.php?action_kouhyou_detail_004_kani=true&JigyosyoCd=0671601136-00&ServiceCd=110&Type=search" }, "geometry": { "type": "Point", "coordinates": [ 140.37643879999996, 38.3628702 ] } },
{ "type": "Feature", "properties": { "内容": "天童市訪問介護サービス事業所【訪問介護】天童市老野森二丁目6番3号", "url2": "https://www.kaigokensaku.mhlw.go.jp/06/index.php?action_kouhyou_detail_004_kani=true&JigyosyoCd=0671600112-00&ServiceCd=110&Type=search" }, "geometry": { "type": "Point", "coordinates": [ 140.3739223, 38.3638145 ] } },
{ "type": "Feature", "properties": { "内容": "清幸園ヘルパーステーション【訪問介護】天童市大清水４９１番地１", "url2": "https://www.kaigokensaku.mhlw.go.jp/06/index.php?action_kouhyou_detail_004_kani=true&JigyosyoCd=0671600179-00&ServiceCd=110&Type=search" }, "geometry": { "type": "Point", "coordinates": [ 140.352755800000068, 38.3875423 ] } },
{ "type": "Feature", "properties": { "内容": "特定非営利活動法人福祉グループコアラやまがた県央【訪問介護】山形県天童市老野森1-5-16", "url2": "https://www.kaigokensaku.mhlw.go.jp/06/index.php?action_kouhyou_detail_004_kani=true&JigyosyoCd=0671600963-00&ServiceCd=110&Type=search" }, "geometry": { "type": "Point", "coordinates": [ 140.378705299999979, 38.3586762 ] } },
{ "type": "Feature", "properties": { "内容": "東根市社会福祉協議会指定訪問介護事業所【訪問介護】東根市中央一丁目3番5号東根市ふれあいセンター", "url2": "https://www.kaigokensaku.mhlw.go.jp/06/index.php?action_kouhyou_detail_004_kani=true&JigyosyoCd=0671700045-00&ServiceCd=110&Type=search" }, "geometry": { "type": "Point", "coordinates": [ 140.392848599999979, 38.43121 ] } },
{ "type": "Feature", "properties": { "内容": "ヘルパーステーション　もり【訪問介護】山形県東根市本丸西4-1-48", "url2": "https://www.kaigokensaku.mhlw.go.jp/06/index.php?action_kouhyou_detail_004_kani=true&JigyosyoCd=0671700680-00&ServiceCd=110&Type=search" }, "geometry": { "type": "Point", "coordinates": [ 140.3938576, 38.4467616 ] } },
{ "type": "Feature", "properties": { "内容": "ニチイケアセンター東根【訪問介護】東根市神町東１丁目17-30", "url2": "https://www.kaigokensaku.mhlw.go.jp/06/index.php?action_kouhyou_detail_004_kani=true&JigyosyoCd=0671700110-00&ServiceCd=110&Type=search" }, "geometry": { "type": "Point", "coordinates": [ 140.383864, 38.4102707 ] } },
{ "type": "Feature", "properties": { "内容": "ニチイケアセンター東根北【訪問介護】山形県東根市小林1-4-1ICパレスA103号室", "url2": "https://www.kaigokensaku.mhlw.go.jp/06/index.php?action_kouhyou_detail_004_kani=true&JigyosyoCd=0671700649-00&ServiceCd=110&Type=search" }, "geometry": { "type": "Point", "coordinates": [ 140.393369399999983, 38.4253293 ] } },
{ "type": "Feature", "properties": { "内容": "にこにこヘルパーステーション【訪問介護】東根市温泉町2丁目1-19", "url2": "https://www.kaigokensaku.mhlw.go.jp/06/index.php?action_kouhyou_detail_004_kani=true&JigyosyoCd=0671700219-00&ServiceCd=110&Type=search" }, "geometry": { "type": "Point", "coordinates": [ 140.391270526342538, 38.458743982766435 ] } },
{ "type": "Feature", "properties": { "内容": "ホームケアなごみ【訪問介護】山形県東根市中央二丁目8-11パートナーE", "url2": "https://www.kaigokensaku.mhlw.go.jp/06/index.php?action_kouhyou_detail_004_kani=true&JigyosyoCd=0671700664-00&ServiceCd=110&Type=search" }, "geometry": { "type": "Point", "coordinates": [ 140.3882012044254, 38.431220742184514 ] } },
{ "type": "Feature", "properties": { "内容": "尾花沢市社会福祉協議会訪問介護事業所【訪問介護】山形県尾花沢市新町3丁目2番5号", "url2": "https://www.kaigokensaku.mhlw.go.jp/06/index.php?action_kouhyou_detail_004_kani=true&JigyosyoCd=0671800100-00&ServiceCd=110&Type=search" }, "geometry": { "type": "Point", "coordinates": [ 140.412748500000021, 38.603763 ] } },
{ "type": "Feature", "properties": { "内容": "山形コアラ【訪問介護】山形県南陽市椚塚822番地の6", "url2": "https://www.kaigokensaku.mhlw.go.jp/06/index.php?action_kouhyou_detail_004_kani=true&JigyosyoCd=0671900413-00&ServiceCd=110&Type=search" }, "geometry": { "type": "Point", "coordinates": [ 140.171129400000041, 38.044425900000014 ] } },
{ "type": "Feature", "properties": { "内容": "公徳会ほのぼのケアサービスヘルパーステーション【訪問介護】山形県南陽市椚塚948‐1", "url2": "https://www.kaigokensaku.mhlw.go.jp/06/index.php?action_kouhyou_detail_004_kani=true&JigyosyoCd=0671900546-00&ServiceCd=110&Type=search" }, "geometry": { "type": "Point", "coordinates": [ 140.1720058, 38.043733799999984 ] } },
{ "type": "Feature", "properties": { "内容": "訪問介護サービスセンター南陽の里【訪問介護】南陽市宮内1204番地の3", "url2": "https://www.kaigokensaku.mhlw.go.jp/06/index.php?action_kouhyou_detail_004_kani=true&JigyosyoCd=0671900405-00&ServiceCd=110&Type=search" }, "geometry": { "type": "Point", "coordinates": [ 140.144552500000032, 38.0695144 ] } },
{ "type": "Feature", "properties": { "内容": "ヘルパーステーション　さわやか【訪問介護】山形県南陽市島貫598-3", "url2": "https://www.kaigokensaku.mhlw.go.jp/06/index.php?action_kouhyou_detail_004_kani=true&JigyosyoCd=0671900454-00&ServiceCd=110&Type=search" }, "geometry": { "type": "Point", "coordinates": [ 140.145454464955236, 38.04649535383593 ] } },
{ "type": "Feature", "properties": { "内容": "ほなみホームヘルパーステーション【訪問介護】山形県南陽市宮内4653番地1", "url2": "https://www.kaigokensaku.mhlw.go.jp/06/index.php?action_kouhyou_detail_004_kani=true&JigyosyoCd=0671900215-00&ServiceCd=110&Type=search" }, "geometry": { "type": "Point", "coordinates": [ 140.138438257672078, 38.06937804116491 ] } },
{ "type": "Feature", "properties": { "内容": "中山ひまわり荘指定訪問介護事業所【訪問介護】山形県東村山郡中山町大字柳沢２３３３番地", "url2": "https://www.kaigokensaku.mhlw.go.jp/06/index.php?action_kouhyou_detail_004_kani=true&JigyosyoCd=0672200136-00&ServiceCd=110&Type=search" }, "geometry": { "type": "Point", "coordinates": [ 140.259755700000028, 38.3292051 ] } },
{ "type": "Feature", "properties": { "内容": "ココロケア河北【訪問介護】西村山郡河北町谷地中央五丁目5-26", "url2": "https://www.kaigokensaku.mhlw.go.jp/06/index.php?action_kouhyou_detail_004_kani=true&JigyosyoCd=0672300647-00&ServiceCd=110&Type=search" }, "geometry": { "type": "Point", "coordinates": [ 140.307479300000068, 38.4183437 ] } },
{ "type": "Feature", "properties": { "内容": "社会福祉法人河北町社会福祉協議会指定訪問介護事業所【訪問介護】西村山郡河北町谷地甲２３２５番地の２", "url2": "https://www.kaigokensaku.mhlw.go.jp/06/index.php?action_kouhyou_detail_004_kani=true&JigyosyoCd=0672300183-00&ServiceCd=110&Type=search" }, "geometry": { "type": "Point", "coordinates": [ 140.316067299999986, 38.4246407 ] } },
{ "type": "Feature", "properties": { "内容": "ケアハイツ西川指定訪問介護事業所【訪問介護】山形県西村山郡西川町大字海味５４８", "url2": "https://www.kaigokensaku.mhlw.go.jp/06/index.php?action_kouhyou_detail_004_kani=true&JigyosyoCd=0672300530-00&ServiceCd=110&Type=search" }, "geometry": { "type": "Point", "coordinates": [ 140.146147299999939, 38.4268296 ] } },
{ "type": "Feature", "properties": { "内容": "社会福祉法人朝日町社会福祉協議会指定訪問介護事業所【訪問介護】山形県西村山郡朝日町大字宮宿1115番地", "url2": "https://www.kaigokensaku.mhlw.go.jp/06/index.php?action_kouhyou_detail_004_kani=true&JigyosyoCd=0672300217-00&ServiceCd=110&Type=search" }, "geometry": { "type": "Point", "coordinates": [ 140.145964099999958, 38.299173300000014 ] } },
{ "type": "Feature", "properties": { "内容": "ヘルプセンター大石田【訪問介護】山形県北村山郡大石田町大字大石田甲574番地", "url2": "https://www.kaigokensaku.mhlw.go.jp/06/index.php?action_kouhyou_detail_004_kani=true&JigyosyoCd=0672400058-00&ServiceCd=110&Type=search" }, "geometry": { "type": "Point", "coordinates": [ 140.375855635473641, 38.599330552068153 ] } },
{ "type": "Feature", "properties": { "内容": "訪問介護センター「みすぎ荘」【訪問介護】山形県最上郡金山町大字金山字荒屋829番地1", "url2": "https://www.kaigokensaku.mhlw.go.jp/06/index.php?action_kouhyou_detail_004_kani=true&JigyosyoCd=0672500246-00&ServiceCd=110&Type=search" }, "geometry": { "type": "Point", "coordinates": [ 140.317889, 38.8777591 ] } },
{ "type": "Feature", "properties": { "内容": "訪問介護事業所かもしか介護タクシーかもしか【訪問介護】山形県最上郡最上町大字向町546-5", "url2": "https://www.kaigokensaku.mhlw.go.jp/06/index.php?action_kouhyou_detail_004_kani=true&JigyosyoCd=0672500915-00&ServiceCd=110&Type=search" }, "geometry": { "type": "Point", "coordinates": [ 140.515087599999987, 38.7587255 ] } },
{ "type": "Feature", "properties": { "内容": "訪問介護事業所「グリーン」【訪問介護】山形県最上郡最上町大字向町４３番地の１", "url2": "https://www.kaigokensaku.mhlw.go.jp/06/index.php?action_kouhyou_detail_004_kani=true&JigyosyoCd=0672500089-00&ServiceCd=110&Type=search" }, "geometry": { "type": "Point", "coordinates": [ 140.517259500000023, 38.7529816 ] } },
{ "type": "Feature", "properties": { "内容": "指定訪問介護事業所　えんじゅ【訪問介護】山形県最上郡舟形町長者原１７１２－１", "url2": "https://www.kaigokensaku.mhlw.go.jp/06/index.php?action_kouhyou_detail_004_kani=true&JigyosyoCd=0672500337-00&ServiceCd=110&Type=search" }, "geometry": { "type": "Point", "coordinates": [ 140.299249499999974, 38.7000731 ] } },
{ "type": "Feature", "properties": { "内容": "ホームヘルパーステーション「ゆうゆう」【訪問介護】山形県最上郡真室川町大字新町４６９番５", "url2": "https://www.kaigokensaku.mhlw.go.jp/06/index.php?action_kouhyou_detail_004_kani=true&JigyosyoCd=0672500477-00&ServiceCd=110&Type=search" }, "geometry": { "type": "Point", "coordinates": [ 140.24774795952456, 38.851457596426279 ] } },
{ "type": "Feature", "properties": { "内容": "ヘルパーセンターひめゆり【訪問介護】山形県最上郡鮭川村大字石名坂５８９番７", "url2": "https://www.kaigokensaku.mhlw.go.jp/06/index.php?action_kouhyou_detail_004_kani=true&JigyosyoCd=0672500329-00&ServiceCd=110&Type=search" }, "geometry": { "type": "Point", "coordinates": [ 140.287418300000013, 38.835377 ] } },
{ "type": "Feature", "properties": { "内容": "ヘルパーステーションのどか【訪問介護】山形県東置賜郡高畠町大字高畠173-2", "url2": "https://www.kaigokensaku.mhlw.go.jp/06/index.php?action_kouhyou_detail_004_kani=true&JigyosyoCd=0672600491-00&ServiceCd=110&Type=search" }, "geometry": { "type": "Point", "coordinates": [ 140.19308620000001, 37.9981076 ] } },
{ "type": "Feature", "properties": { "内容": "高畠ふれあいケアセンター【訪問介護】山形県東置賜郡高畠町大字高畠454番地の４老人福祉センター", "url2": "https://www.kaigokensaku.mhlw.go.jp/06/index.php?action_kouhyou_detail_004_kani=true&JigyosyoCd=0672600012-00&ServiceCd=110&Type=search" }, "geometry": { "type": "Point", "coordinates": [ 140.18769640000005, 38.0028891 ] } },
{ "type": "Feature", "properties": { "内容": "株式会社はな　訪問介護事業所【訪問介護】山形県東置賜郡高畠町大字深沼１８１７－１", "url2": "https://www.kaigokensaku.mhlw.go.jp/06/index.php?action_kouhyou_detail_004_kani=true&JigyosyoCd=0672600392-00&ServiceCd=110&Type=search" }, "geometry": { "type": "Point", "coordinates": [ 140.168749599999956, 38.0254862 ] } },
{ "type": "Feature", "properties": { "内容": "川西町社会福祉協議会訪問介護事業所【訪問介護】山形県東置賜郡川西町大字上小松２９１８－２", "url2": "https://www.kaigokensaku.mhlw.go.jp/06/index.php?action_kouhyou_detail_004_kani=true&JigyosyoCd=0672600137-00&ServiceCd=110&Type=search" }, "geometry": { "type": "Point", "coordinates": [ 140.040220800000043, 38.0019713 ] } },
{ "type": "Feature", "properties": { "内容": "おぐに社協ホームヘルプサービス【訪問介護】山形県西置賜郡小国町大字岩井沢604-2小国町老人福祉センター　あおば", "url2": "https://www.kaigokensaku.mhlw.go.jp/06/index.php?action_kouhyou_detail_004_kani=true&JigyosyoCd=0672700192-00&ServiceCd=110&Type=search" }, "geometry": { "type": "Point", "coordinates": [ 139.752463700000021, 38.0591056 ] } },
{ "type": "Feature", "properties": { "内容": "訪問介護事業所えにし【訪問介護】山形県西置賜郡飯豊町大字萩生3608番地１", "url2": "https://www.kaigokensaku.mhlw.go.jp/06/index.php?action_kouhyou_detail_004_kani=true&JigyosyoCd=0672700465-00&ServiceCd=110&Type=search" }, "geometry": { "type": "Point", "coordinates": [ 139.9988156, 38.0615083 ] } },
{ "type": "Feature", "properties": { "内容": "ケアセンターさわやか【訪問介護】山形県西置賜郡飯豊町大字萩生4284-3", "url2": "https://www.kaigokensaku.mhlw.go.jp/06/index.php?action_kouhyou_detail_004_kani=true&JigyosyoCd=0672700481-00&ServiceCd=110&Type=search" }, "geometry": { "type": "Point", "coordinates": [ 139.9996071, 38.0604582 ] } },
{ "type": "Feature", "properties": { "内容": "訪問介護ステーション福祉の里めざみ【訪問介護】山形県西置賜郡飯豊町大字椿3642", "url2": "https://www.kaigokensaku.mhlw.go.jp/06/index.php?action_kouhyou_detail_004_kani=true&JigyosyoCd=0672700093-00&ServiceCd=110&Type=search" }, "geometry": { "type": "Point", "coordinates": [ 139.995586900000035, 38.0445157 ] } },
{ "type": "Feature", "properties": { "内容": "指定訪問介護事業所ホームヘルパーステーションなの花荘【訪問介護】山形県東田川郡三川町大字横山字城下228番地9", "url2": "https://www.kaigokensaku.mhlw.go.jp/06/index.php?action_kouhyou_detail_004_kani=true&JigyosyoCd=0673000261-00&ServiceCd=110&Type=search" }, "geometry": { "type": "Point", "coordinates": [ 139.851114700000039, 38.7768357 ] } },
{ "type": "Feature", "properties": { "内容": "介護センターほほえみ【訪問介護】山形県東田川郡庄内町余目字大塚1番地2", "url2": "https://www.kaigokensaku.mhlw.go.jp/06/index.php?action_kouhyou_detail_004_kani=true&JigyosyoCd=0673000204-00&ServiceCd=110&Type=search" }, "geometry": { "type": "Point", "coordinates": [ 139.905361237066245, 38.853948808905855 ] } },
{ "type": "Feature", "properties": { "内容": "ニチイケアセンターあまるめ【訪問介護】山形県東田川郡庄内町余目字上梵天塚90番地２シューハイム　103号室", "url2": "https://www.kaigokensaku.mhlw.go.jp/06/index.php?action_kouhyou_detail_004_kani=true&JigyosyoCd=0673000824-00&ServiceCd=110&Type=search" }, "geometry": { "type": "Point", "coordinates": [ 139.902303299999971, 38.8387439 ] } },
{ "type": "Feature", "properties": { "内容": "訪問介護事業所　つばさ【訪問介護】山形県東田川郡庄内町余目字猿田7-2", "url2": "https://www.kaigokensaku.mhlw.go.jp/06/index.php?action_kouhyou_detail_004_kani=true&JigyosyoCd=0673000816-00&ServiceCd=110&Type=search" }, "geometry": { "type": "Point", "coordinates": [ 139.902233300000034, 38.8486781 ] } },
{ "type": "Feature", "properties": { "内容": "株式会社在宅福祉サービスつくし【訪問介護】山形県飽海郡遊佐町菅里字菅野南山１－２０９", "url2": "https://www.kaigokensaku.mhlw.go.jp/06/index.php?action_kouhyou_detail_004_kani=true&JigyosyoCd=0673200440-00&ServiceCd=110&Type=search" }, "geometry": { "type": "Point", "coordinates": [ 139.88145140000006, 39.041368 ] } },
{ "type": "Feature", "properties": { "内容": "社会福祉法人　遊佐町社会福祉協議会　指定居宅サービス事業所【訪問介護】山形県飽海郡遊佐町遊佐字田子1番地遊佐町総合福祉センタ－", "url2": "https://www.kaigokensaku.mhlw.go.jp/06/index.php?action_kouhyou_detail_004_kani=true&JigyosyoCd=0673200127-00&ServiceCd=110&Type=search" }, "geometry": { "type": "Point", "coordinates": [ 139.912354199999982, 39.0178185 ] } }
]
}
