{
"type": "FeatureCollection",
"name": "geo_06_小学校",
"crs": { "type": "name", "properties": { "name": "urn:ogc:def:crs:EPSG::6668" } },
"features": [
{ "type": "Feature", "properties": { "P29_001": "06201", "P29_002": "B106110000015", "P29_003": "16001", "P29_004": "山形大学附属小学校", "P29_005": "山形県山形市松波2-7-2", "P29_006": "1", "P29_007": "1", "P29_008": "00", "P29_009": null }, "geometry": { "type": "Point", "coordinates": [ 140.358795399840062, 38.240246527916895 ] } },
{ "type": "Feature", "properties": { "P29_001": "06201", "P29_002": "B106220120017", "P29_003": "16001", "P29_004": "山形市立第一小学校", "P29_005": "山形県山形市本町1-5-24", "P29_006": "3", "P29_007": "1", "P29_008": "00", "P29_009": null }, "geometry": { "type": "Point", "coordinates": [ 140.335783096209724, 38.250400832015721 ] } },
{ "type": "Feature", "properties": { "P29_001": "06201", "P29_002": "B106220120026", "P29_003": "16001", "P29_004": "山形市立第二小学校", "P29_005": "山形県山形市香澄町3-9-38", "P29_006": "3", "P29_007": "1", "P29_008": "00", "P29_009": null }, "geometry": { "type": "Point", "coordinates": [ 140.329954949117649, 38.245415930864596 ] } },
{ "type": "Feature", "properties": { "P29_001": "06201", "P29_002": "B106220120035", "P29_003": "16001", "P29_004": "山形市立第三小学校", "P29_005": "山形県山形市宮町5-7-58", "P29_006": "3", "P29_007": "1", "P29_008": "00", "P29_009": null }, "geometry": { "type": "Point", "coordinates": [ 140.338358696852254, 38.262357229232393 ] } },
{ "type": "Feature", "properties": { "P29_001": "06201", "P29_002": "B106220120044", "P29_003": "16001", "P29_004": "山形市立第四小学校", "P29_005": "山形県山形市相生町4-37", "P29_006": "3", "P29_007": "1", "P29_008": "00", "P29_009": null }, "geometry": { "type": "Point", "coordinates": [ 140.337071350120056, 38.258251262489829 ] } },
{ "type": "Feature", "properties": { "P29_001": "06201", "P29_002": "B106220120053", "P29_003": "16001", "P29_004": "山形市立第五小学校", "P29_005": "山形県山形市東原町1-1-9", "P29_006": "3", "P29_007": "1", "P29_008": "00", "P29_009": null }, "geometry": { "type": "Point", "coordinates": [ 140.34582899134324, 38.247383602223479 ] } },
{ "type": "Feature", "properties": { "P29_001": "06201", "P29_002": "B106220120062", "P29_003": "16001", "P29_004": "山形市立第六小学校", "P29_005": "山形県山形市鉄砲町2-9-55", "P29_006": "3", "P29_007": "1", "P29_008": "00", "P29_009": null }, "geometry": { "type": "Point", "coordinates": [ 140.333198485422059, 38.237812407268251 ] } },
{ "type": "Feature", "properties": { "P29_001": "06201", "P29_002": "B106220120071", "P29_003": "16001", "P29_004": "山形市立第七小学校", "P29_005": "山形県山形市城北町2-9-37", "P29_006": "3", "P29_007": "1", "P29_008": "00", "P29_009": null }, "geometry": { "type": "Point", "coordinates": [ 140.327571830000096, 38.26024485902763 ] } },
{ "type": "Feature", "properties": { "P29_001": "06201", "P29_002": "B106220120080", "P29_003": "16001", "P29_004": "山形市立第八小学校", "P29_005": "山形県山形市小白川町2-8-36", "P29_006": "3", "P29_007": "1", "P29_008": "00", "P29_009": null }, "geometry": { "type": "Point", "coordinates": [ 140.353645911841568, 38.248572818434205 ] } },
{ "type": "Feature", "properties": { "P29_001": "06201", "P29_002": "B106220120099", "P29_003": "16001", "P29_004": "山形市立第九小学校", "P29_005": "山形県山形市馬見ヶ崎2-5-1", "P29_006": "3", "P29_007": "1", "P29_008": "00", "P29_009": null }, "geometry": { "type": "Point", "coordinates": [ 140.330535638289575, 38.279698913473737 ] } },
{ "type": "Feature", "properties": { "P29_001": "06201", "P29_002": "B106220120106", "P29_003": "16001", "P29_004": "山形市立第十小学校", "P29_005": "山形県山形市やよい2-6-1", "P29_006": "3", "P29_007": "1", "P29_008": "00", "P29_009": null }, "geometry": { "type": "Point", "coordinates": [ 140.309659724108798, 38.256578560913795 ] } },
{ "type": "Feature", "properties": { "P29_001": "06201", "P29_002": "B106220120115", "P29_003": "16001", "P29_004": "山形市立鈴川小学校", "P29_005": "山形県山形市鈴川町3-7-10", "P29_006": "3", "P29_007": "1", "P29_008": "00", "P29_009": null }, "geometry": { "type": "Point", "coordinates": [ 140.358378221165253, 38.268636023313945 ] } },
{ "type": "Feature", "properties": { "P29_001": "06201", "P29_002": "B106220120124", "P29_003": "16001", "P29_004": "山形市立千歳小学校", "P29_005": "山形県山形市落合町1359", "P29_006": "3", "P29_007": "1", "P29_008": "00", "P29_009": null }, "geometry": { "type": "Point", "coordinates": [ 140.344843228780007, 38.284535269708776 ] } },
{ "type": "Feature", "properties": { "P29_001": "06201", "P29_002": "B106220120133", "P29_003": "16001", "P29_004": "山形市立金井小学校", "P29_005": "山形県山形市陣場3-7-60", "P29_006": "3", "P29_007": "1", "P29_008": "00", "P29_009": null }, "geometry": { "type": "Point", "coordinates": [ 140.301765306932481, 38.278912164756704 ] } },
{ "type": "Feature", "properties": { "P29_001": "06201", "P29_002": "B106220120142", "P29_003": "16001", "P29_004": "山形市立大郷小学校", "P29_005": "山形県山形市大字中野506", "P29_006": "3", "P29_007": "1", "P29_008": "00", "P29_009": null }, "geometry": { "type": "Point", "coordinates": [ 140.304288670476609, 38.305476505510043 ] } },
{ "type": "Feature", "properties": { "P29_001": "06201", "P29_002": "B106220120151", "P29_003": "16001", "P29_004": "山形市立明治小学校", "P29_005": "山形県山形市大字灰塚454", "P29_006": "3", "P29_007": "1", "P29_008": "00", "P29_009": null }, "geometry": { "type": "Point", "coordinates": [ 140.321126772850448, 38.330564017443081 ] } },
{ "type": "Feature", "properties": { "P29_001": "06201", "P29_002": "B106220120160", "P29_003": "16001", "P29_004": "山形市立出羽小学校", "P29_005": "山形県山形市大字漆山3169", "P29_006": "3", "P29_007": "1", "P29_008": "00", "P29_009": null }, "geometry": { "type": "Point", "coordinates": [ 140.340551768667069, 38.312638944420769 ] } },
{ "type": "Feature", "properties": { "P29_001": "06201", "P29_002": "B106220120179", "P29_003": "16001", "P29_004": "山形市立楯山小学校", "P29_005": "山形県山形市大字青柳字一本木64", "P29_006": "3", "P29_007": "1", "P29_008": "00", "P29_009": null }, "geometry": { "type": "Point", "coordinates": [ 140.365695774834904, 38.302232518607262 ] } },
{ "type": "Feature", "properties": { "P29_001": "06201", "P29_002": "B106220120188", "P29_003": "16001", "P29_004": "山形市立高瀬小学校", "P29_005": "山形県山形市大字下東山1264", "P29_006": "3", "P29_007": "1", "P29_008": "00", "P29_009": null }, "geometry": { "type": "Point", "coordinates": [ 140.401593454327269, 38.29544017093238 ] } },
{ "type": "Feature", "properties": { "P29_001": "06201", "P29_002": "B106220120197", "P29_003": "16001", "P29_004": "山形市立山寺小学校", "P29_005": "山形県山形市山寺1650", "P29_006": "3", "P29_007": "1", "P29_008": "00", "P29_009": null }, "geometry": { "type": "Point", "coordinates": [ 140.426755573190064, 38.309517538187855 ] } },
{ "type": "Feature", "properties": { "P29_001": "06201", "P29_002": "B106220120204", "P29_003": "16001", "P29_004": "山形市立東沢小学校", "P29_005": "山形県山形市防原町4-15", "P29_006": "3", "P29_007": "1", "P29_008": "00", "P29_009": null }, "geometry": { "type": "Point", "coordinates": [ 140.395097125731326, 38.239389440472394 ] } },
{ "type": "Feature", "properties": { "P29_001": "06201", "P29_002": "B106220120213", "P29_003": "16001", "P29_004": "山形市立滝山小学校", "P29_005": "山形県山形市小立4-13-86", "P29_006": "3", "P29_007": "1", "P29_008": "00", "P29_009": null }, "geometry": { "type": "Point", "coordinates": [ 140.345881564367772, 38.227280497199203 ] } },
{ "type": "Feature", "properties": { "P29_001": "06201", "P29_002": "B106220120222", "P29_003": "16001", "P29_004": "山形市立南沼原小学校", "P29_005": "山形県山形市富の中1-1-4", "P29_006": "3", "P29_007": "1", "P29_008": "00", "P29_009": null }, "geometry": { "type": "Point", "coordinates": [ 140.305689480778909, 38.23922679026159 ] } },
{ "type": "Feature", "properties": { "P29_001": "06201", "P29_002": "B106220120231", "P29_003": "16001", "P29_004": "山形市立蔵王第一小学校", "P29_005": "山形県山形市成沢西4-3-17", "P29_006": "3", "P29_007": "1", "P29_008": "00", "P29_009": null }, "geometry": { "type": "Point", "coordinates": [ 140.318419135700708, 38.206421026287657 ] } },
{ "type": "Feature", "properties": { "P29_001": "06201", "P29_002": "B106220120240", "P29_003": "16001", "P29_004": "山形市立蔵王第二小学校", "P29_005": "山形県山形市蔵王上野字南坂2116", "P29_006": "3", "P29_007": "1", "P29_008": "00", "P29_009": null }, "geometry": { "type": "Point", "coordinates": [ 140.318505582893039, 38.177848285494072 ] } },
{ "type": "Feature", "properties": { "P29_001": "06201", "P29_002": "B106220120259", "P29_003": "16001", "P29_004": "山形市立蔵王第三小学校", "P29_005": "山形県山形市蔵王温泉字丈二田727", "P29_006": "3", "P29_007": "1", "P29_008": "00", "P29_009": null }, "geometry": { "type": "Point", "coordinates": [ 140.39228505073612, 38.170263789948798 ] } },
{ "type": "Feature", "properties": { "P29_001": "06201", "P29_002": "B106220120268", "P29_003": "16001", "P29_004": "山形市立南山形小学校", "P29_005": "山形県山形市大字松原字東河原188", "P29_006": "3", "P29_007": "1", "P29_008": "00", "P29_009": null }, "geometry": { "type": "Point", "coordinates": [ 140.307328655092647, 38.201087133309954 ] } },
{ "type": "Feature", "properties": { "P29_001": "06201", "P29_002": "B106220120277", "P29_003": "16001", "P29_004": "山形市立本沢小学校", "P29_005": "山形県山形市大字長谷堂1111-1", "P29_006": "3", "P29_007": "1", "P29_008": "00", "P29_009": null }, "geometry": { "type": "Point", "coordinates": [ 140.28019414532838, 38.216822798378892 ] } },
{ "type": "Feature", "properties": { "P29_001": "06201", "P29_002": "B106220120286", "P29_003": "16001", "P29_004": "山形市立西山形小学校", "P29_005": "山形県山形市大字柏倉888", "P29_006": "3", "P29_007": "1", "P29_008": "00", "P29_009": null }, "geometry": { "type": "Point", "coordinates": [ 140.271999368119822, 38.23577356246453 ] } },
{ "type": "Feature", "properties": { "P29_001": "06201", "P29_002": "B106220120295", "P29_003": "16001", "P29_004": "山形市立村木沢小学校", "P29_005": "山形県山形市大字村木沢6046", "P29_006": "3", "P29_007": "1", "P29_008": "00", "P29_009": null }, "geometry": { "type": "Point", "coordinates": [ 140.261800445674311, 38.252448915528198 ] } },
{ "type": "Feature", "properties": { "P29_001": "06201", "P29_002": "B106220120302", "P29_003": "16001", "P29_004": "山形市立大曽根小学校", "P29_005": "山形県山形市大字上反田278", "P29_006": "3", "P29_007": "1", "P29_008": "00", "P29_009": null }, "geometry": { "type": "Point", "coordinates": [ 140.256951091132379, 38.269843074041127 ] } },
{ "type": "Feature", "properties": { "P29_001": "06201", "P29_002": "B106220120311", "P29_003": "16001", "P29_004": "山形市立南小学校", "P29_005": "山形県山形市青田2-1-1", "P29_006": "3", "P29_007": "1", "P29_008": "00", "P29_009": null }, "geometry": { "type": "Point", "coordinates": [ 140.33227876206081, 38.225542596598103 ] } },
{ "type": "Feature", "properties": { "P29_001": "06201", "P29_002": "B106220120320", "P29_003": "16001", "P29_004": "山形市立西小学校", "P29_005": "山形県山形市西田3-2-1", "P29_006": "3", "P29_007": "1", "P29_008": "00", "P29_009": null }, "geometry": { "type": "Point", "coordinates": [ 140.316370820831338, 38.265693318379633 ] } },
{ "type": "Feature", "properties": { "P29_001": "06201", "P29_002": "B106220120339", "P29_003": "16001", "P29_004": "山形市立東小学校", "P29_005": "山形県山形市泉町19-31", "P29_006": "3", "P29_007": "1", "P29_008": "00", "P29_009": null }, "geometry": { "type": "Point", "coordinates": [ 140.345130529898569, 38.273031768645097 ] } },
{ "type": "Feature", "properties": { "P29_001": "06201", "P29_002": "B106220120348", "P29_003": "16001", "P29_004": "山形市立宮浦小学校", "P29_005": "山形県山形市宮浦17-3", "P29_006": "3", "P29_007": "1", "P29_008": "00", "P29_009": null }, "geometry": { "type": "Point", "coordinates": [ 140.295527153913099, 38.259685145984974 ] } },
{ "type": "Feature", "properties": { "P29_001": "06201", "P29_002": "B106220120357", "P29_003": "16001", "P29_004": "山形市立桜田小学校", "P29_005": "山形県山形市桜田東1-1-30", "P29_006": "3", "P29_007": "1", "P29_008": "00", "P29_009": null }, "geometry": { "type": "Point", "coordinates": [ 140.321311839344389, 38.221558937616429 ] } },
{ "type": "Feature", "properties": { "P29_001": "06201", "P29_002": "B106220120366", "P29_003": "16001", "P29_004": "山形市立みはらしの丘小学校", "P29_005": "山形県山形市みはらしの丘3-4", "P29_006": "3", "P29_007": "1", "P29_008": "00", "P29_009": null }, "geometry": { "type": "Point", "coordinates": [ 140.287999311767123, 38.188114719591262 ] } },
{ "type": "Feature", "properties": { "P29_001": "06202", "P29_002": "B106220220016", "P29_003": "16001", "P29_004": "米沢市立興譲小学校", "P29_005": "山形県米沢市丸の内2-1-58", "P29_006": "3", "P29_007": "1", "P29_008": "00", "P29_009": null }, "geometry": { "type": "Point", "coordinates": [ 140.106556293094542, 37.912327017289911 ] } },
{ "type": "Feature", "properties": { "P29_001": "06202", "P29_002": "B106220220025", "P29_003": "16001", "P29_004": "米沢市立東部小学校", "P29_005": "山形県米沢市東1-6-102", "P29_006": "3", "P29_007": "1", "P29_008": "00", "P29_009": null }, "geometry": { "type": "Point", "coordinates": [ 140.128918025527611, 37.902309365740891 ] } },
{ "type": "Feature", "properties": { "P29_001": "06202", "P29_002": "B106220220034", "P29_003": "16001", "P29_004": "米沢市立西部小学校", "P29_005": "山形県米沢市直江町5-34", "P29_006": "3", "P29_007": "1", "P29_008": "00", "P29_009": null }, "geometry": { "type": "Point", "coordinates": [ 140.089039515882973, 37.915472795735369 ] } },
{ "type": "Feature", "properties": { "P29_001": "06202", "P29_002": "B106220220043", "P29_003": "16001", "P29_004": "米沢市立南部小学校", "P29_005": "山形県米沢市門東町1-2-31", "P29_006": "3", "P29_007": "1", "P29_008": "00", "P29_009": null }, "geometry": { "type": "Point", "coordinates": [ 140.109714758079377, 37.904157974830653 ] } },
{ "type": "Feature", "properties": { "P29_001": "06202", "P29_002": "B106220220052", "P29_003": "16001", "P29_004": "米沢市立北部小学校", "P29_005": "山形県米沢市中央7-4-33", "P29_006": "3", "P29_007": "1", "P29_008": "00", "P29_009": null }, "geometry": { "type": "Point", "coordinates": [ 140.10782242823251, 37.921643771190503 ] } },
{ "type": "Feature", "properties": { "P29_001": "06202", "P29_002": "B106220220061", "P29_003": "16001", "P29_004": "米沢市立愛宕小学校", "P29_005": "山形県米沢市御廟3-10-1", "P29_006": "3", "P29_007": "1", "P29_008": "00", "P29_009": null }, "geometry": { "type": "Point", "coordinates": [ 140.093948446285111, 37.904820215987115 ] } },
{ "type": "Feature", "properties": { "P29_001": "06202", "P29_002": "B106220220070", "P29_003": "16001", "P29_004": "米沢市立万世小学校", "P29_005": "山形県米沢市八幡原5-3948-4", "P29_006": "3", "P29_007": "1", "P29_008": "00", "P29_009": null }, "geometry": { "type": "Point", "coordinates": [ 140.162860865867572, 37.902289856172423 ] } },
{ "type": "Feature", "properties": { "P29_001": "06202", "P29_002": "B106220220105", "P29_003": "16001", "P29_004": "米沢市立南原小学校", "P29_005": "山形県米沢市大字南原笹野町2984", "P29_006": "3", "P29_007": "1", "P29_008": "00", "P29_009": null }, "geometry": { "type": "Point", "coordinates": [ 140.106367934537474, 37.872124743491142 ] } },
{ "type": "Feature", "properties": { "P29_001": "06202", "P29_002": "B106220220114", "P29_003": "16001", "P29_004": "米沢市立南原小学校李山分校", "P29_005": "山形県米沢市大字李山806", "P29_006": "3", "P29_007": "9", "P29_008": "00", "P29_009": null }, "geometry": { "type": "Point", "coordinates": [ 140.12163608712882, 37.841843801582286 ] } },
{ "type": "Feature", "properties": { "P29_001": "06202", "P29_002": "B106220220187", "P29_003": "16001", "P29_004": "米沢市立広幡小学校", "P29_005": "山形県米沢市広幡町上小菅1396", "P29_006": "3", "P29_007": "1", "P29_008": "00", "P29_009": null }, "geometry": { "type": "Point", "coordinates": [ 140.069524054765679, 37.947911661526696 ] } },
{ "type": "Feature", "properties": { "P29_001": "06202", "P29_002": "B106220220196", "P29_003": "16001", "P29_004": "米沢市立六郷小学校", "P29_005": "山形県米沢市六郷町一漆40-1", "P29_006": "3", "P29_007": "1", "P29_008": "00", "P29_009": null }, "geometry": { "type": "Point", "coordinates": [ 140.092758921632964, 37.962606867234555 ] } },
{ "type": "Feature", "properties": { "P29_001": "06202", "P29_002": "B106220220203", "P29_003": "16001", "P29_004": "米沢市立塩井小学校", "P29_005": "山形県米沢市塩井町塩野3760", "P29_006": "3", "P29_007": "1", "P29_008": "00", "P29_009": null }, "geometry": { "type": "Point", "coordinates": [ 140.099042039159627, 37.934428523364268 ] } },
{ "type": "Feature", "properties": { "P29_001": "06202", "P29_002": "B106220220212", "P29_003": "16001", "P29_004": "米沢市立窪田小学校", "P29_005": "山形県米沢市窪田町窪田655-3", "P29_006": "3", "P29_007": "1", "P29_008": "00", "P29_009": null }, "geometry": { "type": "Point", "coordinates": [ 140.121144328435406, 37.958951131657436 ] } },
{ "type": "Feature", "properties": { "P29_001": "06202", "P29_002": "B106220220221", "P29_003": "16001", "P29_004": "米沢市立上郷小学校", "P29_005": "山形県米沢市大字竹井1383", "P29_006": "3", "P29_007": "1", "P29_008": "00", "P29_009": null }, "geometry": { "type": "Point", "coordinates": [ 140.147952639003051, 37.927902561400899 ] } },
{ "type": "Feature", "properties": { "P29_001": "06202", "P29_002": "B106220220230", "P29_003": "16001", "P29_004": "米沢市立松川小学校", "P29_005": "山形県米沢市通町4-10-15", "P29_006": "3", "P29_007": "1", "P29_008": "00", "P29_009": null }, "geometry": { "type": "Point", "coordinates": [ 140.126800545520553, 37.888980089926136 ] } },
{ "type": "Feature", "properties": { "P29_001": "06203", "P29_002": "B106220320015", "P29_003": "16001", "P29_004": "鶴岡市立朝暘第一小学校", "P29_005": "山形県鶴岡市文園町2-1", "P29_006": "3", "P29_007": "1", "P29_008": "00", "P29_009": null }, "geometry": { "type": "Point", "coordinates": [ 139.826927117000196, 38.717575161219848 ] } },
{ "type": "Feature", "properties": { "P29_001": "06203", "P29_002": "B106220320024", "P29_003": "16001", "P29_004": "鶴岡市立朝暘第二小学校", "P29_005": "山形県鶴岡市東原町25-1", "P29_006": "3", "P29_007": "1", "P29_008": "00", "P29_009": null }, "geometry": { "type": "Point", "coordinates": [ 139.843373374300199, 38.720036589436461 ] } },
{ "type": "Feature", "properties": { "P29_001": "06203", "P29_002": "B106220320033", "P29_003": "16001", "P29_004": "鶴岡市立朝暘第三小学校", "P29_005": "山形県鶴岡市新形町17-24", "P29_006": "3", "P29_007": "1", "P29_008": "00", "P29_009": null }, "geometry": { "type": "Point", "coordinates": [ 139.826279061094226, 38.735673106361915 ] } },
{ "type": "Feature", "properties": { "P29_001": "06203", "P29_002": "B106220320042", "P29_003": "16001", "P29_004": "鶴岡市立朝暘第四小学校", "P29_005": "山形県鶴岡市柳田字田中28-1", "P29_006": "3", "P29_007": "1", "P29_008": "00", "P29_009": null }, "geometry": { "type": "Point", "coordinates": [ 139.809782898479, 38.721957603700901 ] } },
{ "type": "Feature", "properties": { "P29_001": "06203", "P29_002": "B106220320051", "P29_003": "16001", "P29_004": "鶴岡市立朝暘第五小学校", "P29_005": "山形県鶴岡市切添町15-4", "P29_006": "3", "P29_007": "1", "P29_008": "00", "P29_009": null }, "geometry": { "type": "Point", "coordinates": [ 139.844645964692376, 38.730577031006632 ] } },
{ "type": "Feature", "properties": { "P29_001": "06203", "P29_002": "B106220320060", "P29_003": "16001", "P29_004": "鶴岡市立朝暘第六小学校", "P29_005": "山形県鶴岡市淀川町9-70", "P29_006": "3", "P29_007": "1", "P29_008": "00", "P29_009": null }, "geometry": { "type": "Point", "coordinates": [ 139.802446292788886, 38.72959211281875 ] } },
{ "type": "Feature", "properties": { "P29_001": "06203", "P29_002": "B106220320079", "P29_003": "16001", "P29_004": "鶴岡市立斎小学校", "P29_005": "山形県鶴岡市我老林字野中川原51", "P29_006": "3", "P29_007": "1", "P29_008": "00", "P29_009": null }, "geometry": { "type": "Point", "coordinates": [ 139.847752003459874, 38.705391002852075 ] } },
{ "type": "Feature", "properties": { "P29_001": "06203", "P29_002": "B106220320088", "P29_003": "16001", "P29_004": "鶴岡市立黄金小学校", "P29_005": "山形県鶴岡市青龍寺字北内48", "P29_006": "3", "P29_007": "1", "P29_008": "00", "P29_009": null }, "geometry": { "type": "Point", "coordinates": [ 139.814372181990592, 38.689656761691737 ] } },
{ "type": "Feature", "properties": { "P29_001": "06203", "P29_002": "B106220320097", "P29_003": "16001", "P29_004": "鶴岡市立大泉小学校", "P29_005": "山形県鶴岡市白山字西野148", "P29_006": "3", "P29_007": "1", "P29_008": "00", "P29_009": null }, "geometry": { "type": "Point", "coordinates": [ 139.780978893530289, 38.726960412835183 ] } },
{ "type": "Feature", "properties": { "P29_001": "06203", "P29_002": "B106220320104", "P29_003": "16001", "P29_004": "鶴岡市立京田小学校", "P29_005": "山形県鶴岡市高田字下村104", "P29_006": "3", "P29_007": "1", "P29_008": "00", "P29_009": null }, "geometry": { "type": "Point", "coordinates": [ 139.806952294548864, 38.752086480227462 ] } },
{ "type": "Feature", "properties": { "P29_001": "06203", "P29_002": "B106220320113", "P29_003": "16001", "P29_004": "鶴岡市立上郷小学校", "P29_005": "山形県鶴岡市みずほ33-3", "P29_006": "3", "P29_007": "1", "P29_008": "00", "P29_009": null }, "geometry": { "type": "Point", "coordinates": [ 139.733463692392405, 38.711044781893619 ] } },
{ "type": "Feature", "properties": { "P29_001": "06203", "P29_002": "B106220320122", "P29_003": "16001", "P29_004": "鶴岡市立豊浦小学校", "P29_005": "山形県鶴岡市三瀬字菖蒲田88-1", "P29_006": "3", "P29_007": "1", "P29_008": "00", "P29_009": null }, "geometry": { "type": "Point", "coordinates": [ 139.674433902942553, 38.701456704902519 ] } },
{ "type": "Feature", "properties": { "P29_001": "06203", "P29_002": "B106220320131", "P29_003": "16001", "P29_004": "鶴岡市立湯野浜小学校", "P29_005": "山形県鶴岡市湯野浜1-16-38", "P29_006": "3", "P29_007": "1", "P29_008": "00", "P29_009": null }, "geometry": { "type": "Point", "coordinates": [ 139.755915442583159, 38.785950208624968 ] } },
{ "type": "Feature", "properties": { "P29_001": "06203", "P29_002": "B106220320140", "P29_003": "16001", "P29_004": "鶴岡市立大山小学校", "P29_005": "山形県鶴岡市大山2-20-1", "P29_006": "3", "P29_007": "1", "P29_008": "00", "P29_009": null }, "geometry": { "type": "Point", "coordinates": [ 139.764395167586144, 38.749882276019626 ] } },
{ "type": "Feature", "properties": { "P29_001": "06203", "P29_002": "B106220320159", "P29_003": "16001", "P29_004": "鶴岡市立西郷小学校", "P29_005": "山形県鶴岡市下川字樋渡100", "P29_006": "3", "P29_007": "1", "P29_008": "00", "P29_009": null }, "geometry": { "type": "Point", "coordinates": [ 139.786069849845347, 38.780867096754434 ] } },
{ "type": "Feature", "properties": { "P29_001": "06203", "P29_002": "B106220320168", "P29_003": "16001", "P29_004": "鶴岡市立藤島小学校", "P29_005": "山形県鶴岡市藤の花2-1-1", "P29_006": "3", "P29_007": "1", "P29_008": "00", "P29_009": null }, "geometry": { "type": "Point", "coordinates": [ 139.90580483626573, 38.770115844598294 ] } },
{ "type": "Feature", "properties": { "P29_001": "06203", "P29_002": "B106220320177", "P29_003": "16001", "P29_004": "鶴岡市立東栄小学校", "P29_005": "山形県鶴岡市川尻字町上14", "P29_006": "3", "P29_007": "1", "P29_008": "00", "P29_009": null }, "geometry": { "type": "Point", "coordinates": [ 139.934464701378516, 38.748707295056306 ] } },
{ "type": "Feature", "properties": { "P29_001": "06203", "P29_002": "B106220320186", "P29_003": "16001", "P29_004": "鶴岡市立渡前小学校", "P29_005": "山形県鶴岡市渡前字中屋敷1", "P29_006": "3", "P29_007": "1", "P29_008": "00", "P29_009": null }, "geometry": { "type": "Point", "coordinates": [ 139.886466360677673, 38.751975394842269 ] } },
{ "type": "Feature", "properties": { "P29_001": "06203", "P29_002": "B106220320195", "P29_003": "16001", "P29_004": "鶴岡市立羽黒小学校", "P29_005": "山形県鶴岡市羽黒町荒川字花沢4", "P29_006": "3", "P29_007": "1", "P29_008": "00", "P29_009": null }, "geometry": { "type": "Point", "coordinates": [ 139.912197469981834, 38.715971193328201 ] } },
{ "type": "Feature", "properties": { "P29_001": "06203", "P29_002": "B106220320202", "P29_003": "16001", "P29_004": "鶴岡市立広瀬小学校", "P29_005": "山形県鶴岡市羽黒町後田字下田元9", "P29_006": "3", "P29_007": "1", "P29_008": "00", "P29_009": null }, "geometry": { "type": "Point", "coordinates": [ 139.873104800339036, 38.715485028664169 ] } },
{ "type": "Feature", "properties": { "P29_001": "06203", "P29_002": "B106220320211", "P29_003": "16001", "P29_004": "鶴岡市立櫛引東小学校", "P29_005": "山形県鶴岡市黒川字小在家90", "P29_006": "3", "P29_007": "1", "P29_008": "00", "P29_009": null }, "geometry": { "type": "Point", "coordinates": [ 139.866026870619436, 38.670765667881682 ] } },
{ "type": "Feature", "properties": { "P29_001": "06203", "P29_002": "B106220320220", "P29_003": "16001", "P29_004": "鶴岡市立櫛引西小学校", "P29_005": "山形県鶴岡市上山添字文栄1", "P29_006": "3", "P29_007": "1", "P29_008": "00", "P29_009": null }, "geometry": { "type": "Point", "coordinates": [ 139.844763614707233, 38.680307934161192 ] } },
{ "type": "Feature", "properties": { "P29_001": "06203", "P29_002": "B106220320239", "P29_003": "16001", "P29_004": "鶴岡市立櫛引南小学校", "P29_005": "山形県鶴岡市東荒屋字竹ノ内212", "P29_006": "3", "P29_007": "1", "P29_008": "00", "P29_009": null }, "geometry": { "type": "Point", "coordinates": [ 139.852100831936781, 38.648946084176593 ] } },
{ "type": "Feature", "properties": { "P29_001": "06203", "P29_002": "B106220320248", "P29_003": "16001", "P29_004": "鶴岡市立あさひ小学校", "P29_005": "山形県鶴岡市下名川字落合2", "P29_006": "3", "P29_007": "1", "P29_008": "00", "P29_009": null }, "geometry": { "type": "Point", "coordinates": [ 139.835653805264286, 38.611474768529263 ] } },
{ "type": "Feature", "properties": { "P29_001": "06203", "P29_002": "B106220320257", "P29_003": "16001", "P29_004": "鶴岡市立あつみ小学校", "P29_005": "山形県鶴岡市温海字萩田240-1", "P29_006": "3", "P29_007": "1", "P29_008": "00", "P29_009": null }, "geometry": { "type": "Point", "coordinates": [ 139.592558926302246, 38.618003365305348 ] } },
{ "type": "Feature", "properties": { "P29_001": "06203", "P29_002": "B106220320266", "P29_003": "16001", "P29_004": "鶴岡市立鼠ヶ関小学校", "P29_005": "山形県鶴岡市鼠ヶ関字横路497-2", "P29_006": "3", "P29_007": "1", "P29_008": "00", "P29_009": null }, "geometry": { "type": "Point", "coordinates": [ 139.555666836619793, 38.555755111007016 ] } },
{ "type": "Feature", "properties": { "P29_001": "06204", "P29_002": "B106220420014", "P29_003": "16001", "P29_004": "酒田市立浜田小学校", "P29_005": "山形県酒田市浜田1-5-46", "P29_006": "3", "P29_007": "1", "P29_008": "00", "P29_009": null }, "geometry": { "type": "Point", "coordinates": [ 139.846872681195094, 38.91691265302638 ] } },
{ "type": "Feature", "properties": { "P29_001": "06204", "P29_002": "B106220420023", "P29_003": "16001", "P29_004": "酒田市立松陵小学校", "P29_005": "山形県酒田市住吉町9-36", "P29_006": "3", "P29_007": "1", "P29_008": "00", "P29_009": null }, "geometry": { "type": "Point", "coordinates": [ 139.834278165820677, 38.931406154485401 ] } },
{ "type": "Feature", "properties": { "P29_001": "06204", "P29_002": "B106220420032", "P29_003": "16001", "P29_004": "酒田市立飛島小学校", "P29_005": "山形県酒田市飛島字中村甲283", "P29_006": "3", "P29_007": "9", "P29_008": "00", "P29_009": null }, "geometry": { "type": "Point", "coordinates": [ 139.558876233630656, 39.195833195661322 ] } },
{ "type": "Feature", "properties": { "P29_001": "06204", "P29_002": "B106220420041", "P29_003": "16001", "P29_004": "酒田市立西荒瀬小学校", "P29_005": "山形県酒田市宮海字新林660", "P29_006": "3", "P29_007": "1", "P29_008": "00", "P29_009": null }, "geometry": { "type": "Point", "coordinates": [ 139.851074781307489, 38.962507799419861 ] } },
{ "type": "Feature", "properties": { "P29_001": "06204", "P29_002": "B106220420050", "P29_003": "16001", "P29_004": "酒田市立鳥海小学校", "P29_005": "山形県酒田市本楯字前田94-1", "P29_006": "3", "P29_007": "1", "P29_008": "00", "P29_009": null }, "geometry": { "type": "Point", "coordinates": [ 139.888223479482946, 38.96293456363825 ] } },
{ "type": "Feature", "properties": { "P29_001": "06204", "P29_002": "B106220420069", "P29_003": "16001", "P29_004": "酒田市立新堀小学校", "P29_005": "山形県酒田市木川字アラコウヤ32", "P29_006": "3", "P29_007": "1", "P29_008": "00", "P29_009": null }, "geometry": { "type": "Point", "coordinates": [ 139.877036648658276, 38.867810387929076 ] } },
{ "type": "Feature", "properties": { "P29_001": "06204", "P29_002": "B106220420078", "P29_003": "16001", "P29_004": "酒田市立広野小学校", "P29_005": "山形県酒田市広野字中通53", "P29_006": "3", "P29_007": "1", "P29_008": "00", "P29_009": null }, "geometry": { "type": "Point", "coordinates": [ 139.85194466617321, 38.846424632431265 ] } },
{ "type": "Feature", "properties": { "P29_001": "06204", "P29_002": "B106220420087", "P29_003": "16001", "P29_004": "酒田市立浜中小学校", "P29_005": "山形県酒田市浜中字上村370-2", "P29_006": "3", "P29_007": "1", "P29_008": "00", "P29_009": null }, "geometry": { "type": "Point", "coordinates": [ 139.783705660747358, 38.825905849566269 ] } },
{ "type": "Feature", "properties": { "P29_001": "06204", "P29_002": "B106220420096", "P29_003": "16001", "P29_004": "酒田市立黒森小学校", "P29_005": "山形県酒田市黒森字一の木450", "P29_006": "3", "P29_007": "1", "P29_008": "00", "P29_009": null }, "geometry": { "type": "Point", "coordinates": [ 139.822983607565703, 38.851063489532649 ] } },
{ "type": "Feature", "properties": { "P29_001": "06204", "P29_002": "B106220420103", "P29_003": "16001", "P29_004": "酒田市立宮野浦小学校", "P29_005": "山形県酒田市宮野浦1-11-1", "P29_006": "3", "P29_007": "1", "P29_008": "00", "P29_009": null }, "geometry": { "type": "Point", "coordinates": [ 139.816216160844448, 38.90649642273636 ] } },
{ "type": "Feature", "properties": { "P29_001": "06204", "P29_002": "B106220420112", "P29_003": "16001", "P29_004": "酒田市立十坂小学校", "P29_005": "山形県酒田市坂野辺新田字地続山987-1", "P29_006": "3", "P29_007": "1", "P29_008": "00", "P29_009": null }, "geometry": { "type": "Point", "coordinates": [ 139.816404841533199, 38.877250769439584 ] } },
{ "type": "Feature", "properties": { "P29_001": "06204", "P29_002": "B106220420121", "P29_003": "16001", "P29_004": "酒田市立一條小学校", "P29_005": "山形県酒田市寺田字沖1-1", "P29_006": "3", "P29_007": "1", "P29_008": "00", "P29_009": null }, "geometry": { "type": "Point", "coordinates": [ 139.927571195037473, 38.956899355749265 ] } },
{ "type": "Feature", "properties": { "P29_001": "06204", "P29_002": "B106220420130", "P29_003": "16001", "P29_004": "酒田市立八幡小学校", "P29_005": "山形県酒田市観音寺字古楯1-1", "P29_006": "3", "P29_007": "1", "P29_008": "00", "P29_009": null }, "geometry": { "type": "Point", "coordinates": [ 139.943807698581253, 38.974111632091706 ] } },
{ "type": "Feature", "properties": { "P29_001": "06204", "P29_002": "B106220420158", "P29_003": "16001", "P29_004": "酒田市立若浜小学校", "P29_005": "山形県酒田市若浜町1-1", "P29_006": "3", "P29_007": "1", "P29_008": "00", "P29_009": null }, "geometry": { "type": "Point", "coordinates": [ 139.849170602529142, 38.914626898599323 ] } },
{ "type": "Feature", "properties": { "P29_001": "06204", "P29_002": "B106220420167", "P29_003": "16001", "P29_004": "酒田市立琢成小学校", "P29_005": "山形県酒田市栄町10-8", "P29_006": "3", "P29_007": "1", "P29_008": "00", "P29_009": null }, "geometry": { "type": "Point", "coordinates": [ 139.838082785711634, 38.922866831804193 ] } },
{ "type": "Feature", "properties": { "P29_001": "06204", "P29_002": "B106220420176", "P29_003": "16001", "P29_004": "酒田市立泉小学校", "P29_005": "山形県酒田市東泉町4-4-1", "P29_006": "3", "P29_007": "1", "P29_008": "00", "P29_009": null }, "geometry": { "type": "Point", "coordinates": [ 139.852012604364376, 38.931802499336371 ] } },
{ "type": "Feature", "properties": { "P29_001": "06204", "P29_002": "B106220420185", "P29_003": "16001", "P29_004": "酒田市立富士見小学校", "P29_005": "山形県酒田市富士見町2-10-1", "P29_006": "3", "P29_007": "1", "P29_008": "00", "P29_009": null }, "geometry": { "type": "Point", "coordinates": [ 139.862672066323881, 38.924489350840751 ] } },
{ "type": "Feature", "properties": { "P29_001": "06204", "P29_002": "B106220420194", "P29_003": "16001", "P29_004": "酒田市立松原小学校", "P29_005": "山形県酒田市亀ヶ崎5-8-25", "P29_006": "3", "P29_007": "1", "P29_008": "00", "P29_009": null }, "geometry": { "type": "Point", "coordinates": [ 139.850262380368235, 38.900790563827961 ] } },
{ "type": "Feature", "properties": { "P29_001": "06204", "P29_002": "B106220420201", "P29_003": "16001", "P29_004": "酒田市立南平田小学校", "P29_005": "山形県酒田市飛鳥字腰巻99", "P29_006": "3", "P29_007": "1", "P29_008": "00", "P29_009": null }, "geometry": { "type": "Point", "coordinates": [ 139.923996610790653, 38.889665406771456 ] } },
{ "type": "Feature", "properties": { "P29_001": "06204", "P29_002": "B106220420210", "P29_003": "16001", "P29_004": "酒田市立平田小学校", "P29_005": "山形県酒田市荻島字面桜8", "P29_006": "3", "P29_007": "1", "P29_008": "00", "P29_009": null }, "geometry": { "type": "Point", "coordinates": [ 139.890553655535911, 38.918548315941131 ] } },
{ "type": "Feature", "properties": { "P29_001": "06204", "P29_002": "B106220420229", "P29_003": "16001", "P29_004": "酒田市立亀ケ崎小学校", "P29_005": "山形県酒田市亀ヶ崎2-3-55", "P29_006": "3", "P29_007": "1", "P29_008": "00", "P29_009": null }, "geometry": { "type": "Point", "coordinates": [ 139.8428191276071, 38.906080278333796 ] } },
{ "type": "Feature", "properties": { "P29_001": "06204", "P29_002": "B106220420238", "P29_003": "16001", "P29_004": "酒田市立松山小学校", "P29_005": "山形県酒田市山寺字見初沢157-1", "P29_006": "3", "P29_007": "1", "P29_008": "00", "P29_009": null }, "geometry": { "type": "Point", "coordinates": [ 139.962662622127425, 38.84895794729708 ] } },
{ "type": "Feature", "properties": { "P29_001": "06205", "P29_002": "B106220520013", "P29_003": "16001", "P29_004": "新庄市立新庄小学校", "P29_005": "山形県新庄市城西町6-24", "P29_006": "3", "P29_007": "1", "P29_008": "00", "P29_009": null }, "geometry": { "type": "Point", "coordinates": [ 140.288740239926113, 38.764415148215143 ] } },
{ "type": "Feature", "properties": { "P29_001": "06205", "P29_002": "B106220520031", "P29_003": "16001", "P29_004": "新庄市立日新小学校", "P29_005": "山形県新庄市下金沢町16-4", "P29_006": "3", "P29_007": "1", "P29_008": "00", "P29_009": null }, "geometry": { "type": "Point", "coordinates": [ 140.300217638299046, 38.753266584628086 ] } },
{ "type": "Feature", "properties": { "P29_001": "06205", "P29_002": "B106220520059", "P29_003": "16001", "P29_004": "新庄市立本合海小学校", "P29_005": "山形県新庄市本合海128", "P29_006": "3", "P29_007": "1", "P29_008": "00", "P29_009": null }, "geometry": { "type": "Point", "coordinates": [ 140.231733018071026, 38.729756194168964 ] } },
{ "type": "Feature", "properties": { "P29_001": "06205", "P29_002": "B106220520068", "P29_003": "16001", "P29_004": "新庄市立升形小学校", "P29_005": "山形県新庄市大字升形800-9", "P29_006": "3", "P29_007": "1", "P29_008": "00", "P29_009": null }, "geometry": { "type": "Point", "coordinates": [ 140.237924285723693, 38.753135301630955 ] } },
{ "type": "Feature", "properties": { "P29_001": "06206", "P29_002": "B106220620012", "P29_003": "16001", "P29_004": "寒河江市立寒河江小学校", "P29_005": "山形県寒河江市丸内1-3-8", "P29_006": "3", "P29_007": "1", "P29_008": "00", "P29_009": null }, "geometry": { "type": "Point", "coordinates": [ 140.279671999101282, 38.376552995424852 ] } },
{ "type": "Feature", "properties": { "P29_001": "06206", "P29_002": "B106220620021", "P29_003": "16001", "P29_004": "寒河江市立寒河江中部小学校", "P29_005": "山形県寒河江市元町2-19", "P29_006": "3", "P29_007": "1", "P29_008": "00", "P29_009": null }, "geometry": { "type": "Point", "coordinates": [ 140.271745120200507, 38.370857480430963 ] } },
{ "type": "Feature", "properties": { "P29_001": "06206", "P29_002": "B106220620030", "P29_003": "16001", "P29_004": "寒河江市立南部小学校", "P29_005": "山形県寒河江市大字高屋字北江11", "P29_006": "3", "P29_007": "1", "P29_008": "00", "P29_009": null }, "geometry": { "type": "Point", "coordinates": [ 140.281788636085992, 38.358338213851539 ] } },
{ "type": "Feature", "properties": { "P29_001": "06206", "P29_002": "B106220620049", "P29_003": "16001", "P29_004": "寒河江市立西根小学校", "P29_005": "山形県寒河江市西根170", "P29_006": "3", "P29_007": "1", "P29_008": "00", "P29_009": null }, "geometry": { "type": "Point", "coordinates": [ 140.290329481800967, 38.383632978663194 ] } },
{ "type": "Feature", "properties": { "P29_001": "06206", "P29_002": "B106220620058", "P29_003": "16001", "P29_004": "寒河江市立柴橋小学校", "P29_005": "山形県寒河江市柴橋1923", "P29_006": "3", "P29_007": "1", "P29_008": "00", "P29_009": null }, "geometry": { "type": "Point", "coordinates": [ 140.241144752855206, 38.369346273866299 ] } },
{ "type": "Feature", "properties": { "P29_001": "06206", "P29_002": "B106220620067", "P29_003": "16001", "P29_004": "寒河江市立高松小学校", "P29_005": "山形県寒河江市米沢643-2", "P29_006": "3", "P29_007": "1", "P29_008": "00", "P29_009": null }, "geometry": { "type": "Point", "coordinates": [ 140.241608678367271, 38.401463163706751 ] } },
{ "type": "Feature", "properties": { "P29_001": "06206", "P29_002": "B106220620076", "P29_003": "16001", "P29_004": "寒河江市立醍醐小学校", "P29_005": "山形県寒河江市日和田6-1", "P29_006": "3", "P29_007": "1", "P29_008": "00", "P29_009": null }, "geometry": { "type": "Point", "coordinates": [ 140.25314276966327, 38.406133026948346 ] } },
{ "type": "Feature", "properties": { "P29_001": "06206", "P29_002": "B106220620085", "P29_003": "16001", "P29_004": "寒河江市立白岩小学校", "P29_005": "山形県寒河江市白岩1848", "P29_006": "3", "P29_007": "1", "P29_008": "00", "P29_009": null }, "geometry": { "type": "Point", "coordinates": [ 140.228987660984785, 38.411379901551676 ] } },
{ "type": "Feature", "properties": { "P29_001": "06206", "P29_002": "B106220620094", "P29_003": "16001", "P29_004": "寒河江市立三泉小学校", "P29_005": "山形県寒河江市中河原191-1", "P29_006": "3", "P29_007": "1", "P29_008": "00", "P29_009": null }, "geometry": { "type": "Point", "coordinates": [ 140.285736863355311, 38.405591588145619 ] } },
{ "type": "Feature", "properties": { "P29_001": "06207", "P29_002": "B106220720011", "P29_003": "16001", "P29_004": "上山市立上山小学校", "P29_005": "山形県上山市元城内5-5", "P29_006": "3", "P29_007": "1", "P29_008": "00", "P29_009": null }, "geometry": { "type": "Point", "coordinates": [ 140.276401931915586, 38.15928206450905 ] } },
{ "type": "Feature", "properties": { "P29_001": "06207", "P29_002": "B106220720039", "P29_003": "16001", "P29_004": "上山市立中川小学校", "P29_005": "山形県上山市金谷字水神河原1189-2", "P29_006": "3", "P29_007": "1", "P29_008": "00", "P29_009": null }, "geometry": { "type": "Point", "coordinates": [ 140.313436202753309, 38.161805178835039 ] } },
{ "type": "Feature", "properties": { "P29_001": "06207", "P29_002": "B106220720048", "P29_003": "16001", "P29_004": "上山市立南小学校", "P29_005": "山形県上山市けやきの森1-1", "P29_006": "3", "P29_007": "1", "P29_008": "00", "P29_009": null }, "geometry": { "type": "Point", "coordinates": [ 140.272358413819632, 38.148076645792017 ] } },
{ "type": "Feature", "properties": { "P29_001": "06207", "P29_002": "B106220720057", "P29_003": "16001", "P29_004": "上山市立宮川小学校", "P29_005": "山形県上山市須田板字原際784-1", "P29_006": "3", "P29_007": "1", "P29_008": "00", "P29_009": null }, "geometry": { "type": "Point", "coordinates": [ 140.309694147916787, 38.105888072833785 ] } },
{ "type": "Feature", "properties": { "P29_001": "06208", "P29_002": "B106220820010", "P29_003": "16001", "P29_004": "村山市立楯岡小学校", "P29_005": "山形県村山市楯岡楯18-1", "P29_006": "3", "P29_007": "1", "P29_008": "00", "P29_009": null }, "geometry": { "type": "Point", "coordinates": [ 140.395038531985648, 38.482890995988747 ] } },
{ "type": "Feature", "properties": { "P29_001": "06208", "P29_002": "B106220820029", "P29_003": "16001", "P29_004": "村山市立西郷小学校", "P29_005": "山形県村山市名取1217", "P29_006": "3", "P29_007": "1", "P29_008": "00", "P29_009": null }, "geometry": { "type": "Point", "coordinates": [ 140.364296354953126, 38.497754796196844 ] } },
{ "type": "Feature", "properties": { "P29_001": "06208", "P29_002": "B106220820038", "P29_003": "16001", "P29_004": "村山市立袖崎小学校", "P29_005": "山形県村山市土生田263", "P29_006": "3", "P29_007": "1", "P29_008": "00", "P29_009": null }, "geometry": { "type": "Point", "coordinates": [ 140.400127771929647, 38.543764491045415 ] } },
{ "type": "Feature", "properties": { "P29_001": "06208", "P29_002": "B106220820047", "P29_003": "16001", "P29_004": "村山市立大久保小学校", "P29_005": "山形県村山市大久保甲1-1", "P29_006": "3", "P29_007": "1", "P29_008": "00", "P29_009": null }, "geometry": { "type": "Point", "coordinates": [ 140.329986550296951, 38.468463104186284 ] } },
{ "type": "Feature", "properties": { "P29_001": "06208", "P29_002": "B106220820056", "P29_003": "16001", "P29_004": "村山市立冨本小学校", "P29_005": "山形県村山市大字湯野沢1129", "P29_006": "3", "P29_007": "1", "P29_008": "00", "P29_009": null }, "geometry": { "type": "Point", "coordinates": [ 140.302256530658838, 38.475463677054357 ] } },
{ "type": "Feature", "properties": { "P29_001": "06208", "P29_002": "B106220820065", "P29_003": "16001", "P29_004": "村山市立戸沢小学校", "P29_005": "山形県村山市大字長善寺293-2", "P29_006": "3", "P29_007": "1", "P29_008": "00", "P29_009": null }, "geometry": { "type": "Point", "coordinates": [ 140.324055096876407, 38.494647423177561 ] } },
{ "type": "Feature", "properties": { "P29_001": "06208", "P29_002": "B106220820074", "P29_003": "16001", "P29_004": "村山市立富並小学校", "P29_005": "山形県村山市大字富並2169", "P29_006": "3", "P29_007": "1", "P29_008": "00", "P29_009": null }, "geometry": { "type": "Point", "coordinates": [ 140.346322003764527, 38.545932945461779 ] } },
{ "type": "Feature", "properties": { "P29_001": "06209", "P29_002": "B106220920019", "P29_003": "16001", "P29_004": "長井市立長井小学校", "P29_005": "山形県長井市ままの上5-2", "P29_006": "3", "P29_007": "1", "P29_008": "00", "P29_009": null }, "geometry": { "type": "Point", "coordinates": [ 140.041041014484932, 38.10807262658841 ] } },
{ "type": "Feature", "properties": { "P29_001": "06209", "P29_002": "B106220920028", "P29_003": "16001", "P29_004": "長井市立致芳小学校", "P29_005": "山形県長井市五十川1091", "P29_006": "3", "P29_007": "1", "P29_008": "00", "P29_009": null }, "geometry": { "type": "Point", "coordinates": [ 140.040110210386956, 38.134776283606399 ] } },
{ "type": "Feature", "properties": { "P29_001": "06209", "P29_002": "B106220920037", "P29_003": "16001", "P29_004": "長井市立西根小学校", "P29_005": "山形県長井市草岡375", "P29_006": "3", "P29_007": "1", "P29_008": "00", "P29_009": null }, "geometry": { "type": "Point", "coordinates": [ 140.005904526852419, 38.134198164493348 ] } },
{ "type": "Feature", "properties": { "P29_001": "06209", "P29_002": "B106220920046", "P29_003": "16001", "P29_004": "長井市立平野小学校", "P29_005": "山形県長井市九野本3118", "P29_006": "3", "P29_007": "1", "P29_008": "00", "P29_009": null }, "geometry": { "type": "Point", "coordinates": [ 140.006338093942702, 38.092048743951366 ] } },
{ "type": "Feature", "properties": { "P29_001": "06209", "P29_002": "B106220920055", "P29_003": "16001", "P29_004": "長井市立豊田小学校", "P29_005": "山形県長井市歌丸976", "P29_006": "3", "P29_007": "1", "P29_008": "00", "P29_009": null }, "geometry": { "type": "Point", "coordinates": [ 140.042075108173833, 38.069119868340387 ] } },
{ "type": "Feature", "properties": { "P29_001": "06209", "P29_002": "B106220920064", "P29_003": "16001", "P29_004": "長井市立伊佐沢小学校", "P29_005": "山形県長井市上伊佐沢2027", "P29_006": "3", "P29_007": "1", "P29_008": "00", "P29_009": null }, "geometry": { "type": "Point", "coordinates": [ 140.066532239017846, 38.094736459350095 ] } },
{ "type": "Feature", "properties": { "P29_001": "06210", "P29_002": "B106221020016", "P29_003": "16001", "P29_004": "天童市立天童中部小学校", "P29_005": "山形県天童市老野森2-6-4", "P29_006": "3", "P29_007": "1", "P29_008": "00", "P29_009": null }, "geometry": { "type": "Point", "coordinates": [ 140.374631275487133, 38.364457305444937 ] } },
{ "type": "Feature", "properties": { "P29_001": "06210", "P29_002": "B106221020025", "P29_003": "16001", "P29_004": "天童市立山口小学校", "P29_005": "山形県天童市山口1919", "P29_006": "3", "P29_007": "1", "P29_008": "00", "P29_009": null }, "geometry": { "type": "Point", "coordinates": [ 140.408633138339383, 38.38813040136462 ] } },
{ "type": "Feature", "properties": { "P29_001": "06210", "P29_002": "B106221020034", "P29_003": "16001", "P29_004": "天童市立成生小学校", "P29_005": "山形県天童市高木836", "P29_006": "3", "P29_007": "1", "P29_008": "00", "P29_009": null }, "geometry": { "type": "Point", "coordinates": [ 140.361756891939137, 38.379093610816994 ] } },
{ "type": "Feature", "properties": { "P29_001": "06210", "P29_002": "B106221020043", "P29_003": "16001", "P29_004": "天童市立蔵増小学校", "P29_005": "山形県天童市蔵増676", "P29_006": "3", "P29_007": "1", "P29_008": "00", "P29_009": null }, "geometry": { "type": "Point", "coordinates": [ 140.34173644273244, 38.367773505300846 ] } },
{ "type": "Feature", "properties": { "P29_001": "06210", "P29_002": "B106221020052", "P29_003": "16001", "P29_004": "天童市立寺津小学校", "P29_005": "山形県天童市寺津1350", "P29_006": "3", "P29_007": "1", "P29_008": "00", "P29_009": null }, "geometry": { "type": "Point", "coordinates": [ 140.315541097307602, 38.348300410330936 ] } },
{ "type": "Feature", "properties": { "P29_001": "06210", "P29_002": "B106221020061", "P29_003": "16001", "P29_004": "天童市立高擶小学校", "P29_005": "山形県天童市高擶北239", "P29_006": "3", "P29_007": "1", "P29_008": "00", "P29_009": null }, "geometry": { "type": "Point", "coordinates": [ 140.348540651980414, 38.334665268728116 ] } },
{ "type": "Feature", "properties": { "P29_001": "06210", "P29_002": "B106221020070", "P29_003": "16001", "P29_004": "天童市立干布小学校", "P29_005": "山形県天童市大字干布580", "P29_006": "3", "P29_007": "1", "P29_008": "00", "P29_009": null }, "geometry": { "type": "Point", "coordinates": [ 140.394207954116553, 38.33502487903462 ] } },
{ "type": "Feature", "properties": { "P29_001": "06210", "P29_002": "B106221020089", "P29_003": "16001", "P29_004": "天童市立津山小学校", "P29_005": "山形県天童市貫津591", "P29_006": "3", "P29_007": "1", "P29_008": "00", "P29_009": null }, "geometry": { "type": "Point", "coordinates": [ 140.391130227755554, 38.354822771825965 ] } },
{ "type": "Feature", "properties": { "P29_001": "06210", "P29_002": "B106221020098", "P29_003": "16001", "P29_004": "天童市立荒谷小学校", "P29_005": "山形県天童市大字荒谷7857", "P29_006": "3", "P29_007": "1", "P29_008": "00", "P29_009": null }, "geometry": { "type": "Point", "coordinates": [ 140.39220892644218, 38.319141117759486 ] } },
{ "type": "Feature", "properties": { "P29_001": "06210", "P29_002": "B106221020105", "P29_003": "16001", "P29_004": "天童市立天童南部小学校", "P29_005": "山形県天童市田鶴町4-2-10", "P29_006": "3", "P29_007": "1", "P29_008": "00", "P29_009": null }, "geometry": { "type": "Point", "coordinates": [ 140.367006798515234, 38.35723245248775 ] } },
{ "type": "Feature", "properties": { "P29_001": "06210", "P29_002": "B106221020114", "P29_003": "16001", "P29_004": "天童市立天童北部小学校", "P29_005": "山形県天童市乱川4-2-25", "P29_006": "3", "P29_007": "1", "P29_008": "00", "P29_009": null }, "geometry": { "type": "Point", "coordinates": [ 140.379816827422417, 38.383484019027854 ] } },
{ "type": "Feature", "properties": { "P29_001": "06210", "P29_002": "B106221020123", "P29_003": "16001", "P29_004": "天童市立長岡小学校", "P29_005": "山形県天童市東長岡3-3-1", "P29_006": "3", "P29_007": "1", "P29_008": "00", "P29_009": null }, "geometry": { "type": "Point", "coordinates": [ 140.365186668764949, 38.330591577965514 ] } },
{ "type": "Feature", "properties": { "P29_001": "06211", "P29_002": "B106221120015", "P29_003": "16001", "P29_004": "東根市立東根小学校", "P29_005": "山形県東根市本丸南1-1-1", "P29_006": "3", "P29_007": "1", "P29_008": "00", "P29_009": null }, "geometry": { "type": "Point", "coordinates": [ 140.402666423634287, 38.441684099798927 ] } },
{ "type": "Feature", "properties": { "P29_001": "06211", "P29_002": "B106221120024", "P29_003": "16001", "P29_004": "東根市立神町小学校", "P29_005": "山形県東根市神町南3-2-3", "P29_006": "3", "P29_007": "1", "P29_008": "00", "P29_009": null }, "geometry": { "type": "Point", "coordinates": [ 140.383395752298782, 38.401885085737867 ] } },
{ "type": "Feature", "properties": { "P29_001": "06211", "P29_002": "B106221120033", "P29_003": "16001", "P29_004": "東根市立東郷小学校", "P29_005": "山形県東根市大字泉郷乙1922", "P29_006": "3", "P29_007": "1", "P29_008": "00", "P29_009": null }, "geometry": { "type": "Point", "coordinates": [ 140.434870906632142, 38.420563224034197 ] } },
{ "type": "Feature", "properties": { "P29_001": "06211", "P29_002": "B106221120042", "P29_003": "16001", "P29_004": "東根市立高崎小学校", "P29_005": "山形県東根市観音寺2162", "P29_006": "3", "P29_007": "1", "P29_008": "00", "P29_009": null }, "geometry": { "type": "Point", "coordinates": [ 140.454414143241308, 38.415835048122361 ] } },
{ "type": "Feature", "properties": { "P29_001": "06211", "P29_002": "B106221120051", "P29_003": "16001", "P29_004": "東根市立大富小学校", "P29_005": "山形県東根市大字羽入841", "P29_006": "3", "P29_007": "1", "P29_008": "00", "P29_009": null }, "geometry": { "type": "Point", "coordinates": [ 140.351287305337337, 38.408047254189462 ] } },
{ "type": "Feature", "properties": { "P29_001": "06211", "P29_002": "B106221120060", "P29_003": "16001", "P29_004": "東根市立小田島小学校", "P29_005": "山形県東根市大字郡山411-1", "P29_006": "3", "P29_007": "1", "P29_008": "00", "P29_009": null }, "geometry": { "type": "Point", "coordinates": [ 140.359362738963853, 38.433330655045985 ] } },
{ "type": "Feature", "properties": { "P29_001": "06211", "P29_002": "B106221120079", "P29_003": "16001", "P29_004": "東根市立長瀞小学校", "P29_005": "山形県東根市長瀞188-1", "P29_006": "3", "P29_007": "1", "P29_008": "00", "P29_009": null }, "geometry": { "type": "Point", "coordinates": [ 140.374882190739271, 38.454193027569886 ] } },
{ "type": "Feature", "properties": { "P29_001": "06211", "P29_002": "B106221120088", "P29_003": "16001", "P29_004": "東根市立東根中部小学校", "P29_005": "山形県東根市中央2-5-1", "P29_006": "3", "P29_007": "1", "P29_008": "00", "P29_009": null }, "geometry": { "type": "Point", "coordinates": [ 140.38667530867852, 38.432991060545909 ] } },
{ "type": "Feature", "properties": { "P29_001": "06211", "P29_002": "B106221120097", "P29_003": "16001", "P29_004": "東根市立大森小学校", "P29_005": "山形県東根市神町北2-1-1", "P29_006": "3", "P29_007": "1", "P29_008": "00", "P29_009": null }, "geometry": { "type": "Point", "coordinates": [ 140.38391177311658, 38.418473769425468 ] } },
{ "type": "Feature", "properties": { "P29_001": "06212", "P29_002": "B106221220014", "P29_003": "16001", "P29_004": "尾花沢市立福原小学校", "P29_005": "山形県尾花沢市大字寺内1170", "P29_006": "3", "P29_007": "1", "P29_008": "00", "P29_009": null }, "geometry": { "type": "Point", "coordinates": [ 140.405083153708091, 38.652329861950022 ] } },
{ "type": "Feature", "properties": { "P29_001": "06212", "P29_002": "B106221220023", "P29_003": "16001", "P29_004": "尾花沢市立尾花沢小学校", "P29_005": "山形県尾花沢市梺町3-3-1", "P29_006": "3", "P29_007": "1", "P29_008": "00", "P29_009": null }, "geometry": { "type": "Point", "coordinates": [ 140.401954849548247, 38.608276664082716 ] } },
{ "type": "Feature", "properties": { "P29_001": "06212", "P29_002": "B106221220032", "P29_003": "16001", "P29_004": "尾花沢市立宮沢小学校", "P29_005": "山形県尾花沢市大字丹生1933", "P29_006": "3", "P29_007": "1", "P29_008": "00", "P29_009": null }, "geometry": { "type": "Point", "coordinates": [ 140.468799689977601, 38.624600308203647 ] } },
{ "type": "Feature", "properties": { "P29_001": "06212", "P29_002": "B106221220041", "P29_003": "16001", "P29_004": "尾花沢市立玉野小学校", "P29_005": "山形県尾花沢市大字鶴巻田580", "P29_006": "3", "P29_007": "1", "P29_008": "00", "P29_009": null }, "geometry": { "type": "Point", "coordinates": [ 140.480073526607924, 38.602896069207482 ] } },
{ "type": "Feature", "properties": { "P29_001": "06212", "P29_002": "B106221220050", "P29_003": "16001", "P29_004": "尾花沢市立常盤小学校", "P29_005": "山形県尾花沢市延沢783", "P29_006": "3", "P29_007": "1", "P29_008": "00", "P29_009": null }, "geometry": { "type": "Point", "coordinates": [ 140.464366234192056, 38.56651072324177 ] } },
{ "type": "Feature", "properties": { "P29_001": "06213", "P29_002": "B106221320013", "P29_003": "16001", "P29_004": "南陽市立沖郷小学校", "P29_005": "山形県南陽市高梨460", "P29_006": "3", "P29_007": "1", "P29_008": "00", "P29_009": null }, "geometry": { "type": "Point", "coordinates": [ 140.138576064661606, 38.040133175001252 ] } },
{ "type": "Feature", "properties": { "P29_001": "06213", "P29_002": "B106221320022", "P29_003": "16001", "P29_004": "南陽市立梨郷小学校", "P29_005": "山形県南陽市竹原139", "P29_006": "3", "P29_007": "1", "P29_008": "00", "P29_009": null }, "geometry": { "type": "Point", "coordinates": [ 140.100885149704197, 38.056832907251632 ] } },
{ "type": "Feature", "properties": { "P29_001": "06213", "P29_002": "B106221320031", "P29_003": "16001", "P29_004": "南陽市立赤湯小学校", "P29_005": "山形県南陽市長岡994", "P29_006": "3", "P29_007": "1", "P29_008": "00", "P29_009": null }, "geometry": { "type": "Point", "coordinates": [ 140.158855371713599, 38.041696346758762 ] } },
{ "type": "Feature", "properties": { "P29_001": "06213", "P29_002": "B106221320040", "P29_003": "16001", "P29_004": "南陽市立中川小学校", "P29_005": "山形県南陽市川樋25", "P29_006": "3", "P29_007": "1", "P29_008": "00", "P29_009": null }, "geometry": { "type": "Point", "coordinates": [ 140.198951621844714, 38.095039104629947 ] } },
{ "type": "Feature", "properties": { "P29_001": "06213", "P29_002": "B106221320059", "P29_003": "16001", "P29_004": "南陽市立荻小学校", "P29_005": "山形県南陽市荻1033", "P29_006": "3", "P29_007": "1", "P29_008": "00", "P29_009": null }, "geometry": { "type": "Point", "coordinates": [ 140.167417635735632, 38.146542251993296 ] } },
{ "type": "Feature", "properties": { "P29_001": "06213", "P29_002": "B106221320068", "P29_003": "16001", "P29_004": "南陽市立宮内小学校", "P29_005": "山形県南陽市宮内3415", "P29_006": "3", "P29_007": "1", "P29_008": "00", "P29_009": null }, "geometry": { "type": "Point", "coordinates": [ 140.136783455372125, 38.077144151369332 ] } },
{ "type": "Feature", "properties": { "P29_001": "06213", "P29_002": "B106221320077", "P29_003": "16001", "P29_004": "南陽市立漆山小学校", "P29_005": "山形県南陽市漆山1731", "P29_006": "3", "P29_007": "1", "P29_008": "00", "P29_009": null }, "geometry": { "type": "Point", "coordinates": [ 140.117186103700533, 38.068061116603459 ] } },
{ "type": "Feature", "properties": { "P29_001": "06301", "P29_002": "B106230120016", "P29_003": "16001", "P29_004": "山辺町立山辺小学校", "P29_005": "山形県東村山郡山辺町山辺55", "P29_006": "3", "P29_007": "1", "P29_008": "00", "P29_009": null }, "geometry": { "type": "Point", "coordinates": [ 140.265592457612684, 38.297611118580036 ] } },
{ "type": "Feature", "properties": { "P29_001": "06301", "P29_002": "B106230120025", "P29_003": "16001", "P29_004": "山辺町立相模小学校", "P29_005": "山形県東村山郡山辺町根際2283", "P29_006": "3", "P29_007": "1", "P29_008": "00", "P29_009": null }, "geometry": { "type": "Point", "coordinates": [ 140.252745924334732, 38.280380080242203 ] } },
{ "type": "Feature", "properties": { "P29_001": "06302", "P29_002": "B106230220015", "P29_003": "16001", "P29_004": "中山町立長崎小学校", "P29_005": "山形県東村山郡中山町長崎1092", "P29_006": "3", "P29_007": "1", "P29_008": "00", "P29_009": null }, "geometry": { "type": "Point", "coordinates": [ 140.284920070804759, 38.33298221927911 ] } },
{ "type": "Feature", "properties": { "P29_001": "06302", "P29_002": "B106230220024", "P29_003": "16001", "P29_004": "中山町立豊田小学校", "P29_005": "山形県東村山郡中山町大字土橋645", "P29_006": "3", "P29_007": "1", "P29_008": "00", "P29_009": null }, "geometry": { "type": "Point", "coordinates": [ 140.254394548464205, 38.331558371102354 ] } },
{ "type": "Feature", "properties": { "P29_001": "06321", "P29_002": "B106232120012", "P29_003": "16001", "P29_004": "河北町立西里小学校", "P29_005": "山形県西村山郡河北町西里562", "P29_006": "3", "P29_007": "1", "P29_008": "00", "P29_009": null }, "geometry": { "type": "Point", "coordinates": [ 140.285183157288571, 38.414801555013788 ] } },
{ "type": "Feature", "properties": { "P29_001": "06321", "P29_002": "B106232120021", "P29_003": "16001", "P29_004": "河北町立溝延小学校", "P29_005": "山形県西村山郡河北町大字溝延字小堤312-1", "P29_006": "3", "P29_007": "1", "P29_008": "00", "P29_009": null }, "geometry": { "type": "Point", "coordinates": [ 140.316709584905141, 38.396493111207583 ] } },
{ "type": "Feature", "properties": { "P29_001": "06321", "P29_002": "B106232120030", "P29_003": "16001", "P29_004": "河北町立谷地中部小学校", "P29_005": "山形県西村山郡河北町谷地字所岡73", "P29_006": "3", "P29_007": "1", "P29_008": "00", "P29_009": null }, "geometry": { "type": "Point", "coordinates": [ 140.310676091034196, 38.428598267681281 ] } },
{ "type": "Feature", "properties": { "P29_001": "06321", "P29_002": "B106232120049", "P29_003": "16001", "P29_004": "河北町立谷地南部小学校", "P29_005": "山形県西村山郡河北町谷地荒町東1-7-1", "P29_006": "3", "P29_007": "1", "P29_008": "00", "P29_009": null }, "geometry": { "type": "Point", "coordinates": [ 140.31836320304842, 38.421629461025027 ] } },
{ "type": "Feature", "properties": { "P29_001": "06321", "P29_002": "B106232120058", "P29_003": "16001", "P29_004": "河北町立谷地西部小学校", "P29_005": "山形県西村山郡河北町谷地字布田55", "P29_006": "3", "P29_007": "1", "P29_008": "00", "P29_009": null }, "geometry": { "type": "Point", "coordinates": [ 140.301588906944744, 38.438092492468044 ] } },
{ "type": "Feature", "properties": { "P29_001": "06321", "P29_002": "B106232120067", "P29_003": "16001", "P29_004": "河北町立北谷地小学校", "P29_005": "山形県西村山郡河北町大字吉田367", "P29_006": "3", "P29_007": "1", "P29_008": "00", "P29_009": null }, "geometry": { "type": "Point", "coordinates": [ 140.315527176485858, 38.444685346955659 ] } },
{ "type": "Feature", "properties": { "P29_001": "06322", "P29_002": "B106232220011", "P29_003": "16001", "P29_004": "西川町立西川小学校", "P29_005": "山形県西村山郡西川町大字海味1234", "P29_006": "3", "P29_007": "1", "P29_008": "00", "P29_009": null }, "geometry": { "type": "Point", "coordinates": [ 140.142970998885716, 38.426238755365738 ] } },
{ "type": "Feature", "properties": { "P29_001": "06323", "P29_002": "B106232320010", "P29_003": "16001", "P29_004": "朝日町立西五百川小学校", "P29_005": "山形県西村山郡朝日町大字常盤い181-1", "P29_006": "3", "P29_007": "1", "P29_008": "00", "P29_009": null }, "geometry": { "type": "Point", "coordinates": [ 140.122869801090729, 38.293697486350005 ] } },
{ "type": "Feature", "properties": { "P29_001": "06323", "P29_002": "B106232320029", "P29_003": "16001", "P29_004": "朝日町立宮宿小学校", "P29_005": "山形県西村山郡朝日町大字宮宿1021", "P29_006": "3", "P29_007": "1", "P29_008": "00", "P29_009": null }, "geometry": { "type": "Point", "coordinates": [ 140.152531231543747, 38.300930469864277 ] } },
{ "type": "Feature", "properties": { "P29_001": "06323", "P29_002": "B106232320038", "P29_003": "16001", "P29_004": "朝日町立大谷小学校", "P29_005": "山形県西村山郡朝日町大字大谷1147", "P29_006": "3", "P29_007": "1", "P29_008": "00", "P29_009": null }, "geometry": { "type": "Point", "coordinates": [ 140.172236784980015, 38.343239031708471 ] } },
{ "type": "Feature", "properties": { "P29_001": "06324", "P29_002": "B106232420019", "P29_003": "16001", "P29_004": "大江町立左沢小学校", "P29_005": "山形県西村山郡大江町大字左沢816-2", "P29_006": "3", "P29_007": "1", "P29_008": "00", "P29_009": null }, "geometry": { "type": "Point", "coordinates": [ 140.205101053011703, 38.38212393935401 ] } },
{ "type": "Feature", "properties": { "P29_001": "06324", "P29_002": "B106232420028", "P29_003": "16001", "P29_004": "大江町立本郷東小学校", "P29_005": "山形県西村山郡大江町本郷丙275-2", "P29_006": "3", "P29_007": "1", "P29_008": "00", "P29_009": null }, "geometry": { "type": "Point", "coordinates": [ 140.183300592053456, 38.374338053260971 ] } },
{ "type": "Feature", "properties": { "P29_001": "06324", "P29_002": "B106232420037", "P29_003": "16001", "P29_004": "大江町立左沢小学校藤田の丘分校", "P29_005": "山形県西村山郡大江町藤田837-4", "P29_006": "3", "P29_007": "1", "P29_008": "00", "P29_009": null }, "geometry": { "type": "Point", "coordinates": [ 140.206709717368426, 38.363417623083649 ] } },
{ "type": "Feature", "properties": { "P29_001": "06341", "P29_002": "B106234120018", "P29_003": "16001", "P29_004": "大石田町立大石田小学校", "P29_005": "山形県北村山郡大石田町大石田乙105-1", "P29_006": "3", "P29_007": "1", "P29_008": "00", "P29_009": null }, "geometry": { "type": "Point", "coordinates": [ 140.370265700141857, 38.590993677436771 ] } },
{ "type": "Feature", "properties": { "P29_001": "06341", "P29_002": "B106234120027", "P29_003": "16001", "P29_004": "大石田町立大石田南小学校", "P29_005": "山形県北村山郡大石田町大字田沢1544-3", "P29_006": "3", "P29_007": "1", "P29_008": "00", "P29_009": null }, "geometry": { "type": "Point", "coordinates": [ 140.370883432973642, 38.559791274504107 ] } },
{ "type": "Feature", "properties": { "P29_001": "06341", "P29_002": "B106234120036", "P29_003": "16001", "P29_004": "大石田町立大石田北小学校", "P29_005": "山形県北村山郡大石田町大字岩ヶ袋338-5", "P29_006": "3", "P29_007": "1", "P29_008": "00", "P29_009": null }, "geometry": { "type": "Point", "coordinates": [ 140.367510375050358, 38.61178562752211 ] } },
{ "type": "Feature", "properties": { "P29_001": "06361", "P29_002": "B106236120013", "P29_003": "16001", "P29_004": "金山町立金山小学校", "P29_005": "山形県最上郡金山町金山108-2", "P29_006": "3", "P29_007": "1", "P29_008": "00", "P29_009": null }, "geometry": { "type": "Point", "coordinates": [ 140.34196688713044, 38.88352099300397 ] } },
{ "type": "Feature", "properties": { "P29_001": "06362", "P29_002": "B106236220012", "P29_003": "16001", "P29_004": "最上町立大堀小学校", "P29_005": "山形県最上郡最上町志茂127", "P29_006": "3", "P29_007": "1", "P29_008": "00", "P29_009": null }, "geometry": { "type": "Point", "coordinates": [ 140.476381817089305, 38.767547427581448 ] } },
{ "type": "Feature", "properties": { "P29_001": "06362", "P29_002": "B106236220021", "P29_003": "16001", "P29_004": "最上町立向町小学校", "P29_005": "山形県最上郡最上町大字向町869-1", "P29_006": "3", "P29_007": "1", "P29_008": "00", "P29_009": null }, "geometry": { "type": "Point", "coordinates": [ 140.525483430256173, 38.761626877241085 ] } },
{ "type": "Feature", "properties": { "P29_001": "06363", "P29_002": "B106236320011", "P29_003": "16001", "P29_004": "舟形町立舟形小学校", "P29_005": "山形県最上郡舟形町舟形4560", "P29_006": "3", "P29_007": "1", "P29_008": "00", "P29_009": null }, "geometry": { "type": "Point", "coordinates": [ 140.329639940453319, 38.694389875284664 ] } },
{ "type": "Feature", "properties": { "P29_001": "06364", "P29_002": "B106236420010", "P29_003": "16001", "P29_004": "真室川町立真室川小学校", "P29_005": "山形県最上郡真室川町川の内2104-2", "P29_006": "3", "P29_007": "1", "P29_008": "00", "P29_009": null }, "geometry": { "type": "Point", "coordinates": [ 140.256412723125777, 38.864026698177639 ] } },
{ "type": "Feature", "properties": { "P29_001": "06364", "P29_002": "B106236420029", "P29_003": "16001", "P29_004": "真室川町立真室川あさひ小学校", "P29_005": "山形県最上郡真室川町大字大沢1386-2", "P29_006": "3", "P29_007": "1", "P29_008": "00", "P29_009": null }, "geometry": { "type": "Point", "coordinates": [ 140.217947913606764, 38.88564917320177 ] } },
{ "type": "Feature", "properties": { "P29_001": "06364", "P29_002": "B106236420038", "P29_003": "16001", "P29_004": "真室川町立真室川北部小学校", "P29_005": "山形県最上郡真室川町釜渕817-37", "P29_006": "3", "P29_007": "1", "P29_008": "00", "P29_009": null }, "geometry": { "type": "Point", "coordinates": [ 140.268610782941607, 38.937844741410913 ] } },
{ "type": "Feature", "properties": { "P29_001": "06365", "P29_002": "B106236520019", "P29_003": "16001", "P29_004": "大蔵村立大蔵小学校", "P29_005": "山形県最上郡大蔵村清水2688", "P29_006": "3", "P29_007": "1", "P29_008": "00", "P29_009": null }, "geometry": { "type": "Point", "coordinates": [ 140.23162653592604, 38.707408393372326 ] } },
{ "type": "Feature", "properties": { "P29_001": "06366", "P29_002": "B106236620018", "P29_003": "16001", "P29_004": "鮭川村立鮭川小学校", "P29_005": "山形県最上郡鮭川村大字佐渡2000-2", "P29_006": "3", "P29_007": "1", "P29_008": "00", "P29_009": null }, "geometry": { "type": "Point", "coordinates": [ 140.218114608208055, 38.79442775407454 ] } },
{ "type": "Feature", "properties": { "P29_001": "06381", "P29_002": "B106238120019", "P29_003": "16001", "P29_004": "高畠町立高畠小学校", "P29_005": "山形県東置賜郡高畠町高畠3547", "P29_006": "3", "P29_007": "1", "P29_008": "00", "P29_009": null }, "geometry": { "type": "Point", "coordinates": [ 140.20076396574845, 38.001214669156155 ] } },
{ "type": "Feature", "properties": { "P29_001": "06381", "P29_002": "B106238120028", "P29_003": "16001", "P29_004": "高畠町立二井宿小学校", "P29_005": "山形県東置賜郡高畠町二井宿2750", "P29_006": "3", "P29_007": "1", "P29_008": "00", "P29_009": null }, "geometry": { "type": "Point", "coordinates": [ 140.257742998699939, 38.019365998283597 ] } },
{ "type": "Feature", "properties": { "P29_001": "06381", "P29_002": "B106238120037", "P29_003": "16001", "P29_004": "高畠町立屋代小学校", "P29_005": "山形県東置賜郡高畠町大字深沼30", "P29_006": "3", "P29_007": "1", "P29_008": "00", "P29_009": null }, "geometry": { "type": "Point", "coordinates": [ 140.173776339089244, 38.012584878003395 ] } },
{ "type": "Feature", "properties": { "P29_001": "06381", "P29_002": "B106238120046", "P29_003": "16001", "P29_004": "高畠町立亀岡小学校", "P29_005": "山形県東置賜郡高畠町亀岡2916", "P29_006": "3", "P29_007": "1", "P29_008": "00", "P29_009": null }, "geometry": { "type": "Point", "coordinates": [ 140.173712927122097, 37.97791275246361 ] } },
{ "type": "Feature", "properties": { "P29_001": "06381", "P29_002": "B106238120055", "P29_003": "16001", "P29_004": "高畠町立和田小学校", "P29_005": "山形県東置賜郡高畠町元和田1306", "P29_006": "3", "P29_007": "1", "P29_008": "00", "P29_009": null }, "geometry": { "type": "Point", "coordinates": [ 140.192820945266874, 37.957680443734212 ] } },
{ "type": "Feature", "properties": { "P29_001": "06381", "P29_002": "B106238120064", "P29_003": "16001", "P29_004": "高畠町立糠野目小学校", "P29_005": "山形県東置賜郡高畠町上平柳2070", "P29_006": "3", "P29_007": "1", "P29_008": "00", "P29_009": null }, "geometry": { "type": "Point", "coordinates": [ 140.143268717368812, 37.99252637880744 ] } },
{ "type": "Feature", "properties": { "P29_001": "06382", "P29_002": "B106238220018", "P29_003": "16001", "P29_004": "川西町立大塚小学校", "P29_005": "山形県東置賜郡川西町大字大塚3030", "P29_006": "3", "P29_007": "1", "P29_008": "00", "P29_009": null }, "geometry": { "type": "Point", "coordinates": [ 140.068146474851716, 38.043840119716322 ] } },
{ "type": "Feature", "properties": { "P29_001": "06382", "P29_002": "B106238220027", "P29_003": "16001", "P29_004": "川西町立犬川小学校", "P29_005": "山形県東置賜郡川西町大字小松823", "P29_006": "3", "P29_007": "1", "P29_008": "00", "P29_009": null }, "geometry": { "type": "Point", "coordinates": [ 140.061764920392477, 38.023588545390268 ] } },
{ "type": "Feature", "properties": { "P29_001": "06382", "P29_002": "B106238220036", "P29_003": "16001", "P29_004": "川西町立小松小学校", "P29_005": "山形県東置賜郡川西町大字上小松1486", "P29_006": "3", "P29_007": "1", "P29_008": "00", "P29_009": null }, "geometry": { "type": "Point", "coordinates": [ 140.046948352594285, 38.00573041259846 ] } },
{ "type": "Feature", "properties": { "P29_001": "06382", "P29_002": "B106238220045", "P29_003": "16001", "P29_004": "川西町立中郡小学校", "P29_005": "山形県東置賜郡川西町大字莅239", "P29_006": "3", "P29_007": "1", "P29_008": "00", "P29_009": null }, "geometry": { "type": "Point", "coordinates": [ 140.073225228771804, 37.991360516746077 ] } },
{ "type": "Feature", "properties": { "P29_001": "06382", "P29_002": "B106238220054", "P29_003": "16001", "P29_004": "川西町立吉島小学校", "P29_005": "山形県東置賜郡川西町大字洲島2381", "P29_006": "3", "P29_007": "1", "P29_008": "00", "P29_009": null }, "geometry": { "type": "Point", "coordinates": [ 140.108970495845625, 38.01062820493032 ] } },
{ "type": "Feature", "properties": { "P29_001": "06382", "P29_002": "B106238220063", "P29_003": "16001", "P29_004": "川西町立玉庭小学校", "P29_005": "山形県東置賜郡川西町大字玉庭5255", "P29_006": "3", "P29_007": "1", "P29_008": "00", "P29_009": null }, "geometry": { "type": "Point", "coordinates": [ 139.981146808783819, 37.944315383040063 ] } },
{ "type": "Feature", "properties": { "P29_001": "06401", "P29_002": "B106240120015", "P29_003": "16001", "P29_004": "小国町立叶水小学校", "P29_005": "山形県西置賜郡小国町叶水301", "P29_006": "3", "P29_007": "1", "P29_008": "00", "P29_009": null }, "geometry": { "type": "Point", "coordinates": [ 139.801787737743496, 37.989142058411964 ] } },
{ "type": "Feature", "properties": { "P29_001": "06401", "P29_002": "B106240120024", "P29_003": "16001", "P29_004": "小国町立小国小学校", "P29_005": "山形県西置賜郡小国町大字岩井沢673", "P29_006": "3", "P29_007": "1", "P29_008": "00", "P29_009": null }, "geometry": { "type": "Point", "coordinates": [ 139.748179195518986, 38.054839843233637 ] } },
{ "type": "Feature", "properties": { "P29_001": "06402", "P29_002": "B106240220014", "P29_003": "16001", "P29_004": "白鷹町立蚕桑小学校", "P29_005": "山形県西置賜郡白鷹町横田尻3584-1", "P29_006": "3", "P29_007": "1", "P29_008": "00", "P29_009": null }, "geometry": { "type": "Point", "coordinates": [ 140.052149528917624, 38.179074825322886 ] } },
{ "type": "Feature", "properties": { "P29_001": "06402", "P29_002": "B106240220023", "P29_003": "16001", "P29_004": "白鷹町立鮎貝小学校", "P29_005": "山形県西置賜郡白鷹町鮎貝5215", "P29_006": "3", "P29_007": "1", "P29_008": "00", "P29_009": null }, "geometry": { "type": "Point", "coordinates": [ 140.078122743953543, 38.199203041948351 ] } },
{ "type": "Feature", "properties": { "P29_001": "06402", "P29_002": "B106240220032", "P29_003": "16001", "P29_004": "白鷹町立荒砥小学校", "P29_005": "山形県西置賜郡白鷹町荒砥乙540-1", "P29_006": "3", "P29_007": "1", "P29_008": "00", "P29_009": null }, "geometry": { "type": "Point", "coordinates": [ 140.106330860583029, 38.182075631044519 ] } },
{ "type": "Feature", "properties": { "P29_001": "06402", "P29_002": "B106240220041", "P29_003": "16001", "P29_004": "白鷹町立東根小学校", "P29_005": "山形県西置賜郡白鷹町大字畔藤5031", "P29_006": "3", "P29_007": "1", "P29_008": "00", "P29_009": null }, "geometry": { "type": "Point", "coordinates": [ 140.084618048115345, 38.16437860852669 ] } },
{ "type": "Feature", "properties": { "P29_001": "06403", "P29_002": "B106240320013", "P29_003": "16001", "P29_004": "飯豊町立第一小学校", "P29_005": "山形県西置賜郡飯豊町大字萩生677", "P29_006": "3", "P29_007": "1", "P29_008": "00", "P29_009": null }, "geometry": { "type": "Point", "coordinates": [ 139.997349620391361, 38.06522520452679 ] } },
{ "type": "Feature", "properties": { "P29_001": "06403", "P29_002": "B106240320022", "P29_003": "16001", "P29_004": "飯豊町立第二小学校", "P29_005": "山形県西置賜郡飯豊町小白川3360", "P29_006": "3", "P29_007": "1", "P29_008": "00", "P29_009": null }, "geometry": { "type": "Point", "coordinates": [ 139.986492102474728, 38.036827588585702 ] } },
{ "type": "Feature", "properties": { "P29_001": "06403", "P29_002": "B106240320031", "P29_003": "16001", "P29_004": "飯豊町立手ノ子小学校", "P29_005": "山形県西置賜郡飯豊町大字手ノ子1694", "P29_006": "3", "P29_007": "1", "P29_008": "00", "P29_009": null }, "geometry": { "type": "Point", "coordinates": [ 139.959269777619397, 38.006551728912264 ] } },
{ "type": "Feature", "properties": { "P29_001": "06403", "P29_002": "B106240320040", "P29_003": "16001", "P29_004": "飯豊町立添川小学校", "P29_005": "山形県西置賜郡飯豊町大字添川2934-1", "P29_006": "3", "P29_007": "1", "P29_008": "00", "P29_009": null }, "geometry": { "type": "Point", "coordinates": [ 140.014337988236463, 38.037031203075642 ] } },
{ "type": "Feature", "properties": { "P29_001": "06426", "P29_002": "B106242620016", "P29_003": "16001", "P29_004": "三川町立横山小学校", "P29_005": "山形県東田川郡三川町大字横山字大正140", "P29_006": "3", "P29_007": "1", "P29_008": "00", "P29_009": null }, "geometry": { "type": "Point", "coordinates": [ 139.852932589293232, 38.777092841321249 ] } },
{ "type": "Feature", "properties": { "P29_001": "06426", "P29_002": "B106242620025", "P29_003": "16001", "P29_004": "三川町立東郷小学校", "P29_005": "山形県東田川郡三川町大字神花字六瀬297-1", "P29_006": "3", "P29_007": "1", "P29_008": "00", "P29_009": null }, "geometry": { "type": "Point", "coordinates": [ 139.842308267204743, 38.803604706591948 ] } },
{ "type": "Feature", "properties": { "P29_001": "06426", "P29_002": "B106242620034", "P29_003": "16001", "P29_004": "三川町立押切小学校", "P29_005": "山形県東田川郡三川町大字押切新田字高前1", "P29_006": "3", "P29_007": "1", "P29_008": "00", "P29_009": null }, "geometry": { "type": "Point", "coordinates": [ 139.855182101405717, 38.806055997128908 ] } },
{ "type": "Feature", "properties": { "P29_001": "06428", "P29_002": "B106242820014", "P29_003": "16001", "P29_004": "庄内町立立川小学校", "P29_005": "山形県東田川郡庄内町大字狩川字松葉5-1", "P29_006": "3", "P29_007": "1", "P29_008": "00", "P29_009": null }, "geometry": { "type": "Point", "coordinates": [ 139.9649928013053, 38.788125039947232 ] } },
{ "type": "Feature", "properties": { "P29_001": "06428", "P29_002": "B106242820023", "P29_003": "16001", "P29_004": "庄内町立余目第一小学校", "P29_005": "山形県東田川郡庄内町余目字南田105-1", "P29_006": "3", "P29_007": "1", "P29_008": "00", "P29_009": null }, "geometry": { "type": "Point", "coordinates": [ 139.884700831325802, 38.841887289363612 ] } },
{ "type": "Feature", "properties": { "P29_001": "06428", "P29_002": "B106242820032", "P29_003": "16001", "P29_004": "庄内町立余目第二小学校", "P29_005": "山形県東田川郡庄内町払田字村東68", "P29_006": "3", "P29_007": "1", "P29_008": "00", "P29_009": null }, "geometry": { "type": "Point", "coordinates": [ 139.908816049444113, 38.838472997866248 ] } },
{ "type": "Feature", "properties": { "P29_001": "06428", "P29_002": "B106242820041", "P29_003": "16001", "P29_004": "庄内町立余目第三小学校", "P29_005": "山形県東田川郡庄内町廿六木字三百地6-1", "P29_006": "3", "P29_007": "1", "P29_008": "00", "P29_009": null }, "geometry": { "type": "Point", "coordinates": [ 139.913296796058432, 38.854433840272357 ] } },
{ "type": "Feature", "properties": { "P29_001": "06428", "P29_002": "B106242820050", "P29_003": "16001", "P29_004": "庄内町立余目第四小学校", "P29_005": "山形県東田川郡庄内町主殿新田字赤渕21-1", "P29_006": "3", "P29_007": "1", "P29_008": "00", "P29_009": null }, "geometry": { "type": "Point", "coordinates": [ 139.938050084768662, 38.810388691027974 ] } },
{ "type": "Feature", "properties": { "P29_001": "06461", "P29_002": "B106246120067", "P29_003": "16001", "P29_004": "遊佐町立遊佐小学校", "P29_005": "山形県飽海郡遊佐町吉出字和田13", "P29_006": "3", "P29_007": "1", "P29_008": "00", "P29_009": null }, "geometry": { "type": "Point", "coordinates": [ 139.910221074791991, 39.022224961769567 ] } }
]
}
