{
"type": "FeatureCollection",
"name": "geo_06_特定施設入居者生活介護（有料老人ホーム）",
"crs": { "type": "name", "properties": { "name": "urn:ogc:def:crs:OGC:1.3:CRS84" } },
"features": [
{ "type": "Feature", "properties": { "内容": "スマイルコート清住【特定施設入居者生活介護（有料老人ホーム）】山形市清住町二丁目3-70", "url2": "https://www.kaigokensaku.mhlw.go.jp/06/index.php?action_kouhyou_detail_004_kani=true&JigyosyoCd=0670103407-00&ServiceCd=331&Type=search" }, "geometry": { "type": "Point", "coordinates": [ 140.3123766, 38.2561272 ] } },
{ "type": "Feature", "properties": { "内容": "ニチイケアセンター山形三日町【特定施設入居者生活介護（有料老人ホーム）】山形市三日町１－３－４８", "url2": "https://www.kaigokensaku.mhlw.go.jp/06/index.php?action_kouhyou_detail_004_kani=true&JigyosyoCd=0670103266-00&ServiceCd=331&Type=search" }, "geometry": { "type": "Point", "coordinates": [ 140.338157799999976, 38.2407737 ] } },
{ "type": "Feature", "properties": { "内容": "ニチイケアセンター山形桧町【特定施設入居者生活介護（有料老人ホーム）】山形市桧町４－３－４５", "url2": "https://www.kaigokensaku.mhlw.go.jp/06/index.php?action_kouhyou_detail_004_kani=true&JigyosyoCd=0670102979-00&ServiceCd=331&Type=search" }, "geometry": { "type": "Point", "coordinates": [ 140.3256414, 38.2747034 ] } },
{ "type": "Feature", "properties": { "内容": "介護付有料老人ホームときめき七日町【特定施設入居者生活介護（有料老人ホーム）】山形県山形市七日町三丁目3番27号", "url2": "https://www.kaigokensaku.mhlw.go.jp/06/index.php?action_kouhyou_detail_004_kani=true&JigyosyoCd=0670103654-00&ServiceCd=331&Type=search" }, "geometry": { "type": "Point", "coordinates": [ 140.342192966934107, 38.254307853432557 ] } },
{ "type": "Feature", "properties": { "内容": "介護福祉施設　燦燦【特定施設入居者生活介護（有料老人ホーム）】山形県山形市大字十文字字大原848番1", "url2": "https://www.kaigokensaku.mhlw.go.jp/06/index.php?action_kouhyou_detail_004_kani=true&JigyosyoCd=0670102235-00&ServiceCd=331&Type=search" }, "geometry": { "type": "Point", "coordinates": [ 140.377667777384886, 38.309992637155162 ] } },
{ "type": "Feature", "properties": { "内容": "ベル宮町【特定施設入居者生活介護（有料老人ホーム）】山形市宮町1-7-18ベル宮町", "url2": "https://www.kaigokensaku.mhlw.go.jp/06/index.php?action_kouhyou_detail_004_kani=true&JigyosyoCd=0670102318-00&ServiceCd=331&Type=search" }, "geometry": { "type": "Point", "coordinates": [ 140.334040800000025, 38.2643517 ] } },
{ "type": "Feature", "properties": { "内容": "ベル北町【特定施設入居者生活介護（有料老人ホーム）】山形市北町４－１１－１３", "url2": "https://www.kaigokensaku.mhlw.go.jp/06/index.php?action_kouhyou_detail_004_kani=true&JigyosyoCd=0670103175-00&ServiceCd=331&Type=search" }, "geometry": { "type": "Point", "coordinates": [ 140.332729699999959, 38.2731592 ] } },
{ "type": "Feature", "properties": { "内容": "介護付き有料老人ホームこころ【特定施設入居者生活介護（有料老人ホーム）】山形県山形市桜田南2-24", "url2": "https://www.kaigokensaku.mhlw.go.jp/06/index.php?action_kouhyou_detail_004_kani=true&JigyosyoCd=0670104926-00&ServiceCd=331&Type=search" }, "geometry": { "type": "Point", "coordinates": [ 140.3123707, 38.2151491 ] } },
{ "type": "Feature", "properties": { "内容": "ソーレ吉原【特定施設入居者生活介護（有料老人ホーム）】山形市若宮二丁目8-3", "url2": "https://www.kaigokensaku.mhlw.go.jp/06/index.php?action_kouhyou_detail_004_kani=true&JigyosyoCd=0670101781-00&ServiceCd=331&Type=search" }, "geometry": { "type": "Point", "coordinates": [ 140.311072200000012, 38.2239633 ] } },
{ "type": "Feature", "properties": { "内容": "ソーレ前田【特定施設入居者生活介護（有料老人ホーム）】山形県山形市前田町１４－５", "url2": "https://www.kaigokensaku.mhlw.go.jp/06/index.php?action_kouhyou_detail_004_kani=true&JigyosyoCd=0670101187-00&ServiceCd=331&Type=search" }, "geometry": { "type": "Point", "coordinates": [ 140.35111219999996, 38.238865900000015 ] } },
{ "type": "Feature", "properties": { "内容": "ソーレ中桜田【特定施設入居者生活介護（有料老人ホーム）】山形市中桜田２－１２－７", "url2": "https://www.kaigokensaku.mhlw.go.jp/06/index.php?action_kouhyou_detail_004_kani=true&JigyosyoCd=0670101708-00&ServiceCd=331&Type=search" }, "geometry": { "type": "Point", "coordinates": [ 140.333720200000016, 38.2180673 ] } },
{ "type": "Feature", "properties": { "内容": "介護付有料老人ホーム　フォーリーフ嶋【特定施設入居者生活介護（有料老人ホーム）】山形県山形市嶋北一丁目16番35号", "url2": "https://www.kaigokensaku.mhlw.go.jp/06/index.php?action_kouhyou_detail_004_kani=true&JigyosyoCd=0670103233-00&ServiceCd=331&Type=search" }, "geometry": { "type": "Point", "coordinates": [ 140.324277599999959, 38.288124 ] } },
{ "type": "Feature", "properties": { "内容": "介護付有料老人ホーム　せなみ米喜家【特定施設入居者生活介護（有料老人ホーム）】山形市瀬波１－１１－１１", "url2": "https://www.kaigokensaku.mhlw.go.jp/06/index.php?action_kouhyou_detail_004_kani=true&JigyosyoCd=0670103415-00&ServiceCd=331&Type=search" }, "geometry": { "type": "Point", "coordinates": [ 140.308233550926161, 38.281068468416045 ] } },
{ "type": "Feature", "properties": { "内容": "介護付有料老人ホームさわやかサンメイトきらら【特定施設入居者生活介護（有料老人ホーム）】山形県米沢市徳町4番26号", "url2": "https://www.kaigokensaku.mhlw.go.jp/06/index.php?action_kouhyou_detail_004_kani=true&JigyosyoCd=0670402205-00&ServiceCd=331&Type=search" }, "geometry": { "type": "Point", "coordinates": [ 140.101940500000012, 37.9225517 ] } },
{ "type": "Feature", "properties": { "内容": "介護付有料老人ホーム　やすらぎ苑【特定施設入居者生活介護（有料老人ホーム）】米沢市成島町３丁目２番１２７－１２号", "url2": "https://www.kaigokensaku.mhlw.go.jp/06/index.php?action_kouhyou_detail_004_kani=true&JigyosyoCd=0670401108-00&ServiceCd=331&Type=search" }, "geometry": { "type": "Point", "coordinates": [ 140.093958599999951, 37.921783900000015 ] } },
{ "type": "Feature", "properties": { "内容": "シニアタウン山王フジックス【特定施設入居者生活介護（有料老人ホーム）】山形県鶴岡市山王町14-23", "url2": "https://www.kaigokensaku.mhlw.go.jp/06/index.php?action_kouhyou_detail_004_kani=true&JigyosyoCd=0670702109-00&ServiceCd=331&Type=search" }, "geometry": { "type": "Point", "coordinates": [ 139.8359747, 38.7297841 ] } },
{ "type": "Feature", "properties": { "内容": "アメニティハウスひまわり【特定施設入居者生活介護（有料老人ホーム）】山形県鶴岡市稲生１丁目３番地５号", "url2": "https://www.kaigokensaku.mhlw.go.jp/06/index.php?action_kouhyou_detail_004_kani=true&JigyosyoCd=0670700947-00&ServiceCd=331&Type=search" }, "geometry": { "type": "Point", "coordinates": [ 139.81246550000003, 38.7206169 ] } },
{ "type": "Feature", "properties": { "内容": "スマイル・ガーデンふきのとう【特定施設入居者生活介護（有料老人ホーム）】新庄市鳥越字駒場4519-1", "url2": "https://www.kaigokensaku.mhlw.go.jp/06/index.php?action_kouhyou_detail_004_kani=true&JigyosyoCd=0671100741-00&ServiceCd=331&Type=search" }, "geometry": { "type": "Point", "coordinates": [ 140.311380900000017, 38.7382994 ] } },
{ "type": "Feature", "properties": { "内容": "ソーレ寒河江【特定施設入居者生活介護（有料老人ホーム）】寒河江市大字寒河江字月越１番地の２", "url2": "https://www.kaigokensaku.mhlw.go.jp/06/index.php?action_kouhyou_detail_004_kani=true&JigyosyoCd=0671200228-00&ServiceCd=331&Type=search" }, "geometry": { "type": "Point", "coordinates": [ 140.277644799999962, 38.3653154 ] } },
{ "type": "Feature", "properties": { "内容": "有料老人ホーム　リライフ美咲【特定施設入居者生活介護（有料老人ホーム）】山形県上山市美咲町一丁目３番２５号", "url2": "https://www.kaigokensaku.mhlw.go.jp/06/index.php?action_kouhyou_detail_004_kani=true&JigyosyoCd=0671300341-00&ServiceCd=331&Type=search" }, "geometry": { "type": "Point", "coordinates": [ 140.279884, 38.1510289 ] } },
{ "type": "Feature", "properties": { "内容": "介護付有料老人ホームほほえみ【特定施設入居者生活介護（有料老人ホーム）】山形県長井市寺泉3081-1", "url2": "https://www.kaigokensaku.mhlw.go.jp/06/index.php?action_kouhyou_detail_004_kani=true&JigyosyoCd=0671500338-00&ServiceCd=331&Type=search" }, "geometry": { "type": "Point", "coordinates": [ 140.002344, 38.1059705 ] } },
{ "type": "Feature", "properties": { "内容": "介護付有料老人ホーム　はなことば天童【特定施設入居者生活介護（有料老人ホーム）】山形県天童市南小畑3-3-20", "url2": "https://www.kaigokensaku.mhlw.go.jp/06/index.php?action_kouhyou_detail_004_kani=true&JigyosyoCd=0671601003-00&ServiceCd=331&Type=search" }, "geometry": { "type": "Point", "coordinates": [ 140.362295600000039, 38.349821 ] } },
{ "type": "Feature", "properties": { "内容": "ソーレ天童【特定施設入居者生活介護（有料老人ホーム）】山形県天童市田鶴町三丁目5番11号", "url2": "https://www.kaigokensaku.mhlw.go.jp/06/index.php?action_kouhyou_detail_004_kani=true&JigyosyoCd=0671600773-00&ServiceCd=331&Type=search" }, "geometry": { "type": "Point", "coordinates": [ 140.36555359999997, 38.3534319 ] } },
{ "type": "Feature", "properties": { "内容": "特定施設入居者生活介護事業所　ソーレ東根【特定施設入居者生活介護（有料老人ホーム）】東根市温泉町二丁目5番3-5号", "url2": "https://www.kaigokensaku.mhlw.go.jp/06/index.php?action_kouhyou_detail_004_kani=true&JigyosyoCd=0671700425-00&ServiceCd=331&Type=search" }, "geometry": { "type": "Point", "coordinates": [ 140.38918490384367, 38.460017692092073 ] } },
{ "type": "Feature", "properties": { "内容": "介護付有料老人ホーム　ヒルサイド羽黒【特定施設入居者生活介護（有料老人ホーム）】山形県南陽市椚塚1410番地", "url2": "https://www.kaigokensaku.mhlw.go.jp/06/index.php?action_kouhyou_detail_004_kani=true&JigyosyoCd=0671900397-00&ServiceCd=331&Type=search" }, "geometry": { "type": "Point", "coordinates": [ 140.1661325, 38.0444981 ] } },
{ "type": "Feature", "properties": { "内容": "スマイルやまのべ介護付有料老人ホーム【特定施設入居者生活介護（有料老人ホーム）】山形県東村山郡山辺町大字山辺１３８０", "url2": "https://www.kaigokensaku.mhlw.go.jp/06/index.php?action_kouhyou_detail_004_kani=true&JigyosyoCd=0672200284-00&ServiceCd=331&Type=search" }, "geometry": { "type": "Point", "coordinates": [ 140.267288399999984, 38.2916532 ] } },
{ "type": "Feature", "properties": { "内容": "介護付き有料老人ホームこもれびの里【特定施設入居者生活介護（有料老人ホーム）】山形県西置賜郡小国町大字あけぼの３丁目５番地４", "url2": "https://www.kaigokensaku.mhlw.go.jp/06/index.php?action_kouhyou_detail_004_kani=true&JigyosyoCd=0672700457-00&ServiceCd=331&Type=search" }, "geometry": { "type": "Point", "coordinates": [ 139.75802680000001, 38.0569381 ] } },
{ "type": "Feature", "properties": { "内容": "介護付有料老人ホーム　こでらの樹【特定施設入居者生活介護（有料老人ホーム）】山形県東田川郡三川町大字横山字堤38-1", "url2": "https://www.kaigokensaku.mhlw.go.jp/06/index.php?action_kouhyou_detail_004_kani=true&JigyosyoCd=0673000808-00&ServiceCd=331&Type=search" }, "geometry": { "type": "Point", "coordinates": [ 139.852715399999965, 38.787529 ] } }
]
}
