{
"type": "FeatureCollection",
"name": "geo_06_短期入所生活介護",
"crs": { "type": "name", "properties": { "name": "urn:ogc:def:crs:OGC:1.3:CRS84" } },
"features": [
{ "type": "Feature", "properties": { "内容": "短期入所生活介護事業所「あっぷるの里久保田」【短期入所生活介護】山形市久保田一丁目７番７号", "url": "https://www.kaigokensaku.mhlw.go.jp/06/index.php?action_kouhyou_detail_004_kani=true&JigyosyoCd=0670103480-00&ServiceCd=210&Type=search", "url2": "applenosato.sakura.ne.jp" }, "geometry": { "type": "Point", "coordinates": [ 140.318712199999936, 38.2484141 ] } },
{ "type": "Feature", "properties": { "内容": "ほっとin福寿草【短期入所生活介護】山形市飯田５丁目１番53号", "url": "https://www.kaigokensaku.mhlw.go.jp/06/index.php?action_kouhyou_detail_004_kani=true&JigyosyoCd=0670104298-00&ServiceCd=210&Type=search", "url2": "www.fukujukai.jp" }, "geometry": { "type": "Point", "coordinates": [ 140.323373899999979, 38.2130452 ] } },
{ "type": "Feature", "properties": { "内容": "社会福祉法人　ユトリア会　短期入所ユトリアケアセンターかすみ【短期入所生活介護】山形県山形市香澄町二丁目３番３２号", "url": "https://www.kaigokensaku.mhlw.go.jp/06/index.php?action_kouhyou_detail_004_kani=true&JigyosyoCd=0670103506-00&ServiceCd=210&Type=search", "url2": "http://utoria-kai.com" }, "geometry": { "type": "Point", "coordinates": [ 140.332627600000023, 38.2469563 ] } },
{ "type": "Feature", "properties": { "内容": "短期入所生活介護事業所さくらホーム山形【短期入所生活介護】山形市嶋北三丁目１４番２４号", "url": "https://www.kaigokensaku.mhlw.go.jp/06/index.php?action_kouhyou_detail_004_kani=true&JigyosyoCd=0670103548-00&ServiceCd=210&Type=search", "url2": "http://www.sakura-welfare.jp/" }, "geometry": { "type": "Point", "coordinates": [ 140.3195336, 38.2908403 ] } },
{ "type": "Feature", "properties": { "内容": "介護福祉施設　燦燦【短期入所生活介護】山形県山形市大字十文字字大原848番1", "url": "https://www.kaigokensaku.mhlw.go.jp/06/index.php?action_kouhyou_detail_004_kani=true&JigyosyoCd=0670102235-00&ServiceCd=210&Type=search", "url2": "http://www.san-san.jp" }, "geometry": { "type": "Point", "coordinates": [ 140.377678506220974, 38.309975799999513 ] } },
{ "type": "Feature", "properties": { "内容": "短期入所生活介護　みなみ【短期入所生活介護】山形市南館四丁目1－45", "url": "https://www.kaigokensaku.mhlw.go.jp/06/index.php?action_kouhyou_detail_004_kani=true&JigyosyoCd=0670103134-00&ServiceCd=210&Type=search", "url2": "http://www.miyuki.or.jp" }, "geometry": { "type": "Point", "coordinates": [ 140.311116199999987, 38.2368039 ] } },
{ "type": "Feature", "properties": { "内容": "指定短期入所生活介護事業所　ながまち荘【短期入所生活介護】山形市長町751番地", "url": "https://www.kaigokensaku.mhlw.go.jp/06/index.php?action_kouhyou_detail_004_kani=true&JigyosyoCd=0670100478-00&ServiceCd=210&Type=search", "url2": "http://www.yamagata-saiseikai.org" }, "geometry": { "type": "Point", "coordinates": [ 140.333860100000038, 38.2907628 ] } },
{ "type": "Feature", "properties": { "内容": "特別養護老人ホーム　山静寿【短期入所生活介護】山形市大字沼木字下河原１１３３－１", "url": "https://www.kaigokensaku.mhlw.go.jp/06/index.php?action_kouhyou_detail_004_kani=true&JigyosyoCd=0670103282-00&ServiceCd=210&Type=search", "url2": "http://www.yamagata-saiseikai.org." }, "geometry": { "type": "Point", "coordinates": [ 140.283966, 38.252385 ] } },
{ "type": "Feature", "properties": { "内容": "短期入所生活介護事業所愛日荘【短期入所生活介護】山形県山形市大字妙見寺４番地", "url": "https://www.kaigokensaku.mhlw.go.jp/06/index.php?action_kouhyou_detail_004_kani=true&JigyosyoCd=0670100510-00&ServiceCd=210&Type=search", "url2": "http://www.yamagata-saiseikai.org" }, "geometry": { "type": "Point", "coordinates": [ 140.38119, 38.2406166 ] } },
{ "type": "Feature", "properties": { "内容": "ショートステイ小白川【短期入所生活介護】山形県山形市小白川町2丁目3番1号　小白川ケアセンター内", "url": "https://www.kaigokensaku.mhlw.go.jp/06/index.php?action_kouhyou_detail_004_kani=true&JigyosyoCd=0670104710-00&ServiceCd=210&Type=search", "url2": "https://yamagata-saiseikai.org/" }, "geometry": { "type": "Point", "coordinates": [ 140.350317, 38.249573 ] } },
{ "type": "Feature", "properties": { "内容": "蔵王やすらぎの里　指定短期入所生活介護事業所【短期入所生活介護】山形県山形市蔵王上野920番地", "url": "https://www.kaigokensaku.mhlw.go.jp/06/index.php?action_kouhyou_detail_004_kani=true&JigyosyoCd=0670100353-00&ServiceCd=210&Type=search", "url2": "http://care-net.biz/06/z-yasuragi/" }, "geometry": { "type": "Point", "coordinates": [ 140.316854199999966, 38.1759214 ] } },
{ "type": "Feature", "properties": { "内容": "天然温泉　湯の郷くろさわ【短期入所生活介護】山形市大字黒沢547番地67", "url": "https://www.kaigokensaku.mhlw.go.jp/06/index.php?action_kouhyou_detail_004_kani=true&JigyosyoCd=0670102987-00&ServiceCd=210&Type=search", "url2": "http://www.yuuai-kai.or.jp" }, "geometry": { "type": "Point", "coordinates": [ 140.304254668122866, 38.193317979013933 ] } },
{ "type": "Feature", "properties": { "内容": "指定短期入所生活介護事業所　みはらしの丘【短期入所生活介護】山形市みはらしの丘四丁目15番地3", "url": "https://www.kaigokensaku.mhlw.go.jp/06/index.php?action_kouhyou_detail_004_kani=true&JigyosyoCd=0670103571-00&ServiceCd=210&Type=search", "url2": "https://www.yuuai-kai.oｒ.jp/" }, "geometry": { "type": "Point", "coordinates": [ 140.28989758170087, 38.18229251578169 ] } },
{ "type": "Feature", "properties": { "内容": "ソーレ江俣【短期入所生活介護】山形市江俣一丁目9-15", "url": "https://www.kaigokensaku.mhlw.go.jp/06/index.php?action_kouhyou_detail_004_kani=true&JigyosyoCd=0670101393-00&ServiceCd=210&Type=search", "url2": "http://www.sole.ne.jp" }, "geometry": { "type": "Point", "coordinates": [ 140.32298609999998, 38.2749728 ] } },
{ "type": "Feature", "properties": { "内容": "いずみケアセンター昭和館【短期入所生活介護】山形県山形市長町一丁目９番５９－１４号", "url": "https://www.kaigokensaku.mhlw.go.jp/06/index.php?action_kouhyou_detail_004_kani=true&JigyosyoCd=0670103399-00&ServiceCd=210&Type=search", "url2": "http://www.izumi-lan.com/" }, "geometry": { "type": "Point", "coordinates": [ 140.338287499999979, 38.2853912 ] } },
{ "type": "Feature", "properties": { "内容": "ショートステイ沼木敬寿園【短期入所生活介護】山形県山形市大字沼木68-1", "url": "https://www.kaigokensaku.mhlw.go.jp/06/index.php?action_kouhyou_detail_004_kani=true&JigyosyoCd=0670103498-00&ServiceCd=210&Type=search", "url2": "http://www.keijuen.or.jp" }, "geometry": { "type": "Point", "coordinates": [ 140.291423900000041, 38.2444359 ] } },
{ "type": "Feature", "properties": { "内容": "ショートステイ鈴川敬寿園【短期入所生活介護】山形市大野目二丁目２－６７", "url": "https://www.kaigokensaku.mhlw.go.jp/06/index.php?action_kouhyou_detail_004_kani=true&JigyosyoCd=0670102649-00&ServiceCd=210&Type=search", "url2": "http://www.keijuen.or.jp" }, "geometry": { "type": "Point", "coordinates": [ 140.3565886, 38.2776505 ] } },
{ "type": "Feature", "properties": { "内容": "山形ケアセンター　そよ風【短期入所生活介護】山形県山形市荒楯町1丁目4-1", "url": "https://www.kaigokensaku.mhlw.go.jp/06/index.php?action_kouhyou_detail_004_kani=true&JigyosyoCd=0670102367-00&ServiceCd=210&Type=search", "url2": "yamagata@sykz.co.jp" }, "geometry": { "type": "Point", "coordinates": [ 140.335772099999986, 38.2340826 ] } },
{ "type": "Feature", "properties": { "内容": "ショートステイあかしや共生苑【短期入所生活介護】山形県山形市桧町３－４－１７", "url": "https://www.kaigokensaku.mhlw.go.jp/06/index.php?action_kouhyou_detail_004_kani=true&JigyosyoCd=0670104546-00&ServiceCd=210&Type=search", "url2": "https://www.y-shiminfukushikai.org/" }, "geometry": { "type": "Point", "coordinates": [ 140.327985600000034, 38.2748756 ] } },
{ "type": "Feature", "properties": { "内容": "とかみ共生苑指定短期入所生活介護事業所【短期入所生活介護】山形県山形市富神前6番地", "url": "https://www.kaigokensaku.mhlw.go.jp/06/index.php?action_kouhyou_detail_004_kani=true&JigyosyoCd=0670100619-00&ServiceCd=210&Type=search", "url2": "https://www.y-shiminfukushikai.org/" }, "geometry": { "type": "Point", "coordinates": [ 140.2633399, 38.237519 ] } },
{ "type": "Feature", "properties": { "内容": "総合福祉施設いきいきの郷【短期入所生活介護】山形県山形市大字成安４２５番地２", "url": "https://www.kaigokensaku.mhlw.go.jp/06/index.php?action_kouhyou_detail_004_kani=true&JigyosyoCd=0670100114-00&ServiceCd=210&Type=search", "url2": "https://kagayakinokai.or.jp/" }, "geometry": { "type": "Point", "coordinates": [ 140.311042300000054, 38.3233565 ] } },
{ "type": "Feature", "properties": { "内容": "サンシャイン大森ショートステイセンター【短期入所生活介護】山形市大字大森２１３９番地１", "url": "https://www.kaigokensaku.mhlw.go.jp/06/index.php?action_kouhyou_detail_004_kani=true&JigyosyoCd=0670100320-00&ServiceCd=210&Type=search", "url2": "http://www.sunshine-oomori.jp/" }, "geometry": { "type": "Point", "coordinates": [ 140.38657760000001, 38.3069126 ] } },
{ "type": "Feature", "properties": { "内容": "サンシャイン大森ショートステイセンター（ユニット型空床利用型）【短期入所生活介護】山形県山形市大字大森２１３９番地１", "url": "https://www.kaigokensaku.mhlw.go.jp/06/index.php?action_kouhyou_detail_004_kani=true&JigyosyoCd=0670103803-00&ServiceCd=210&Type=search", "url2": "http://sunshine-oomori.jp/" }, "geometry": { "type": "Point", "coordinates": [ 140.38657760000001, 38.3069126 ] } },
{ "type": "Feature", "properties": { "内容": "みこころの園指定短期入所生活介護事業所【短期入所生活介護】山形県山形市大字沼木字下河原1129-1", "url": "https://www.kaigokensaku.mhlw.go.jp/06/index.php?action_kouhyou_detail_004_kani=true&JigyosyoCd=0670100213-00&ServiceCd=210&Type=search", "url2": "http://www.mikokoronosono.or.jp" }, "geometry": { "type": "Point", "coordinates": [ 140.285097892204277, 38.250716779352295 ] } },
{ "type": "Feature", "properties": { "内容": "指定短期入所生活介護事業所菅沢荘【短期入所生活介護】山形市すげさわの丘４６番地", "url": "https://www.kaigokensaku.mhlw.go.jp/06/index.php?action_kouhyou_detail_004_kani=true&JigyosyoCd=0670100551-00&ServiceCd=210&Type=search", "url2": "http://yamagatashi-sj.or.jp/" }, "geometry": { "type": "Point", "coordinates": [ 140.26767330000007, 38.2265453 ] } },
{ "type": "Feature", "properties": { "内容": "短期入所生活介護　六日町あいあい【短期入所生活介護】山形市六日町２番７号", "url": "https://www.kaigokensaku.mhlw.go.jp/06/index.php?action_kouhyou_detail_004_kani=true&JigyosyoCd=0670101757-00&ServiceCd=210&Type=search", "url2": "https://aiai-yamagata.org/" }, "geometry": { "type": "Point", "coordinates": [ 140.340684799999963, 38.2604744 ] } },
{ "type": "Feature", "properties": { "内容": "成島園ショートステイ【短期入所生活介護】山形県米沢市広幡町成島字窪平山2120番地5", "url": "https://www.kaigokensaku.mhlw.go.jp/06/index.php?action_kouhyou_detail_004_kani=true&JigyosyoCd=0670400316-00&ServiceCd=210&Type=search", "url2": "http://narusimaen.org/" }, "geometry": { "type": "Point", "coordinates": [ 140.077845499999967, 37.9346819 ] } },
{ "type": "Feature", "properties": { "内容": "特別養護老人ホーム回春堂【短期入所生活介護】米沢市大字花沢2986番地の1", "url": "https://www.kaigokensaku.mhlw.go.jp/06/index.php?action_kouhyou_detail_004_kani=true&JigyosyoCd=0670401637-00&ServiceCd=210&Type=search", "url2": "https://kaisyundo.jp/" }, "geometry": { "type": "Point", "coordinates": [ 140.123869199999945, 37.9221709 ] } },
{ "type": "Feature", "properties": { "内容": "特別養護老人ホーム　サンファミリア米沢【短期入所生活介護】山形県米沢市塩井町塩野520番地", "url": "https://www.kaigokensaku.mhlw.go.jp/06/index.php?action_kouhyou_detail_004_kani=true&JigyosyoCd=0670400696-00&ServiceCd=210&Type=search", "url2": "http://www.y-kouwakai.jp" }, "geometry": { "type": "Point", "coordinates": [ 140.110567400000036, 37.9284336 ] } },
{ "type": "Feature", "properties": { "内容": "介護付有料老人ホーム　やすらぎ苑【短期入所生活介護】米沢市成島町3丁目2番127-12号", "url": "https://www.kaigokensaku.mhlw.go.jp/06/index.php?action_kouhyou_detail_004_kani=true&JigyosyoCd=0670401108-00&ServiceCd=210&Type=search", "url2": "https://utopialife.co.jp/" }, "geometry": { "type": "Point", "coordinates": [ 140.093663557008313, 37.921758509653323 ] } },
{ "type": "Feature", "properties": { "内容": "おいたまの郷指定短期入所生活介護事業所【短期入所生活介護】米沢市下新田２８番地", "url": "https://www.kaigokensaku.mhlw.go.jp/06/index.php?action_kouhyou_detail_004_kani=true&JigyosyoCd=0670400456-00&ServiceCd=210&Type=search", "url2": "http://oitamanosato.jp" }, "geometry": { "type": "Point", "coordinates": [ 140.148228300000028, 37.9595032 ] } },
{ "type": "Feature", "properties": { "内容": "万世園ショートステイ【短期入所生活介護】山形県米沢市万世町牛森4172-5", "url": "https://www.kaigokensaku.mhlw.go.jp/06/index.php?action_kouhyou_detail_004_kani=true&JigyosyoCd=0670400282-00&ServiceCd=210&Type=search", "url2": "eikounosato.ocn.ne.jp" }, "geometry": { "type": "Point", "coordinates": [ 140.164606468758393, 37.904004487720243 ] } },
{ "type": "Feature", "properties": { "内容": "指定短期入所生活介護事業所「かたくり荘」【短期入所生活介護】山形県鶴岡市熊出字東村157-2", "url": "https://www.kaigokensaku.mhlw.go.jp/06/index.php?action_kouhyou_detail_004_kani=true&JigyosyoCd=0673000295-00&ServiceCd=210&Type=search", "url2": "http://care-net:biz/06/bunanoki/" }, "geometry": { "type": "Point", "coordinates": [ 139.850026800000023, 38.6339112 ] } },
{ "type": "Feature", "properties": { "内容": "ショートステイ温寿荘【短期入所生活介護】山形県鶴岡市槙代丁53番地1", "url": "https://www.kaigokensaku.mhlw.go.jp/06/index.php?action_kouhyou_detail_004_kani=true&JigyosyoCd=0673100038-00&ServiceCd=210&Type=search", "url2": "http://atumifukusikai.jp" }, "geometry": { "type": "Point", "coordinates": [ 139.593908, 38.6012141 ] } },
{ "type": "Feature", "properties": { "内容": "ショートステイかみじ荘【短期入所生活介護】鶴岡市羽黒町手向字薬師沢198-3", "url": "https://www.kaigokensaku.mhlw.go.jp/06/index.php?action_kouhyou_detail_004_kani=true&JigyosyoCd=0670701523-00&ServiceCd=210&Type=search", "url2": "http://www.kamiji.or.jp" }, "geometry": { "type": "Point", "coordinates": [ 139.9411354, 38.7180786 ] } },
{ "type": "Feature", "properties": { "内容": "ショートステイかみじ荘【短期入所生活介護】山形県鶴岡市羽黒町手向字薬師沢198番地の3", "url": "https://www.kaigokensaku.mhlw.go.jp/06/index.php?action_kouhyou_detail_004_kani=true&JigyosyoCd=0670701531-00&ServiceCd=210&Type=search", "url2": "https://www.kamiji.or.jp/" }, "geometry": { "type": "Point", "coordinates": [ 139.9411354, 38.7180786 ] } },
{ "type": "Feature", "properties": { "内容": "桃寿荘指定短期入所生活介護事業所【短期入所生活介護】山形県鶴岡市たらのき代字桃平123番地", "url": "https://www.kaigokensaku.mhlw.go.jp/06/index.php?action_kouhyou_detail_004_kani=true&JigyosyoCd=0673000220-00&ServiceCd=210&Type=search", "url2": "http://kushibiki-fukujukai.or.jp" }, "geometry": { "type": "Point", "coordinates": [ 139.89882769999997, 38.6675743 ] } },
{ "type": "Feature", "properties": { "内容": "永寿荘ショートステイセンター【短期入所生活介護】山形県鶴岡市茅原町２８番１０号", "url": "https://www.kaigokensaku.mhlw.go.jp/06/index.php?action_kouhyou_detail_004_kani=true&JigyosyoCd=0670700145-00&ServiceCd=210&Type=search", "url2": "http://www.keisen-swc.jp" }, "geometry": { "type": "Point", "coordinates": [ 139.842456299999981, 38.7526249 ] } },
{ "type": "Feature", "properties": { "内容": "指定短期入所生活介護サービスセンターふじの花荘【短期入所生活介護】山形県鶴岡市藤の花1丁目１８－１", "url": "https://www.kaigokensaku.mhlw.go.jp/06/index.php?action_kouhyou_detail_004_kani=true&JigyosyoCd=0673000212-00&ServiceCd=210&Type=search", "url2": "http://www.fujino-sato.or.jp" }, "geometry": { "type": "Point", "coordinates": [ 139.908230300000014, 38.7730652 ] } },
{ "type": "Feature", "properties": { "内容": "池幸園ショートステイみはら【短期入所生活介護】山形県鶴岡市美原町4-40", "url": "https://www.kaigokensaku.mhlw.go.jp/06/index.php?action_kouhyou_detail_004_kani=true&JigyosyoCd=0670701978-00&ServiceCd=210&Type=search", "url2": "ｈｔｔｐ://www.ikkoukai.or.jp" }, "geometry": { "type": "Point", "coordinates": [ 139.8215619, 38.7220004 ] } },
{ "type": "Feature", "properties": { "内容": "池幸園ショートステイ【短期入所生活介護】山形県鶴岡市陽光町9-20", "url": "https://www.kaigokensaku.mhlw.go.jp/06/index.php?action_kouhyou_detail_004_kani=true&JigyosyoCd=0670700327-00&ServiceCd=210&Type=search", "url2": "http://ikkoukai.or.jp" }, "geometry": { "type": "Point", "coordinates": [ 139.815737049055542, 38.725120485123469 ] } },
{ "type": "Feature", "properties": { "内容": "ショートステイかけはし２号館【短期入所生活介護】山形県鶴岡市民田字代家田９９－１", "url": "https://www.kaigokensaku.mhlw.go.jp/06/index.php?action_kouhyou_detail_004_kani=true&JigyosyoCd=0670701564-00&ServiceCd=210&Type=search", "url2": "https://niji-kakehashi.or.jp/" }, "geometry": { "type": "Point", "coordinates": [ 139.8265814, 38.7047771 ] } },
{ "type": "Feature", "properties": { "内容": "ショートステイかけはし【短期入所生活介護】山形県鶴岡市民田字代家田100-1", "url": "https://www.kaigokensaku.mhlw.go.jp/06/index.php?action_kouhyou_detail_004_kani=true&JigyosyoCd=0670700756-00&ServiceCd=210&Type=search", "url2": "https://niji-kakehashi.or.jp/" }, "geometry": { "type": "Point", "coordinates": [ 139.82630781468049, 38.704040311755534 ] } },
{ "type": "Feature", "properties": { "内容": "短期入所センター　おおやま【短期入所生活介護】鶴岡市大山三丁目３４番１号", "url": "https://www.kaigokensaku.mhlw.go.jp/06/index.php?action_kouhyou_detail_004_kani=true&JigyosyoCd=0670700830-00&ServiceCd=210&Type=search", "url2": "http://www.shk01.jp/index.html" }, "geometry": { "type": "Point", "coordinates": [ 139.764452200000051, 38.7511928 ] } },
{ "type": "Feature", "properties": { "内容": "短期入所生活介護事業所めぐみの郷しらやま【短期入所生活介護】山形県鶴岡市白山字西木村１０１番地1", "url": "https://www.kaigokensaku.mhlw.go.jp/06/index.php?action_kouhyou_detail_004_kani=true&JigyosyoCd=0670701929-00&ServiceCd=210&Type=search", "url2": "http://www.s-megumikai.or.jp/" }, "geometry": { "type": "Point", "coordinates": [ 139.778601699999967, 38.7229991 ] } },
{ "type": "Feature", "properties": { "内容": "ショートステイグランパ・グランマ【短期入所生活介護】山形県酒田市新橋3丁目1番地の1", "url": "https://www.kaigokensaku.mhlw.go.jp/06/index.php?action_kouhyou_detail_004_kani=true&JigyosyoCd=0670802214-00&ServiceCd=210&Type=search", "url2": "https://s-fukushi.jp/" }, "geometry": { "type": "Point", "coordinates": [ 139.8518731, 38.9165579 ] } },
{ "type": "Feature", "properties": { "内容": "短期入所生活介護事業所　幸楽荘【短期入所生活介護】山形県酒田市小泉字前田50番地", "url": "https://www.kaigokensaku.mhlw.go.jp/06/index.php?action_kouhyou_detail_004_kani=true&JigyosyoCd=0673200150-00&ServiceCd=210&Type=search", "url2": "http://www.kourakusou.or.jp" }, "geometry": { "type": "Point", "coordinates": [ 139.9352682, 38.9693991 ] } },
{ "type": "Feature", "properties": { "内容": "ショートステイ　ひめふよう【短期入所生活介護】山形県酒田市宮野浦3丁目２０－１", "url": "https://www.kaigokensaku.mhlw.go.jp/06/index.php?action_kouhyou_detail_004_kani=true&JigyosyoCd=0670800267-00&ServiceCd=210&Type=search", "url2": "http://www.koufukai.or.jp" }, "geometry": { "type": "Point", "coordinates": [ 139.810247724992337, 38.914178461862704 ] } },
{ "type": "Feature", "properties": { "内容": "ショートステイあおい【短期入所生活介護】山形県酒田市緑ヶ丘2-16-1", "url": "https://www.kaigokensaku.mhlw.go.jp/06/index.php?action_kouhyou_detail_004_kani=true&JigyosyoCd=0670801570-00&ServiceCd=210&Type=search", "url2": "http://koufukai.or.jp" }, "geometry": { "type": "Point", "coordinates": [ 139.808598500000016, 38.8964512 ] } },
{ "type": "Feature", "properties": { "内容": "ショートステイサービス　かたばみ荘【短期入所生活介護】山形県酒田市北千日堂前字松境18番1", "url": "https://www.kaigokensaku.mhlw.go.jp/06/index.php?action_kouhyou_detail_004_kani=true&JigyosyoCd=0670800440-00&ServiceCd=210&Type=search", "url2": "https://www.katabamisou.jp/" }, "geometry": { "type": "Point", "coordinates": [ 139.8345286, 38.9366504 ] } },
{ "type": "Feature", "properties": { "内容": "寿康園指定短期入所生活介護事業所【短期入所生活介護】山形県酒田市楢橋字大柳3番地1", "url": "https://www.kaigokensaku.mhlw.go.jp/06/index.php?action_kouhyou_detail_004_kani=true&JigyosyoCd=0670801745-00&ServiceCd=210&Type=search", "url2": "https://www.hirata.or.jp/" }, "geometry": { "type": "Point", "coordinates": [ 139.95027529999993, 38.8923249 ] } },
{ "type": "Feature", "properties": { "内容": "寿康園指定短期入所生活介護事業所【短期入所生活介護】山形県酒田市楢橋字大柳3番地1", "url": "https://www.kaigokensaku.mhlw.go.jp/06/index.php?action_kouhyou_detail_004_kani=true&JigyosyoCd=0673200119-00&ServiceCd=210&Type=search", "url2": "www.hirata.or.jp/" }, "geometry": { "type": "Point", "coordinates": [ 139.95027529999993, 38.8923249 ] } },
{ "type": "Feature", "properties": { "内容": "短期入所生活介護事業所さくらホーム広野【短期入所生活介護】山形県酒田市広野字末広102-1", "url": "https://www.kaigokensaku.mhlw.go.jp/06/index.php?action_kouhyou_detail_004_kani=true&JigyosyoCd=0670800903-00&ServiceCd=210&Type=search", "url2": "http://www.sakura-welfare.jp/" }, "geometry": { "type": "Point", "coordinates": [ 139.847274199999987, 38.84888 ] } },
{ "type": "Feature", "properties": { "内容": "さくらホーム短期入所生活介護事業所【短期入所生活介護】山形県酒田市中牧田字丸福171番地", "url": "https://www.kaigokensaku.mhlw.go.jp/06/index.php?action_kouhyou_detail_004_kani=true&JigyosyoCd=0673200176-00&ServiceCd=210&Type=search", "url2": "http://www.sakura-welfare.jp/" }, "geometry": { "type": "Point", "coordinates": [ 139.9395763, 38.87521 ] } },
{ "type": "Feature", "properties": { "内容": "短期入所生活介護事業所さくらの里【短期入所生活介護】山形県酒田市西田16-1", "url": "https://www.kaigokensaku.mhlw.go.jp/06/index.php?action_kouhyou_detail_004_kani=true&JigyosyoCd=0670801380-00&ServiceCd=210&Type=search", "url2": "http://www.sakura-welfare.jp/" }, "geometry": { "type": "Point", "coordinates": [ 139.952358559524527, 38.856507257130495 ] } },
{ "type": "Feature", "properties": { "内容": "在宅介護複合施設ほづみ短期入所生活介護事業所【短期入所生活介護】山形県酒田市宮海字林内23番地", "url": "https://www.kaigokensaku.mhlw.go.jp/06/index.php?action_kouhyou_detail_004_kani=true&JigyosyoCd=0670801182-00&ServiceCd=210&Type=search", "url2": "https://www.hodumi.info/" }, "geometry": { "type": "Point", "coordinates": [ 139.851708899999949, 38.9734911 ] } },
{ "type": "Feature", "properties": { "内容": "サン・シティ指定短期入所生活介護事業所【短期入所生活介護】山形県酒田市曙町二丁目26番地の1", "url": "https://www.kaigokensaku.mhlw.go.jp/06/index.php?action_kouhyou_detail_004_kani=true&JigyosyoCd=0670800184-00&ServiceCd=210&Type=search", "url2": "http://www4.ocn.ne.jp/~suncity" }, "geometry": { "type": "Point", "coordinates": [ 139.864365799999973, 38.9195529 ] } },
{ "type": "Feature", "properties": { "内容": "在宅介護支援施設にじの輪【短期入所生活介護】山形県酒田市泉町１番地１６", "url": "https://www.kaigokensaku.mhlw.go.jp/06/index.php?action_kouhyou_detail_004_kani=true&JigyosyoCd=0670800648-00&ServiceCd=210&Type=search", "url2": "http://www.ken-sei.or.jp" }, "geometry": { "type": "Point", "coordinates": [ 139.847178, 38.9339594 ] } },
{ "type": "Feature", "properties": { "内容": "ショートステイあずま【短期入所生活介護】山形県酒田市生石字奥山１５５番１地域密着型特別養護老人ホームあずま", "url": "https://www.kaigokensaku.mhlw.go.jp/06/index.php?action_kouhyou_detail_004_kani=true&JigyosyoCd=0670801851-00&ServiceCd=210&Type=search", "url2": "http://www.east-azuma.or.jp" }, "geometry": { "type": "Point", "coordinates": [ 139.940125, 38.9222768 ] } },
{ "type": "Feature", "properties": { "内容": "ライフケア黒森指定短期入所生活介護事業所【短期入所生活介護】山形県酒田市黒森字葭葉山５４番１０", "url": "https://www.kaigokensaku.mhlw.go.jp/06/index.php?action_kouhyou_detail_004_kani=true&JigyosyoCd=0670800499-00&ServiceCd=210&Type=search", "url2": "http://syokaku-lc.com" }, "geometry": { "type": "Point", "coordinates": [ 139.81717679999997, 38.8530683 ] } },
{ "type": "Feature", "properties": { "内容": "ライフケア黒森ユニット型指定（介護予防）短期入所生活介護事業所【短期入所生活介護】山形県酒田市黒森字葭葉山５４番１０", "url": "https://www.kaigokensaku.mhlw.go.jp/06/index.php?action_kouhyou_detail_004_kani=true&JigyosyoCd=0670801752-00&ServiceCd=210&Type=search", "url2": "http：//syokaku-lc.com" }, "geometry": { "type": "Point", "coordinates": [ 139.81662689999996, 38.8535849 ] } },
{ "type": "Feature", "properties": { "内容": "ショートステイふきのとう【短期入所生活介護】山形県新庄市大字鳥越字駒場4519-1", "url": "https://www.kaigokensaku.mhlw.go.jp/06/index.php?action_kouhyou_detail_004_kani=true&JigyosyoCd=0671100824-00&ServiceCd=210&Type=search", "url2": "http://care-net.co.jp/" }, "geometry": { "type": "Point", "coordinates": [ 140.3277665, 38.7330107 ] } },
{ "type": "Feature", "properties": { "内容": "短期入所生活介護施設　ネスト・ステイ【短期入所生活介護】山形県新庄市住吉町３番３号", "url": "https://www.kaigokensaku.mhlw.go.jp/06/index.php?action_kouhyou_detail_004_kani=true&JigyosyoCd=0671100485-00&ServiceCd=210&Type=search", "url2": "http://www.dreamnest.or.jp" }, "geometry": { "type": "Point", "coordinates": [ 140.302597200000037, 38.7655181 ] } },
{ "type": "Feature", "properties": { "内容": "特別養護老人ホーム　新寿荘【短期入所生活介護】新庄市大字本合海字福田界２６４５番地", "url": "https://www.kaigokensaku.mhlw.go.jp/06/index.php?action_kouhyou_detail_004_kani=true&JigyosyoCd=0671100139-00&ServiceCd=210&Type=search", "url2": "http://www.shinjyukai.or.jp/" }, "geometry": { "type": "Point", "coordinates": [ 140.301608399999964, 38.7650154 ] } },
{ "type": "Feature", "properties": { "内容": "さがえ西村山農業協同組合【短期入所生活介護】山形県寒河江市大字寒河江字久保２番地ＪＡ健康福祉センター", "url": "https://www.kaigokensaku.mhlw.go.jp/06/index.php?action_kouhyou_detail_004_kani=true&JigyosyoCd=0671200574-00&ServiceCd=210&Type=search", "url2": "http://www.ic-net.or.jp/home/jasagae/" }, "geometry": { "type": "Point", "coordinates": [ 140.256510599999956, 38.3649787 ] } },
{ "type": "Feature", "properties": { "内容": "ショートステイ醍醐【短期入所生活介護】山形県寒河江市慈恩寺235番地", "url": "https://www.kaigokensaku.mhlw.go.jp/06/index.php?action_kouhyou_detail_004_kani=true&JigyosyoCd=0671200657-00&ServiceCd=210&Type=search", "url2": "http://subaru-sagae.or.jp" }, "geometry": { "type": "Point", "coordinates": [ 140.255396041620997, 38.406914841221713 ] } },
{ "type": "Feature", "properties": { "内容": "長生園指定短期入所生活介護事業所【短期入所生活介護】山形県寒河江市大字柴橋２２４６番地の１", "url": "https://www.kaigokensaku.mhlw.go.jp/06/index.php?action_kouhyou_detail_004_kani=true&JigyosyoCd=0671200095-00&ServiceCd=210&Type=search", "url2": "http://www.chouseien.or.jp" }, "geometry": { "type": "Point", "coordinates": [ 140.254449600000044, 38.3697503 ] } },
{ "type": "Feature", "properties": { "内容": "短期入所サービスさがえ【短期入所生活介護】寒河江市大字白岩6330番地の1", "url": "https://www.kaigokensaku.mhlw.go.jp/06/index.php?action_kouhyou_detail_004_kani=true&JigyosyoCd=0671200665-00&ServiceCd=210&Type=search", "url2": "http://www.sagae-yuuyuukai.org" }, "geometry": { "type": "Point", "coordinates": [ 140.220835424267534, 38.409520221038477 ] } },
{ "type": "Feature", "properties": { "内容": "指定短期入所生活介護事業所みゆきの丘【短期入所生活介護】山形県上山市弁天二丁目2番11号", "url": "https://www.kaigokensaku.mhlw.go.jp/06/index.php?action_kouhyou_detail_004_kani=true&JigyosyoCd=0671300325-00&ServiceCd=210&Type=search", "url2": "http://www.miyuki.or.jp" }, "geometry": { "type": "Point", "coordinates": [ 140.292603900000017, 38.1699242 ] } },
{ "type": "Feature", "properties": { "内容": "指定短期入所生活介護施設みずほの里【短期入所生活介護】山形県上山市牧野字清水２１－１", "url": "https://www.kaigokensaku.mhlw.go.jp/06/index.php?action_kouhyou_detail_004_kani=true&JigyosyoCd=0671300176-00&ServiceCd=210&Type=search", "url2": "https://miyuki-fukushi.jp" }, "geometry": { "type": "Point", "coordinates": [ 140.301631300000054, 38.1158696 ] } },
{ "type": "Feature", "properties": { "内容": "指定短期入所生活介護施設みずほの里(空床)【短期入所生活介護】山形県上山市牧野字清水21-1", "url": "https://www.kaigokensaku.mhlw.go.jp/06/index.php?action_kouhyou_detail_004_kani=true&JigyosyoCd=0671300564-00&ServiceCd=210&Type=search", "url2": "http://miyuki-fukushi.jp" }, "geometry": { "type": "Point", "coordinates": [ 140.301631300000054, 38.115869599999982 ] } },
{ "type": "Feature", "properties": { "内容": "短期入所生活介護施設ながすずの里【短期入所生活介護】山形県上山市長清水2丁目5番19号", "url": "https://www.kaigokensaku.mhlw.go.jp/06/index.php?action_kouhyou_detail_004_kani=true&JigyosyoCd=0671300556-00&ServiceCd=210&Type=search", "url2": "https://miyuki-fukushi.jp/" }, "geometry": { "type": "Point", "coordinates": [ 140.273315700000012, 38.1418103 ] } },
{ "type": "Feature", "properties": { "内容": "蓬仙園短期入所生活介護事業所【短期入所生活介護】山形県上山市金谷字藤木2401", "url": "https://www.kaigokensaku.mhlw.go.jp/06/index.php?action_kouhyou_detail_004_kani=true&JigyosyoCd=0671300135-00&ServiceCd=210&Type=search", "url2": "http://kaijukai.jp" }, "geometry": { "type": "Point", "coordinates": [ 140.300372254305671, 38.164652785023478 ] } },
{ "type": "Feature", "properties": { "内容": "特別養護老人ホームひがしざわ【短期入所生活介護】山形県村山市楯岡笛田二丁目１９番５７号", "url": "https://www.kaigokensaku.mhlw.go.jp/06/index.php?action_kouhyou_detail_004_kani=true&JigyosyoCd=0671400232-00&ServiceCd=210&Type=search", "url2": "http://kjg-net.jp/" }, "geometry": { "type": "Point", "coordinates": [ 140.403661599999964, 38.4794836 ] } },
{ "type": "Feature", "properties": { "内容": "地域密着型特別養護老人ホームむらやま【短期入所生活介護】山形県村山市中央二丁目３番４６号", "url": "https://www.kaigokensaku.mhlw.go.jp/06/index.php?action_kouhyou_detail_004_kani=true&JigyosyoCd=0671400356-00&ServiceCd=210&Type=search", "url2": "http://kjg-net.jp/" }, "geometry": { "type": "Point", "coordinates": [ 140.375286299999971, 38.4826771 ] } },
{ "type": "Feature", "properties": { "内容": "指定短期入所生活介護事業所ふもと【短期入所生活介護】村山市大字湯野沢956番地の3", "url": "https://www.kaigokensaku.mhlw.go.jp/06/index.php?action_kouhyou_detail_004_kani=true&JigyosyoCd=0671400067-00&ServiceCd=210&Type=search", "url2": "http://murayama-hikari-kouseikai.jp/" }, "geometry": { "type": "Point", "coordinates": [ 140.307155200000011, 38.4621504 ] } },
{ "type": "Feature", "properties": { "内容": "寿泉荘指定短期入所生活介護事業所【短期入所生活介護】長井市今泉１８５７", "url": "https://www.kaigokensaku.mhlw.go.jp/06/index.php?action_kouhyou_detail_004_kani=true&JigyosyoCd=0671500189-00&ServiceCd=210&Type=search", "url2": "http://www.ysj.or.jp/" }, "geometry": { "type": "Point", "coordinates": [ 140.054173063012968, 38.057974702062126 ] } },
{ "type": "Feature", "properties": { "内容": "野の香短期入所【短期入所生活介護】長井市館町南9番63号地域密着型特別養護老人ホーム野の香", "url": "https://www.kaigokensaku.mhlw.go.jp/06/index.php?action_kouhyou_detail_004_kani=true&JigyosyoCd=0671500494-00&ServiceCd=210&Type=search", "url2": "https://www.riverhill.jp/" }, "geometry": { "type": "Point", "coordinates": [ 140.042627100000033, 38.092676 ] } },
{ "type": "Feature", "properties": { "内容": "特別養護老人ホーム慈光園【短期入所生活介護】山形県長井市小出3453番地", "url": "https://www.kaigokensaku.mhlw.go.jp/06/index.php?action_kouhyou_detail_004_kani=true&JigyosyoCd=0671500122-00&ServiceCd=210&Type=search", "url2": "http://www2.jan.ne.jp/~jikouen1/" }, "geometry": { "type": "Point", "coordinates": [ 140.04986729999996, 38.1093409 ] } },
{ "type": "Feature", "properties": { "内容": "短期入所生活介護事業所さくらホーム天童【短期入所生活介護】山形県天童市芳賀タウン南四丁目8番3号", "url": "https://www.kaigokensaku.mhlw.go.jp/06/index.php?action_kouhyou_detail_004_kani=true&JigyosyoCd=0671601094-00&ServiceCd=210&Type=search", "url2": "http://www.sakura-welfare.jp/" }, "geometry": { "type": "Point", "coordinates": [ 140.358985, 38.340651 ] } },
{ "type": "Feature", "properties": { "内容": "特別養護老人ホームあこがれ【短期入所生活介護】天童市大字荒谷1973番地1345", "url": "https://www.kaigokensaku.mhlw.go.jp/06/index.php?action_kouhyou_detail_004_kani=true&JigyosyoCd=0671600344-00&ServiceCd=210&Type=search", "url2": "https://yuu-ai-kai.net" }, "geometry": { "type": "Point", "coordinates": [ 140.387124699999958, 38.3273018 ] } },
{ "type": "Feature", "properties": { "内容": "ショートステイつるかめの縁【短期入所生活介護】山形県天童市大字小関７７番地１", "url": "https://www.kaigokensaku.mhlw.go.jp/06/index.php?action_kouhyou_detail_004_kani=true&JigyosyoCd=0671601144-00&ServiceCd=210&Type=search", "url2": "http://tendo-turukame.com/" }, "geometry": { "type": "Point", "coordinates": [ 140.365663, 38.3710369 ] } },
{ "type": "Feature", "properties": { "内容": "ショートステイお宿つるかめ【短期入所生活介護】天童市北久野本一丁目2-30", "url": "https://www.kaigokensaku.mhlw.go.jp/06/index.php?action_kouhyou_detail_004_kani=true&JigyosyoCd=0671600849-00&ServiceCd=210&Type=search", "url2": "http://care-net.biz/06/turukame/b21.php" }, "geometry": { "type": "Point", "coordinates": [ 140.3737496, 38.3762577 ] } },
{ "type": "Feature", "properties": { "内容": "ソーレホーム天童ショートステイ【短期入所生活介護】天童市桜町１番７号", "url": "https://www.kaigokensaku.mhlw.go.jp/06/index.php?action_kouhyou_detail_004_kani=true&JigyosyoCd=0671600823-00&ServiceCd=210&Type=search", "url2": "http://www.sole.ne.jp" }, "geometry": { "type": "Point", "coordinates": [ 140.385002200000031, 38.3533186 ] } },
{ "type": "Feature", "properties": { "内容": "特別養護老人ホーム清幸園【短期入所生活介護】天童市大清水４９１番地１", "url": "https://www.kaigokensaku.mhlw.go.jp/06/index.php?action_kouhyou_detail_004_kani=true&JigyosyoCd=0671600203-00&ServiceCd=210&Type=search", "url2": "https://www.tendo-seikouen.org/" }, "geometry": { "type": "Point", "coordinates": [ 140.352755800000068, 38.3875423 ] } },
{ "type": "Feature", "properties": { "内容": "地域密着型特別養護老人ホーム清幸園【短期入所生活介護】山形県天童市大字大清水491番地1", "url": "https://www.kaigokensaku.mhlw.go.jp/06/index.php?action_kouhyou_detail_004_kani=true&JigyosyoCd=0671601110-00&ServiceCd=210&Type=search", "url2": "http://www.tendo-seikouen.org" }, "geometry": { "type": "Point", "coordinates": [ 140.352866899999981, 38.3871368 ] } },
{ "type": "Feature", "properties": { "内容": "特別養護老人ホーム明幸園【短期入所生活介護】山形県天童市大字矢野目150番地", "url": "https://www.kaigokensaku.mhlw.go.jp/06/index.php?action_kouhyou_detail_004_kani=true&JigyosyoCd=0671600237-00&ServiceCd=210&Type=search", "url2": "http://www.meikouen.or.jp" }, "geometry": { "type": "Point", "coordinates": [ 140.350874200000021, 38.3535093 ] } },
{ "type": "Feature", "properties": { "内容": "明幸園ショートステイセンター【短期入所生活介護】山形県天童市大字矢野目150番地", "url": "https://www.kaigokensaku.mhlw.go.jp/06/index.php?action_kouhyou_detail_004_kani=true&JigyosyoCd=0671600922-00&ServiceCd=210&Type=search", "url2": "http://www.meikouen.or.jp" }, "geometry": { "type": "Point", "coordinates": [ 140.350452, 38.3531371 ] } },
{ "type": "Feature", "properties": { "内容": "短期入所生活介護事業所たかだま【短期入所生活介護】山形県天童市大字清池１５５９番１", "url": "https://www.kaigokensaku.mhlw.go.jp/06/index.php?action_kouhyou_detail_004_kani=true&JigyosyoCd=0671600971-00&ServiceCd=210&Type=search", "url2": "https://uyo-sato.jimdo.com/" }, "geometry": { "type": "Point", "coordinates": [ 140.35268212195129, 38.329710451468671 ] } },
{ "type": "Feature", "properties": { "内容": "短期入所施設第二白水荘【短期入所生活介護】東根市大字蟹沢897-1", "url": "https://www.kaigokensaku.mhlw.go.jp/06/index.php?action_kouhyou_detail_004_kani=true&JigyosyoCd=0671700177-00&ServiceCd=210&Type=search", "url2": "http://www.higashine-fukushikai.org" }, "geometry": { "type": "Point", "coordinates": [ 140.3693611, 38.4442363 ] } },
{ "type": "Feature", "properties": { "内容": "短期入所施設白水荘【短期入所生活介護】山形県東根市大字野川2074番地の99", "url": "https://www.kaigokensaku.mhlw.go.jp/06/index.php?action_kouhyou_detail_004_kani=true&JigyosyoCd=0671700144-00&ServiceCd=210&Type=search", "url2": "http://www.higashine-fukusikai.org" }, "geometry": { "type": "Point", "coordinates": [ 140.431599300000016, 38.4087471 ] } },
{ "type": "Feature", "properties": { "内容": "短期入所生活介護事業所ソーレ東根【短期入所生活介護】山形県東根市温泉町二丁目5番3‐5号", "url": "https://www.kaigokensaku.mhlw.go.jp/06/index.php?action_kouhyou_detail_004_kani=true&JigyosyoCd=0671700441-00&ServiceCd=210&Type=search", "url2": "https://taiyo-fukushikai.jp/" }, "geometry": { "type": "Point", "coordinates": [ 140.388160299999981, 38.4600765 ] } },
{ "type": "Feature", "properties": { "内容": "ショートステイおさなぎ【短期入所生活介護】山形県東根市中島通り一丁目25号", "url": "https://www.kaigokensaku.mhlw.go.jp/06/index.php?action_kouhyou_detail_004_kani=true&JigyosyoCd=0671700334-00&ServiceCd=210&Type=search", "url2": "https://ims-tohoku.com>osanagi" }, "geometry": { "type": "Point", "coordinates": [ 140.402843299999972, 38.411682 ] } },
{ "type": "Feature", "properties": { "内容": "指定短期入所生活介護事業所長寿園【短期入所生活介護】尾花沢市新町三丁目２番２１号", "url": "https://www.kaigokensaku.mhlw.go.jp/06/index.php?action_kouhyou_detail_004_kani=true&JigyosyoCd=0671800084-00&ServiceCd=210&Type=search", "url2": "http://www.tokurakai.jp/html/choju.html" }, "geometry": { "type": "Point", "coordinates": [ 140.415139968122816, 38.604426985242334 ] } },
{ "type": "Feature", "properties": { "内容": "特別養護老人ホーム　よつば荘【短期入所生活介護】山形県尾花沢市大字荻袋１２８７番地２０", "url": "https://www.kaigokensaku.mhlw.go.jp/06/index.php?action_kouhyou_detail_004_kani=true&JigyosyoCd=0671800274-00&ServiceCd=210&Type=search", "url2": "https://www.yotsubasou-kaigo.com/" }, "geometry": { "type": "Point", "coordinates": [ 140.381302147082579, 38.624377392396731 ] } },
{ "type": "Feature", "properties": { "内容": "特別養護老人ホームおばなざわ【短期入所生活介護】山形県尾花沢市大字五十沢186番地", "url": "https://www.kaigokensaku.mhlw.go.jp/06/index.php?action_kouhyou_detail_004_kani=true&JigyosyoCd=0671800241-00&ServiceCd=210&Type=search", "url2": "http://kjg-net.jp/index.php" }, "geometry": { "type": "Point", "coordinates": [ 140.403383500000018, 38.5852322 ] } },
{ "type": "Feature", "properties": { "内容": "特別養護老人ホーム太陽の里ふたば【短期入所生活介護】山形県南陽市宮内２３８１番地", "url": "https://www.kaigokensaku.mhlw.go.jp/06/index.php?action_kouhyou_detail_004_kani=true&JigyosyoCd=0671900132-00&ServiceCd=210&Type=search", "url2": "http://futaba-nanyo.sakura.ne.jp" }, "geometry": { "type": "Point", "coordinates": [ 140.145107899999971, 38.072678 ] } },
{ "type": "Feature", "properties": { "内容": "短期入所生活介護事業所ドミール南陽【短期入所生活介護】山形県南陽市椚塚940", "url": "https://www.kaigokensaku.mhlw.go.jp/06/index.php?action_kouhyou_detail_004_kani=true&JigyosyoCd=0671900280-00&ServiceCd=210&Type=search", "url2": "http://www.koutoku.or.jp" }, "geometry": { "type": "Point", "coordinates": [ 140.17252420052489, 38.043178166128129 ] } },
{ "type": "Feature", "properties": { "内容": "特別養護老人ホームこぶし荘【短期入所生活介護】山形県南陽市川樋508番地", "url": "https://www.kaigokensaku.mhlw.go.jp/06/index.php?action_kouhyou_detail_004_kani=true&JigyosyoCd=0671900082-00&ServiceCd=210&Type=search", "url2": "http://www.kobushiso.jp/" }, "geometry": { "type": "Point", "coordinates": [ 140.194028399999979, 38.0948792 ] } },
{ "type": "Feature", "properties": { "内容": "複合介護健康施設　しらかば【短期入所生活介護】山形県東村山郡山辺町大字山辺675－1", "url": "https://www.kaigokensaku.mhlw.go.jp/06/index.php?action_kouhyou_detail_004_kani=true&JigyosyoCd=0672200433-00&ServiceCd=210&Type=search", "url2": null }, "geometry": { "type": "Point", "coordinates": [ 140.2625971, 38.2939167 ] } },
{ "type": "Feature", "properties": { "内容": "スマイルやまのべショートステイ【短期入所生活介護】山形県東村山郡山辺町大字山辺１３８０", "url": "https://www.kaigokensaku.mhlw.go.jp/06/index.php?action_kouhyou_detail_004_kani=true&JigyosyoCd=0672200292-00&ServiceCd=210&Type=search", "url2": "ｈｔｔｐ：//ｓｍｉｌｅ-ｙａｍａｎｏｂｅ.ｃｏｍ/" }, "geometry": { "type": "Point", "coordinates": [ 140.267288399999984, 38.2916532 ] } },
{ "type": "Feature", "properties": { "内容": "指定短期入所生活介護事業所　やまのべ荘【短期入所生活介護】山形県東村山郡山辺町大字大塚８１４番地の２", "url": "https://www.kaigokensaku.mhlw.go.jp/06/index.php?action_kouhyou_detail_004_kani=true&JigyosyoCd=0672200094-00&ServiceCd=210&Type=search", "url2": "http://www.yamagata-saiseikai.org" }, "geometry": { "type": "Point", "coordinates": [ 140.27461310000001, 38.2788934 ] } },
{ "type": "Feature", "properties": { "内容": "中山ひまわり荘指定短期入所生活介護事業所【短期入所生活介護】山形県東村山郡中山町大字柳沢2333番地", "url": "https://www.kaigokensaku.mhlw.go.jp/06/index.php?action_kouhyou_detail_004_kani=true&JigyosyoCd=0672200110-00&ServiceCd=210&Type=search", "url2": "www.nakayama-himawariso.jp" }, "geometry": { "type": "Point", "coordinates": [ 140.259755700000028, 38.3292051 ] } },
{ "type": "Feature", "properties": { "内容": "短期入所生活介護施設ひいなの里【短期入所生活介護】山形県西村山郡河北町谷地字月山堂１２１７－５", "url": "https://www.kaigokensaku.mhlw.go.jp/06/index.php?action_kouhyou_detail_004_kani=true&JigyosyoCd=0672300498-00&ServiceCd=210&Type=search", "url2": "https://miyuki-fukushi.jp" }, "geometry": { "type": "Point", "coordinates": [ 140.308585, 38.4126332 ] } },
{ "type": "Feature", "properties": { "内容": "指定短期入所生活介護事業所眺葉園【短期入所生活介護】山形県西村山郡河北町谷地字東680番地", "url": "https://www.kaigokensaku.mhlw.go.jp/06/index.php?action_kouhyou_detail_004_kani=true&JigyosyoCd=0672300175-00&ServiceCd=210&Type=search", "url2": "http://www.tyoyoen.jp" }, "geometry": { "type": "Point", "coordinates": [ 140.322825837295596, 38.424697808046794 ] } },
{ "type": "Feature", "properties": { "内容": "短期入所サービスケアハイツ西川【短期入所生活介護】山形県西村山郡西川町大字海味548", "url": "https://www.kaigokensaku.mhlw.go.jp/06/index.php?action_kouhyou_detail_004_kani=true&JigyosyoCd=0672300092-00&ServiceCd=210&Type=search", "url2": "https://care-h-n.or.jp/" }, "geometry": { "type": "Point", "coordinates": [ 140.146147299999939, 38.4268296 ] } },
{ "type": "Feature", "properties": { "内容": "ふれあい荘短期入所サービス【短期入所生活介護】山形県西村山郡朝日町大字四ノ沢870", "url": "https://www.kaigokensaku.mhlw.go.jp/06/index.php?action_kouhyou_detail_004_kani=true&JigyosyoCd=0672300118-00&ServiceCd=210&Type=search", "url2": null }, "geometry": { "type": "Point", "coordinates": [ 140.1580358, 38.3062199 ] } },
{ "type": "Feature", "properties": { "内容": "盲特別養護老人ホーム和合荘　指定短期入所生活介護事業所【短期入所生活介護】山形県西村山郡朝日町大字和合422番地1", "url": "https://www.kaigokensaku.mhlw.go.jp/06/index.php?action_kouhyou_detail_004_kani=true&JigyosyoCd=0672300688-00&ServiceCd=210&Type=search", "url2": "https://wagousou.jp" }, "geometry": { "type": "Point", "coordinates": [ 140.166853031877167, 38.328281816662198 ] } },
{ "type": "Feature", "properties": { "内容": "大寿荘指定短期入所生活介護事業所【短期入所生活介護】山形県西村山郡大江町大字藤田８３９－１", "url": "https://www.kaigokensaku.mhlw.go.jp/06/index.php?action_kouhyou_detail_004_kani=true&JigyosyoCd=0672300258-00&ServiceCd=210&Type=search", "url2": "https://www.ysj.or.jp" }, "geometry": { "type": "Point", "coordinates": [ 140.205749500000024, 38.3639111 ] } },
{ "type": "Feature", "properties": { "内容": "老人短期入所事業所らふらんす大江【短期入所生活介護】山形県西村山郡大江町大字左沢１２７７番地", "url": "https://www.kaigokensaku.mhlw.go.jp/06/index.php?action_kouhyou_detail_004_kani=true&JigyosyoCd=0672300324-00&ServiceCd=210&Type=search", "url2": "http://care-net.biz/06/lafrance-ooe/" }, "geometry": { "type": "Point", "coordinates": [ 140.200496, 38.3843888 ] } },
{ "type": "Feature", "properties": { "内容": "指定短期入所生活介護事業所仁風荘【短期入所生活介護】山形県北村山郡大石田町大字大石田甲574", "url": "https://www.kaigokensaku.mhlw.go.jp/06/index.php?action_kouhyou_detail_004_kani=true&JigyosyoCd=0672400033-00&ServiceCd=210&Type=search", "url2": "https://teitenkai.or.jp" }, "geometry": { "type": "Point", "coordinates": [ 140.376070212194833, 38.5992970125276 ] } },
{ "type": "Feature", "properties": { "内容": "指定短期入所生活介護事業所第二仁風荘【短期入所生活介護】山形県北村山郡大石田町大字大石田甲574", "url": "https://www.kaigokensaku.mhlw.go.jp/06/index.php?action_kouhyou_detail_004_kani=true&JigyosyoCd=0672400108-00&ServiceCd=210&Type=search", "url2": "https://keitenkai.or.jp" }, "geometry": { "type": "Point", "coordinates": [ 140.373799346960709, 38.600252925071565 ] } },
{ "type": "Feature", "properties": { "内容": "特別養護老人ホーム「みすぎ荘」【短期入所生活介護】山形県最上郡金山町大字金山字荒屋829番地1", "url": "https://www.kaigokensaku.mhlw.go.jp/06/index.php?action_kouhyou_detail_004_kani=true&JigyosyoCd=0672500303-00&ServiceCd=210&Type=search", "url2": "https://www.kaneyamakouseikai.or.jp/" }, "geometry": { "type": "Point", "coordinates": [ 140.317889, 38.8777591 ] } },
{ "type": "Feature", "properties": { "内容": "紅梅荘指定短期入所生活介護事業所【短期入所生活介護】山形県最上郡最上町大字向町73番地の3", "url": "https://www.kaigokensaku.mhlw.go.jp/06/index.php?action_kouhyou_detail_004_kani=true&JigyosyoCd=0672500428-00&ServiceCd=210&Type=search", "url2": "http://www.koubaisou.or.jp/" }, "geometry": { "type": "Point", "coordinates": [ 140.515391063650583, 38.752200326126633 ] } },
{ "type": "Feature", "properties": { "内容": "紅梅荘(ユニット型)指定短期入所生活介護事業所【短期入所生活介護】山形県最上郡最上町大字向町７３－３", "url": "https://www.kaigokensaku.mhlw.go.jp/06/index.php?action_kouhyou_detail_004_kani=true&JigyosyoCd=0672500873-00&ServiceCd=210&Type=search", "url2": "https://houjyukai-yamagata.jp/" }, "geometry": { "type": "Point", "coordinates": [ 140.515313399999968, 38.752383 ] } },
{ "type": "Feature", "properties": { "内容": "指定短期入所生活介護事業所　特別養護老人ホームえんじゅ荘【短期入所生活介護】山形県最上郡舟形町長者原1712－1", "url": "https://www.kaigokensaku.mhlw.go.jp/06/index.php?action_kouhyou_detail_004_kani=true&JigyosyoCd=0672500220-00&ServiceCd=210&Type=search", "url2": "http://shuwakai.jp/" }, "geometry": { "type": "Point", "coordinates": [ 140.299249499999974, 38.7000731 ] } },
{ "type": "Feature", "properties": { "内容": "地域密着型介護老人福祉施設ほなみ【短期入所生活介護】山形県最上郡舟形町舟形４２番地１", "url": "https://www.kaigokensaku.mhlw.go.jp/06/index.php?action_kouhyou_detail_004_kani=true&JigyosyoCd=0672500790-00&ServiceCd=210&Type=search", "url2": "http://shuwakai.jp/" }, "geometry": { "type": "Point", "coordinates": [ 140.322476, 38.6906888 ] } },
{ "type": "Feature", "properties": { "内容": "短期入所生活介護事業所「悠悠」【短期入所生活介護】山形県最上郡真室川町大字新町４６９番５", "url": "https://www.kaigokensaku.mhlw.go.jp/06/index.php?action_kouhyou_detail_004_kani=true&JigyosyoCd=0672500451-00&ServiceCd=210&Type=search", "url2": null }, "geometry": { "type": "Point", "coordinates": [ 140.2476514, 38.8513072 ] } },
{ "type": "Feature", "properties": { "内容": "福寿荘指定短期入所生活介護事業所【短期入所生活介護】山形県最上郡真室川町大字木ノ下1101番１", "url": "https://www.kaigokensaku.mhlw.go.jp/06/index.php?action_kouhyou_detail_004_kani=true&JigyosyoCd=0672500287-00&ServiceCd=210&Type=search", "url2": null }, "geometry": { "type": "Point", "coordinates": [ 140.240445799999947, 38.8636527 ] } },
{ "type": "Feature", "properties": { "内容": "指定短期入所生活介護事業所　翠明荘【短期入所生活介護】山形県最上郡大蔵村大字清水3137番地60", "url": "https://www.kaigokensaku.mhlw.go.jp/06/index.php?action_kouhyou_detail_004_kani=true&JigyosyoCd=0672500196-00&ServiceCd=210&Type=search", "url2": "http://www.suimeisou.net" }, "geometry": { "type": "Point", "coordinates": [ 140.232496200000014, 38.694706 ] } },
{ "type": "Feature", "properties": { "内容": "ショートステイひめゆり【短期入所生活介護】山形県最上郡鮭川村大字石名坂５８９番７", "url": "https://www.kaigokensaku.mhlw.go.jp/06/index.php?action_kouhyou_detail_004_kani=true&JigyosyoCd=0672500154-00&ServiceCd=210&Type=search", "url2": null }, "geometry": { "type": "Point", "coordinates": [ 140.287418300000013, 38.835377 ] } },
{ "type": "Feature", "properties": { "内容": "まごころ荘ショ－トステイセンタ－【短期入所生活介護】山形県最上郡戸沢村大字蔵岡２７５９番地", "url": "https://www.kaigokensaku.mhlw.go.jp/06/index.php?action_kouhyou_detail_004_kani=true&JigyosyoCd=0672500188-00&ServiceCd=210&Type=search", "url2": "http://www.seiryu-magokoro.or.jp/" }, "geometry": { "type": "Point", "coordinates": [ 140.174456500000019, 38.7350822 ] } },
{ "type": "Feature", "properties": { "内容": "特別養護老人ホーム　はとみね荘【短期入所生活介護】山形県東置賜郡高畠町大字高畠303", "url": "https://www.kaigokensaku.mhlw.go.jp/06/index.php?action_kouhyou_detail_004_kani=true&JigyosyoCd=0672600095-00&ServiceCd=210&Type=search", "url2": "http://www.shoufukai.net/" }, "geometry": { "type": "Point", "coordinates": [ 140.190421199999946, 38.0002755 ] } },
{ "type": "Feature", "properties": { "内容": "特別養護老人ホーム　たかはた荘【短期入所生活介護】山形県東置賜郡高畠町大字高畠３０３番地の１", "url": "https://www.kaigokensaku.mhlw.go.jp/06/index.php?action_kouhyou_detail_004_kani=true&JigyosyoCd=0672600376-00&ServiceCd=210&Type=search", "url2": "http://www.shoufukai.net/" }, "geometry": { "type": "Point", "coordinates": [ 140.190549, 38.0007004 ] } },
{ "type": "Feature", "properties": { "内容": "特別養護老人ホームまほろば荘【短期入所生活介護】山形県東置賜郡高畠町大字福沢705-1", "url": "https://www.kaigokensaku.mhlw.go.jp/06/index.php?action_kouhyou_detail_004_kani=true&JigyosyoCd=0672600061-00&ServiceCd=210&Type=search", "url2": "http://www.shoufukai.net/" }, "geometry": { "type": "Point", "coordinates": [ 140.154223600000023, 37.9958165 ] } },
{ "type": "Feature", "properties": { "内容": "指定短期入所生活介護事業所　そよ風の森【短期入所生活介護】山形県東置賜郡川西町大字時田1417番地", "url": "https://www.kaigokensaku.mhlw.go.jp/06/index.php?action_kouhyou_detail_004_kani=true&JigyosyoCd=0672600129-00&ServiceCd=210&Type=search", "url2": "https://soyokazenomori.jp" }, "geometry": { "type": "Point", "coordinates": [ 140.0637246, 37.9846291 ] } },
{ "type": "Feature", "properties": { "内容": "特別養護老人ホームさいわい荘【短期入所生活介護】山形県西置賜郡小国町大字岩井沢563番地1", "url": "https://www.kaigokensaku.mhlw.go.jp/06/index.php?action_kouhyou_detail_004_kani=true&JigyosyoCd=0672700150-00&ServiceCd=210&Type=search", "url2": "https://saiwaiso.jp/" }, "geometry": { "type": "Point", "coordinates": [ 139.7536692, 38.0582974 ] } },
{ "type": "Feature", "properties": { "内容": "特別養護老人ホーム白光園【短期入所生活介護】山形県西置賜郡白鷹町大字鮎貝１０８番地", "url": "https://www.kaigokensaku.mhlw.go.jp/06/index.php?action_kouhyou_detail_004_kani=true&JigyosyoCd=0672700143-00&ServiceCd=210&Type=search", "url2": "http://www.shirafuku.jp/" }, "geometry": { "type": "Point", "coordinates": [ 140.065472923397692, 38.183177924176015 ] } },
{ "type": "Feature", "properties": { "内容": "短期入所生活介護事業所　マイスカイ中山【短期入所生活介護】西置賜郡白鷹町大字中山２７６０番地", "url": "https://www.kaigokensaku.mhlw.go.jp/06/index.php?action_kouhyou_detail_004_kani=true&JigyosyoCd=0672700382-00&ServiceCd=210&Type=search", "url2": "http://mysky-nakayama.jp" }, "geometry": { "type": "Point", "coordinates": [ 140.147580799999986, 38.2338493 ] } },
{ "type": "Feature", "properties": { "内容": "特別養護老人ホームひめさゆり荘【短期入所生活介護】山形県西置賜郡飯豊町大字添川3514番地82", "url": "https://www.kaigokensaku.mhlw.go.jp/06/index.php?action_kouhyou_detail_004_kani=true&JigyosyoCd=0672700176-00&ServiceCd=210&Type=search", "url2": "http://himesayurisou.jp" }, "geometry": { "type": "Point", "coordinates": [ 140.029609, 38.0297904 ] } },
{ "type": "Feature", "properties": { "内容": "指定短期入所生活介護施設特別養護老人ホームなの花荘【短期入所生活介護】山形県東田川郡三川町大字横山字堤189番地2", "url": "https://www.kaigokensaku.mhlw.go.jp/06/index.php?action_kouhyou_detail_004_kani=true&JigyosyoCd=0673000287-00&ServiceCd=210&Type=search", "url2": "https://www.nanohanaso.or.jp" }, "geometry": { "type": "Point", "coordinates": [ 139.8493075, 38.7817436 ] } },
{ "type": "Feature", "properties": { "内容": "ソラーナ短期入所生活介護事業所【短期入所生活介護】山形県東田川郡庄内町南野字北野100-2", "url": "https://www.kaigokensaku.mhlw.go.jp/06/index.php?action_kouhyou_detail_004_kani=true&JigyosyoCd=0673000196-00&ServiceCd=210&Type=search", "url2": "http://www.minori-f.or.jp/" }, "geometry": { "type": "Point", "coordinates": [ 139.941781985038716, 38.815839287975422 ] } },
{ "type": "Feature", "properties": { "内容": "ラ・ルーナ短期入所生活介護事業所【短期入所生活介護】山形県東田川郡庄内町余目字矢口92-1", "url": "https://www.kaigokensaku.mhlw.go.jp/06/index.php?action_kouhyou_detail_004_kani=true&JigyosyoCd=0673000758-00&ServiceCd=210&Type=search", "url2": "http://www.minori-f.or.jp" }, "geometry": { "type": "Point", "coordinates": [ 139.909053670638997, 38.840925998578626 ] } },
{ "type": "Feature", "properties": { "内容": "山水園指定短期入所生活介護事業所【短期入所生活介護】山形県東田川郡庄内町狩川字笠山４３３番地３", "url": "https://www.kaigokensaku.mhlw.go.jp/06/index.php?action_kouhyou_detail_004_kani=true&JigyosyoCd=0673000170-00&ServiceCd=210&Type=search", "url2": "https://www.tk-kouseiki.or.jp/" }, "geometry": { "type": "Point", "coordinates": [ 139.9681306, 38.7823987 ] } },
{ "type": "Feature", "properties": { "内容": "ショートステイゆうすい【短期入所生活介護】山形県飽海郡遊佐町遊佐字木ノ下２", "url": "https://www.kaigokensaku.mhlw.go.jp/06/index.php?action_kouhyou_detail_004_kani=true&JigyosyoCd=0673200507-00&ServiceCd=210&Type=search", "url2": "https://www.yuzakouseikai.or.jp/yusui/" }, "geometry": { "type": "Point", "coordinates": [ 139.919036900000037, 39.0112776 ] } },
{ "type": "Feature", "properties": { "内容": "ショートステイゆうすい【短期入所生活介護】山形県飽海郡遊佐町遊佐字木ノ下２", "url": "https://www.kaigokensaku.mhlw.go.jp/06/index.php?action_kouhyou_detail_004_kani=true&JigyosyoCd=0673200515-00&ServiceCd=210&Type=search", "url2": "https://www.yuzakouseikai.or.jp/yusui/" }, "geometry": { "type": "Point", "coordinates": [ 139.919036900000037, 39.0112776 ] } },
{ "type": "Feature", "properties": { "内容": "ショートステイにしだて【短期入所生活介護】山形県飽海郡遊佐町吹浦字西楯２３番地の９特別養護老人ホームにしだて", "url": "https://www.kaigokensaku.mhlw.go.jp/06/index.php?action_kouhyou_detail_004_kani=true&JigyosyoCd=0673200549-00&ServiceCd=210&Type=search", "url2": "http://www.yuzakouseikai.or.jp/" }, "geometry": { "type": "Point", "coordinates": [ 139.874639500000058, 39.0766412 ] } },
{ "type": "Feature", "properties": { "内容": "松濤荘指定短期入所生活介護事業所【短期入所生活介護】飽海郡遊佐町菅里字菅野南山７番地１", "url": "https://www.kaigokensaku.mhlw.go.jp/06/index.php?action_kouhyou_detail_004_kani=true&JigyosyoCd=0673200218-00&ServiceCd=210&Type=search", "url2": "http://www.ysj.or.jp/home/matsunami/inndex.html" }, "geometry": { "type": "Point", "coordinates": [ 139.878132, 39.0467673 ] } },
{ "type": "Feature", "properties": { "内容": "松濤荘指定短期入所生活介護事業所【短期入所生活介護】山形県飽海郡遊佐町菅里字菅野南山７番地１", "url": "https://www.kaigokensaku.mhlw.go.jp/06/index.php?action_kouhyou_detail_004_kani=true&JigyosyoCd=0673200556-00&ServiceCd=210&Type=search", "url2": "http://www.ysj.or.jp/home/matsunami/inndex.html" }, "geometry": { "type": "Point", "coordinates": [ 139.878132, 39.0467673 ] } }
]
}
