{
"type": "FeatureCollection",
"name": "geo_06_中学校",
"crs": { "type": "name", "properties": { "name": "urn:ogc:def:crs:EPSG::6668" } },
"features": [
{ "type": "Feature", "properties": { "P29_001": "06201", "P29_002": "C106110000013", "P29_003": "16002", "P29_004": "山形大学附属中学校", "P29_005": "山形県山形市松波2-7-3", "P29_006": "1", "P29_007": "1", "P29_008": "00", "P29_009": null }, "geometry": { "type": "Point", "coordinates": [ 140.360226252201016, 38.240275397648865 ] } },
{ "type": "Feature", "properties": { "P29_001": "06201", "P29_002": "C106220130013", "P29_003": "16002", "P29_004": "山形市立第一中学校", "P29_005": "山形県山形市松波3-1-15", "P29_006": "3", "P29_007": "1", "P29_008": "00", "P29_009": null }, "geometry": { "type": "Point", "coordinates": [ 140.366083710218703, 38.241138270622891 ] } },
{ "type": "Feature", "properties": { "P29_001": "06201", "P29_002": "C106220130022", "P29_003": "16002", "P29_004": "山形市立第二中学校", "P29_005": "山形県山形市西崎62", "P29_006": "3", "P29_007": "1", "P29_008": "00", "P29_009": null }, "geometry": { "type": "Point", "coordinates": [ 140.307484852623304, 38.261533812667182 ] } },
{ "type": "Feature", "properties": { "P29_001": "06201", "P29_002": "C106220130031", "P29_003": "16002", "P29_004": "山形市立第三中学校", "P29_005": "山形県山形市双葉町2-1-10", "P29_006": "3", "P29_007": "1", "P29_008": "00", "P29_009": null }, "geometry": { "type": "Point", "coordinates": [ 140.322101670794666, 38.249000410241116 ] } },
{ "type": "Feature", "properties": { "P29_001": "06201", "P29_002": "C106220130040", "P29_003": "16002", "P29_004": "山形市立第四中学校", "P29_005": "山形県山形市花楯2-10-48", "P29_006": "3", "P29_007": "1", "P29_008": "00", "P29_009": null }, "geometry": { "type": "Point", "coordinates": [ 140.350328561956985, 38.273497679998535 ] } },
{ "type": "Feature", "properties": { "P29_001": "06201", "P29_002": "C106220130059", "P29_003": "16002", "P29_004": "山形市立第五中学校", "P29_005": "山形県山形市薬師町1-14-10", "P29_006": "3", "P29_007": "1", "P29_008": "00", "P29_009": null }, "geometry": { "type": "Point", "coordinates": [ 140.343345884894006, 38.2634160617432 ] } },
{ "type": "Feature", "properties": { "P29_001": "06201", "P29_002": "C106220130068", "P29_003": "16002", "P29_004": "山形市立第六中学校", "P29_005": "山形県山形市南原町2-3-55", "P29_006": "3", "P29_007": "1", "P29_008": "00", "P29_009": null }, "geometry": { "type": "Point", "coordinates": [ 140.340104202042994, 38.235906847662733 ] } },
{ "type": "Feature", "properties": { "P29_001": "06201", "P29_002": "C106220130077", "P29_003": "16002", "P29_004": "山形市立第七中学校", "P29_005": "山形県山形市天神町2520", "P29_006": "3", "P29_007": "1", "P29_008": "00", "P29_009": null }, "geometry": { "type": "Point", "coordinates": [ 140.326777768012789, 38.310079097413265 ] } },
{ "type": "Feature", "properties": { "P29_001": "06201", "P29_002": "C106220130086", "P29_003": "16002", "P29_004": "山形市立第八中学校", "P29_005": "山形県山形市大字村木沢字河原田1620-2", "P29_006": "3", "P29_007": "1", "P29_008": "00", "P29_009": null }, "geometry": { "type": "Point", "coordinates": [ 140.267943745927198, 38.249746166104821 ] } },
{ "type": "Feature", "properties": { "P29_001": "06201", "P29_002": "C106220130095", "P29_003": "16002", "P29_004": "山形市立第九中学校", "P29_005": "山形県山形市大字津金沢字中谷地657", "P29_006": "3", "P29_007": "1", "P29_008": "00", "P29_009": null }, "geometry": { "type": "Point", "coordinates": [ 140.297076033327556, 38.209611015230323 ] } },
{ "type": "Feature", "properties": { "P29_001": "06201", "P29_002": "C106220130102", "P29_003": "16002", "P29_004": "山形市立第十中学校", "P29_005": "山形県山形市若宮1-10-12", "P29_006": "3", "P29_007": "1", "P29_008": "00", "P29_009": null }, "geometry": { "type": "Point", "coordinates": [ 140.310456164670057, 38.227151365974457 ] } },
{ "type": "Feature", "properties": { "P29_001": "06201", "P29_002": "C106220130111", "P29_003": "16002", "P29_004": "山形市立金井中学校", "P29_005": "山形県山形市陣場3-12-25", "P29_006": "3", "P29_007": "1", "P29_008": "00", "P29_009": null }, "geometry": { "type": "Point", "coordinates": [ 140.303853413827596, 38.279419679650495 ] } },
{ "type": "Feature", "properties": { "P29_001": "06201", "P29_002": "C106220130120", "P29_003": "16002", "P29_004": "山形市立高楯中学校", "P29_005": "山形県山形市大字中里38", "P29_006": "3", "P29_007": "1", "P29_008": "00", "P29_009": null }, "geometry": { "type": "Point", "coordinates": [ 140.381986950584889, 38.302390344731371 ] } },
{ "type": "Feature", "properties": { "P29_001": "06201", "P29_002": "C106220130139", "P29_003": "16002", "P29_004": "山形市立山寺中学校", "P29_005": "山形県山形市山寺1650", "P29_006": "3", "P29_007": "1", "P29_008": "00", "P29_009": null }, "geometry": { "type": "Point", "coordinates": [ 140.426662752438602, 38.30943769428395 ] } },
{ "type": "Feature", "properties": { "P29_001": "06201", "P29_002": "C106220130148", "P29_003": "16002", "P29_004": "山形市立蔵王第一中学校", "P29_005": "山形県山形市蔵王南成沢34", "P29_006": "3", "P29_007": "1", "P29_008": "00", "P29_009": null }, "geometry": { "type": "Point", "coordinates": [ 140.316856473368603, 38.196416663333871 ] } },
{ "type": "Feature", "properties": { "P29_001": "06201", "P29_002": "C106220130157", "P29_003": "16002", "P29_004": "山形市立蔵王第二中学校", "P29_005": "山形県山形市蔵王温泉字丈二田727", "P29_006": "3", "P29_007": "1", "P29_008": "00", "P29_009": null }, "geometry": { "type": "Point", "coordinates": [ 140.392842254461129, 38.170389567079511 ] } },
{ "type": "Feature", "properties": { "P29_001": "06202", "P29_002": "C106220230012", "P29_003": "16002", "P29_004": "米沢市立第一中学校", "P29_005": "山形県米沢市駅前4-3-51", "P29_006": "3", "P29_007": "1", "P29_008": "00", "P29_009": null }, "geometry": { "type": "Point", "coordinates": [ 140.120191195599631, 37.912298694686449 ] } },
{ "type": "Feature", "properties": { "P29_001": "06202", "P29_002": "C106220230021", "P29_003": "16002", "P29_004": "米沢市立第二中学校", "P29_005": "山形県米沢市林泉寺2-2-5", "P29_006": "3", "P29_007": "1", "P29_008": "00", "P29_009": null }, "geometry": { "type": "Point", "coordinates": [ 140.099493666071822, 37.903095070621113 ] } },
{ "type": "Feature", "properties": { "P29_001": "06202", "P29_002": "C106220230030", "P29_003": "16002", "P29_004": "米沢市立第三中学校", "P29_005": "山形県米沢市舘山2-4-58", "P29_006": "3", "P29_007": "1", "P29_008": "00", "P29_009": null }, "geometry": { "type": "Point", "coordinates": [ 140.074878245026582, 37.913800854288944 ] } },
{ "type": "Feature", "properties": { "P29_001": "06202", "P29_002": "C106220230049", "P29_003": "16002", "P29_004": "米沢市立第四中学校", "P29_005": "山形県米沢市春日4-2-69", "P29_006": "3", "P29_007": "1", "P29_008": "00", "P29_009": null }, "geometry": { "type": "Point", "coordinates": [ 140.116251949943546, 37.930510071035428 ] } },
{ "type": "Feature", "properties": { "P29_001": "06202", "P29_002": "C106220230058", "P29_003": "16002", "P29_004": "米沢市立第五中学校", "P29_005": "山形県米沢市東大通1-1-82", "P29_006": "3", "P29_007": "1", "P29_008": "00", "P29_009": null }, "geometry": { "type": "Point", "coordinates": [ 140.137611214923055, 37.886374383579934 ] } },
{ "type": "Feature", "properties": { "P29_001": "06202", "P29_002": "C106220230067", "P29_003": "16002", "P29_004": "米沢市立第六中学校", "P29_005": "山形県米沢市六郷町西藤泉160", "P29_006": "3", "P29_007": "1", "P29_008": "00", "P29_009": null }, "geometry": { "type": "Point", "coordinates": [ 140.092259299294568, 37.947975408118872 ] } },
{ "type": "Feature", "properties": { "P29_001": "06202", "P29_002": "C106220230076", "P29_003": "16002", "P29_004": "米沢市立第七中学校", "P29_005": "山形県米沢市大字川井108-3", "P29_006": "3", "P29_007": "1", "P29_008": "00", "P29_009": null }, "geometry": { "type": "Point", "coordinates": [ 140.147183877702361, 37.921220185053045 ] } },
{ "type": "Feature", "properties": { "P29_001": "06203", "P29_002": "C106220330011", "P29_003": "16002", "P29_004": "鶴岡市立鶴岡第一中学校", "P29_005": "山形県鶴岡市道田町1-82", "P29_006": "3", "P29_007": "1", "P29_008": "00", "P29_009": null }, "geometry": { "type": "Point", "coordinates": [ 139.804460831164477, 38.727218131758896 ] } },
{ "type": "Feature", "properties": { "P29_001": "06203", "P29_002": "C106220330020", "P29_003": "16002", "P29_004": "鶴岡市立鶴岡第二中学校", "P29_005": "山形県鶴岡市宝田2-8-34", "P29_006": "3", "P29_007": "1", "P29_008": "00", "P29_009": null }, "geometry": { "type": "Point", "coordinates": [ 139.837957899445314, 38.747446779248612 ] } },
{ "type": "Feature", "properties": { "P29_001": "06203", "P29_002": "C106220330039", "P29_003": "16002", "P29_004": "鶴岡市立鶴岡第三中学校", "P29_005": "山形県鶴岡市城南町25-1", "P29_006": "3", "P29_007": "1", "P29_008": "00", "P29_009": null }, "geometry": { "type": "Point", "coordinates": [ 139.830316898914759, 38.712493596758982 ] } },
{ "type": "Feature", "properties": { "P29_001": "06203", "P29_002": "C106220330048", "P29_003": "16002", "P29_004": "鶴岡市立鶴岡第四中学校", "P29_005": "山形県鶴岡市小真木原町3-1", "P29_006": "3", "P29_007": "1", "P29_008": "00", "P29_009": null }, "geometry": { "type": "Point", "coordinates": [ 139.812149260800908, 38.714442812544114 ] } },
{ "type": "Feature", "properties": { "P29_001": "06203", "P29_002": "C106220330057", "P29_003": "16002", "P29_004": "鶴岡市立鶴岡第五中学校", "P29_005": "山形県鶴岡市大山字若柳271", "P29_006": "3", "P29_007": "1", "P29_008": "00", "P29_009": null }, "geometry": { "type": "Point", "coordinates": [ 139.769771574104851, 38.755177878200698 ] } },
{ "type": "Feature", "properties": { "P29_001": "06203", "P29_002": "C106220330066", "P29_003": "16002", "P29_004": "鶴岡市立豊浦中学校", "P29_005": "山形県鶴岡市三瀬横町33-2", "P29_006": "3", "P29_007": "1", "P29_008": "00", "P29_009": null }, "geometry": { "type": "Point", "coordinates": [ 139.664811553019064, 38.701385575360483 ] } },
{ "type": "Feature", "properties": { "P29_001": "06203", "P29_002": "C106220330075", "P29_003": "16002", "P29_004": "鶴岡市立藤島中学校", "P29_005": "山形県鶴岡市藤島字笹花86-1", "P29_006": "3", "P29_007": "1", "P29_008": "00", "P29_009": null }, "geometry": { "type": "Point", "coordinates": [ 139.906410570349806, 38.768599569372057 ] } },
{ "type": "Feature", "properties": { "P29_001": "06203", "P29_002": "C106220330084", "P29_003": "16002", "P29_004": "鶴岡市立羽黒中学校", "P29_005": "山形県鶴岡市羽黒町荒川字宮東28-1", "P29_006": "3", "P29_007": "1", "P29_008": "00", "P29_009": null }, "geometry": { "type": "Point", "coordinates": [ 139.904263835630616, 38.718902299510162 ] } },
{ "type": "Feature", "properties": { "P29_001": "06203", "P29_002": "C106220330093", "P29_003": "16002", "P29_004": "鶴岡市立櫛引中学校", "P29_005": "山形県鶴岡市上山添字文栄86", "P29_006": "3", "P29_007": "1", "P29_008": "00", "P29_009": null }, "geometry": { "type": "Point", "coordinates": [ 139.849801373247715, 38.680485957837931 ] } },
{ "type": "Feature", "properties": { "P29_001": "06203", "P29_002": "C106220330100", "P29_003": "16002", "P29_004": "鶴岡市立朝日中学校", "P29_005": "山形県鶴岡市本郷字笹目50", "P29_006": "3", "P29_007": "1", "P29_008": "00", "P29_009": null }, "geometry": { "type": "Point", "coordinates": [ 139.832281011122063, 38.603919872234137 ] } },
{ "type": "Feature", "properties": { "P29_001": "06203", "P29_002": "C106220330119", "P29_003": "16002", "P29_004": "鶴岡市立温海中学校", "P29_005": "山形県鶴岡市大岩川字黒岩35", "P29_006": "3", "P29_007": "1", "P29_008": "00", "P29_009": null }, "geometry": { "type": "Point", "coordinates": [ 139.592137485372291, 38.603639907222551 ] } },
{ "type": "Feature", "properties": { "P29_001": "06204", "P29_002": "C106220430010", "P29_003": "16002", "P29_004": "酒田市立第一中学校", "P29_005": "山形県酒田市住吉町10-70", "P29_006": "3", "P29_007": "1", "P29_008": "00", "P29_009": null }, "geometry": { "type": "Point", "coordinates": [ 139.835461446455042, 38.929168403192946 ] } },
{ "type": "Feature", "properties": { "P29_001": "06204", "P29_002": "C106220430029", "P29_003": "16002", "P29_004": "酒田市立第二中学校", "P29_005": "山形県酒田市新橋4-19-3", "P29_006": "3", "P29_007": "1", "P29_008": "00", "P29_009": null }, "geometry": { "type": "Point", "coordinates": [ 139.854160745169878, 38.91660872430225 ] } },
{ "type": "Feature", "properties": { "P29_001": "06204", "P29_002": "C106220430038", "P29_003": "16002", "P29_004": "酒田市立第三中学校", "P29_005": "山形県酒田市松原南13-1", "P29_006": "3", "P29_007": "1", "P29_008": "00", "P29_009": null }, "geometry": { "type": "Point", "coordinates": [ 139.852467005347449, 38.901200999063093 ] } },
{ "type": "Feature", "properties": { "P29_001": "06204", "P29_002": "C106220430047", "P29_003": "16002", "P29_004": "酒田市立第四中学校", "P29_005": "山形県酒田市錦町1-32-1", "P29_006": "3", "P29_007": "1", "P29_008": "00", "P29_009": null }, "geometry": { "type": "Point", "coordinates": [ 139.835530968098368, 38.881867172121673 ] } },
{ "type": "Feature", "properties": { "P29_001": "06204", "P29_002": "C106220430056", "P29_003": "16002", "P29_004": "酒田市立第六中学校", "P29_005": "山形県酒田市下安町13-1", "P29_006": "3", "P29_007": "1", "P29_008": "00", "P29_009": null }, "geometry": { "type": "Point", "coordinates": [ 139.855267803214048, 38.928278688088341 ] } },
{ "type": "Feature", "properties": { "P29_001": "06204", "P29_002": "C106220430065", "P29_003": "16002", "P29_004": "酒田市立飛島中学校", "P29_005": "山形県酒田市飛島字中村甲283", "P29_006": "3", "P29_007": "9", "P29_008": "00", "P29_009": null }, "geometry": { "type": "Point", "coordinates": [ 139.558872001311641, 39.195881997784461 ] } },
{ "type": "Feature", "properties": { "P29_001": "06204", "P29_002": "C106220430074", "P29_003": "16002", "P29_004": "酒田市立鳥海八幡中学校", "P29_005": "山形県酒田市小泉字前田91-1", "P29_006": "3", "P29_007": "1", "P29_008": "00", "P29_009": null }, "geometry": { "type": "Point", "coordinates": [ 139.935962841331559, 38.968469613209884 ] } },
{ "type": "Feature", "properties": { "P29_001": "06204", "P29_002": "C106220430083", "P29_003": "16002", "P29_004": "酒田市立東部中学校", "P29_005": "山形県酒田市飛鳥字堂之後30", "P29_006": "3", "P29_007": "1", "P29_008": "00", "P29_009": null }, "geometry": { "type": "Point", "coordinates": [ 139.931649001594849, 38.889748001940369 ] } },
{ "type": "Feature", "properties": { "P29_001": "06205", "P29_002": "C106220530019", "P29_003": "16002", "P29_004": "新庄市立新庄中学校", "P29_005": "山形県新庄市堀端町5-81", "P29_006": "3", "P29_007": "1", "P29_008": "00", "P29_009": null }, "geometry": { "type": "Point", "coordinates": [ 140.295738277304935, 38.768384808761731 ] } },
{ "type": "Feature", "properties": { "P29_001": "06205", "P29_002": "C106220530037", "P29_003": "16002", "P29_004": "新庄市立日新中学校", "P29_005": "山形県新庄市松本136", "P29_006": "3", "P29_007": "1", "P29_008": "00", "P29_009": null }, "geometry": { "type": "Point", "coordinates": [ 140.297151228962235, 38.753681376535113 ] } },
{ "type": "Feature", "properties": { "P29_001": "06205", "P29_002": "C106220530046", "P29_003": "16002", "P29_004": "新庄市立八向中学校", "P29_005": "山形県新庄市大字升形1647-24", "P29_006": "3", "P29_007": "1", "P29_008": "00", "P29_009": null }, "geometry": { "type": "Point", "coordinates": [ 140.240515000654227, 38.740688729651517 ] } },
{ "type": "Feature", "properties": { "P29_001": "06206", "P29_002": "C106220630018", "P29_003": "16002", "P29_004": "寒河江市立陵東中学校", "P29_005": "山形県寒河江市大字西根430", "P29_006": "3", "P29_007": "1", "P29_008": "00", "P29_009": null }, "geometry": { "type": "Point", "coordinates": [ 140.278250008141782, 38.393014612911202 ] } },
{ "type": "Feature", "properties": { "P29_001": "06206", "P29_002": "C106220630027", "P29_003": "16002", "P29_004": "寒河江市立陵南中学校", "P29_005": "山形県寒河江市内ノ袋1-11-1", "P29_006": "3", "P29_007": "1", "P29_008": "00", "P29_009": null }, "geometry": { "type": "Point", "coordinates": [ 140.261157193187586, 38.372412585404469 ] } },
{ "type": "Feature", "properties": { "P29_001": "06206", "P29_002": "C106220630036", "P29_003": "16002", "P29_004": "寒河江市立陵西中学校", "P29_005": "山形県寒河江市大字八鍬字富沢836", "P29_006": "3", "P29_007": "1", "P29_008": "00", "P29_009": null }, "geometry": { "type": "Point", "coordinates": [ 140.240049701314973, 38.404738616195893 ] } },
{ "type": "Feature", "properties": { "P29_001": "06207", "P29_002": "C106220730017", "P29_003": "16002", "P29_004": "上山市立宮川中学校", "P29_005": "山形県上山市牧野字中原1945-2", "P29_006": "3", "P29_007": "1", "P29_008": "00", "P29_009": null }, "geometry": { "type": "Point", "coordinates": [ 140.299999715481022, 38.112101959694947 ] } },
{ "type": "Feature", "properties": { "P29_001": "06207", "P29_002": "C106220730026", "P29_003": "16002", "P29_004": "上山市立南中学校", "P29_005": "山形県上山市長清水3-7-1", "P29_006": "3", "P29_007": "1", "P29_008": "00", "P29_009": null }, "geometry": { "type": "Point", "coordinates": [ 140.278432410576499, 38.141090535431964 ] } },
{ "type": "Feature", "properties": { "P29_001": "06207", "P29_002": "C106220730035", "P29_003": "16002", "P29_004": "上山市立北中学校", "P29_005": "山形県上山市泉川字松ノ木110", "P29_006": "3", "P29_007": "1", "P29_008": "00", "P29_009": null }, "geometry": { "type": "Point", "coordinates": [ 140.290616845766891, 38.160226550947499 ] } },
{ "type": "Feature", "properties": { "P29_001": "06208", "P29_002": "C106220830016", "P29_003": "16002", "P29_004": "村山市立楯岡中学校", "P29_005": "山形県村山市楯岡新高田11-3", "P29_006": "3", "P29_007": "1", "P29_008": "00", "P29_009": null }, "geometry": { "type": "Point", "coordinates": [ 140.386842881586205, 38.486421162200209 ] } },
{ "type": "Feature", "properties": { "P29_001": "06208", "P29_002": "C106220830025", "P29_003": "16002", "P29_004": "村山市立葉山中学校", "P29_005": "山形県村山市大字稲下1757", "P29_006": "3", "P29_007": "1", "P29_008": "00", "P29_009": null }, "geometry": { "type": "Point", "coordinates": [ 140.330865682869216, 38.482036340096869 ] } },
{ "type": "Feature", "properties": { "P29_001": "06209", "P29_002": "C106220930015", "P29_003": "16002", "P29_004": "長井市立長井南中学校", "P29_005": "山形県長井市泉1819-1", "P29_006": "3", "P29_007": "1", "P29_008": "00", "P29_009": null }, "geometry": { "type": "Point", "coordinates": [ 140.035128830252347, 38.087644074890044 ] } },
{ "type": "Feature", "properties": { "P29_001": "06209", "P29_002": "C106220930024", "P29_003": "16002", "P29_004": "長井市立長井北中学校", "P29_005": "山形県長井市成田2883", "P29_006": "3", "P29_007": "1", "P29_008": "00", "P29_009": null }, "geometry": { "type": "Point", "coordinates": [ 140.027007563164915, 38.120882725204289 ] } },
{ "type": "Feature", "properties": { "P29_001": "06210", "P29_002": "C106221030012", "P29_003": "16002", "P29_004": "天童市立第一中学校", "P29_005": "山形県天童市大字原町10-1", "P29_006": "3", "P29_007": "1", "P29_008": "00", "P29_009": null }, "geometry": { "type": "Point", "coordinates": [ 140.383624455748986, 38.343915154018525 ] } },
{ "type": "Feature", "properties": { "P29_001": "06210", "P29_002": "C106221030021", "P29_003": "16002", "P29_004": "天童市立第二中学校", "P29_005": "山形県天童市久野本1674", "P29_006": "3", "P29_007": "1", "P29_008": "00", "P29_009": null }, "geometry": { "type": "Point", "coordinates": [ 140.386492927553007, 38.373003183025773 ] } },
{ "type": "Feature", "properties": { "P29_001": "06210", "P29_002": "C106221030030", "P29_003": "16002", "P29_004": "天童市立第三中学校", "P29_005": "山形県天童市矢野目1285", "P29_006": "3", "P29_007": "1", "P29_008": "00", "P29_009": null }, "geometry": { "type": "Point", "coordinates": [ 140.353915851809887, 38.357327951227596 ] } },
{ "type": "Feature", "properties": { "P29_001": "06210", "P29_002": "C106221030049", "P29_003": "16002", "P29_004": "天童市立第四中学校", "P29_005": "山形県天童市柏木町1-3-1", "P29_006": "3", "P29_007": "1", "P29_008": "00", "P29_009": null }, "geometry": { "type": "Point", "coordinates": [ 140.370089304733625, 38.367772831706112 ] } },
{ "type": "Feature", "properties": { "P29_001": "06211", "P29_002": "C106221130011", "P29_003": "16002", "P29_004": "東根市立第一中学校", "P29_005": "山形県東根市鷺の宿1-1", "P29_006": "3", "P29_007": "1", "P29_008": "00", "P29_009": null }, "geometry": { "type": "Point", "coordinates": [ 140.392259002084103, 38.450161000408009 ] } },
{ "type": "Feature", "properties": { "P29_001": "06211", "P29_002": "C106221130020", "P29_003": "16002", "P29_004": "東根市立第二中学校", "P29_005": "山形県東根市蟹沢950-15", "P29_006": "3", "P29_007": "1", "P29_008": "00", "P29_009": null }, "geometry": { "type": "Point", "coordinates": [ 140.369832194166179, 38.445772210532169 ] } },
{ "type": "Feature", "properties": { "P29_001": "06211", "P29_002": "C106221130039", "P29_003": "16002", "P29_004": "東根市立第三中学校", "P29_005": "山形県東根市泉郷乙1922", "P29_006": "3", "P29_007": "1", "P29_008": "00", "P29_009": null }, "geometry": { "type": "Point", "coordinates": [ 140.437177825898772, 38.420202807343763 ] } },
{ "type": "Feature", "properties": { "P29_001": "06211", "P29_002": "C106221130048", "P29_003": "16002", "P29_004": "東根市立大富中学校", "P29_005": "山形県東根市柏原3-1-1", "P29_006": "3", "P29_007": "1", "P29_008": "00", "P29_009": null }, "geometry": { "type": "Point", "coordinates": [ 140.362407661167595, 38.404638311948929 ] } },
{ "type": "Feature", "properties": { "P29_001": "06211", "P29_002": "C106221130057", "P29_003": "16002", "P29_004": "東根市立神町中学校", "P29_005": "山形県東根市神町北5-11-1", "P29_006": "3", "P29_007": "1", "P29_008": "00", "P29_009": null }, "geometry": { "type": "Point", "coordinates": [ 140.388030292208384, 38.413743276588932 ] } },
{ "type": "Feature", "properties": { "P29_001": "06211", "P29_002": "C106221130066", "P29_003": "16002", "P29_004": "山形県立東桜学館中学校", "P29_005": "山形県東根市中央南1-7-1", "P29_006": "2", "P29_007": "1", "P29_008": "00", "P29_009": null }, "geometry": { "type": "Point", "coordinates": [ 140.390121437162861, 38.429238228892153 ] } },
{ "type": "Feature", "properties": { "P29_001": "06212", "P29_002": "C106221230010", "P29_003": "16002", "P29_004": "尾花沢市立福原中学校", "P29_005": "山形県尾花沢市大字野黒沢208", "P29_006": "3", "P29_007": "1", "P29_008": "00", "P29_009": null }, "geometry": { "type": "Point", "coordinates": [ 140.377262339149581, 38.638563362095212 ] } },
{ "type": "Feature", "properties": { "P29_001": "06212", "P29_002": "C106221230029", "P29_003": "16002", "P29_004": "尾花沢市立尾花沢中学校", "P29_005": "山形県尾花沢市横町2-2-80", "P29_006": "3", "P29_007": "1", "P29_008": "00", "P29_009": null }, "geometry": { "type": "Point", "coordinates": [ 140.409415700104688, 38.60868467842338 ] } },
{ "type": "Feature", "properties": { "P29_001": "06213", "P29_002": "C106221330019", "P29_003": "16002", "P29_004": "南陽市立沖郷中学校", "P29_005": "山形県南陽市高梨594-3", "P29_006": "3", "P29_007": "1", "P29_008": "00", "P29_009": null }, "geometry": { "type": "Point", "coordinates": [ 140.141045576197541, 38.044736170904578 ] } },
{ "type": "Feature", "properties": { "P29_001": "06213", "P29_002": "C106221330028", "P29_003": "16002", "P29_004": "南陽市立赤湯中学校", "P29_005": "山形県南陽市椚塚1815", "P29_006": "3", "P29_007": "1", "P29_008": "00", "P29_009": null }, "geometry": { "type": "Point", "coordinates": [ 140.158555007987928, 38.046913938280916 ] } },
{ "type": "Feature", "properties": { "P29_001": "06213", "P29_002": "C106221330037", "P29_003": "16002", "P29_004": "南陽市立宮内中学校", "P29_005": "山形県南陽市宮内2303-2", "P29_006": "3", "P29_007": "1", "P29_008": "00", "P29_009": null }, "geometry": { "type": "Point", "coordinates": [ 140.143647079312615, 38.076433530641687 ] } },
{ "type": "Feature", "properties": { "P29_001": "06301", "P29_002": "C106230130012", "P29_003": "16002", "P29_004": "山辺町立山辺中学校", "P29_005": "山形県東村山郡山辺町清水1-1", "P29_006": "3", "P29_007": "1", "P29_008": "00", "P29_009": null }, "geometry": { "type": "Point", "coordinates": [ 140.263235897164918, 38.286195800452745 ] } },
{ "type": "Feature", "properties": { "P29_001": "06302", "P29_002": "C106230230011", "P29_003": "16002", "P29_004": "中山町立中山中学校", "P29_005": "山形県東村山郡中山町大字長崎4880", "P29_006": "3", "P29_007": "1", "P29_008": "00", "P29_009": null }, "geometry": { "type": "Point", "coordinates": [ 140.270516309688986, 38.338389898481935 ] } },
{ "type": "Feature", "properties": { "P29_001": "06321", "P29_002": "C106232130018", "P29_003": "16002", "P29_004": "河北町立河北中学校", "P29_005": "山形県西村山郡河北町谷地中央4-12-1", "P29_006": "3", "P29_007": "1", "P29_008": "00", "P29_009": null }, "geometry": { "type": "Point", "coordinates": [ 140.311113532876135, 38.418656325255242 ] } },
{ "type": "Feature", "properties": { "P29_001": "06322", "P29_002": "C106232230017", "P29_003": "16002", "P29_004": "西川町立西川中学校", "P29_005": "山形県西村山郡西川町大字吉川227-28", "P29_006": "3", "P29_007": "1", "P29_008": "00", "P29_009": null }, "geometry": { "type": "Point", "coordinates": [ 140.159671939065305, 38.420312236225783 ] } },
{ "type": "Feature", "properties": { "P29_001": "06323", "P29_002": "C106232330016", "P29_003": "16002", "P29_004": "朝日町立朝日中学校", "P29_005": "山形県西村山郡朝日町大字宮宿108", "P29_006": "3", "P29_007": "1", "P29_008": "00", "P29_009": null }, "geometry": { "type": "Point", "coordinates": [ 140.15953738579293, 38.304441030923819 ] } },
{ "type": "Feature", "properties": { "P29_001": "06324", "P29_002": "C106232430015", "P29_003": "16002", "P29_004": "大江町立大江中学校", "P29_005": "山形県西村山郡大江町本郷己605", "P29_006": "3", "P29_007": "1", "P29_008": "00", "P29_009": null }, "geometry": { "type": "Point", "coordinates": [ 140.192735657647177, 38.373787763408941 ] } },
{ "type": "Feature", "properties": { "P29_001": "06324", "P29_002": "C106232430024", "P29_003": "16002", "P29_004": "大江町立大江中学校藤田の丘分校", "P29_005": "山形県西村山郡大江町藤田837-4", "P29_006": "3", "P29_007": "1", "P29_008": "00", "P29_009": null }, "geometry": { "type": "Point", "coordinates": [ 140.206655566209207, 38.363445837860993 ] } },
{ "type": "Feature", "properties": { "P29_001": "06341", "P29_002": "C106234130014", "P29_003": "16002", "P29_004": "大石田町立大石田中学校", "P29_005": "山形県北村山郡大石田町大石田丁218-1", "P29_006": "3", "P29_007": "1", "P29_008": "00", "P29_009": null }, "geometry": { "type": "Point", "coordinates": [ 140.377355607803622, 38.591829136119557 ] } },
{ "type": "Feature", "properties": { "P29_001": "06361", "P29_002": "C106236130019", "P29_003": "16002", "P29_004": "金山町立金山中学校", "P29_005": "山形県最上郡金山町大字金山641", "P29_006": "3", "P29_007": "1", "P29_008": "00", "P29_009": null }, "geometry": { "type": "Point", "coordinates": [ 140.3338112082875, 38.88259951520547 ] } },
{ "type": "Feature", "properties": { "P29_001": "06362", "P29_002": "C106236230018", "P29_003": "16002", "P29_004": "最上町立最上中学校", "P29_005": "山形県最上郡最上町向町760", "P29_006": "3", "P29_007": "1", "P29_008": "00", "P29_009": null }, "geometry": { "type": "Point", "coordinates": [ 140.521302192604367, 38.759557256742191 ] } },
{ "type": "Feature", "properties": { "P29_001": "06363", "P29_002": "C106236330017", "P29_003": "16002", "P29_004": "舟形町立舟形中学校", "P29_005": "山形県最上郡舟形町舟形555-4", "P29_006": "3", "P29_007": "1", "P29_008": "00", "P29_009": null }, "geometry": { "type": "Point", "coordinates": [ 140.310142632663087, 38.688617678424706 ] } },
{ "type": "Feature", "properties": { "P29_001": "06364", "P29_002": "C106236430016", "P29_003": "16002", "P29_004": "真室川町立真室川中学校", "P29_005": "山形県最上郡真室川町大沢5016-26", "P29_006": "3", "P29_007": "1", "P29_008": "00", "P29_009": null }, "geometry": { "type": "Point", "coordinates": [ 140.236166867437191, 38.866857457177744 ] } },
{ "type": "Feature", "properties": { "P29_001": "06365", "P29_002": "C106236530015", "P29_003": "16002", "P29_004": "大蔵村立大蔵中学校", "P29_005": "山形県最上郡大蔵村清水2722", "P29_006": "3", "P29_007": "1", "P29_008": "00", "P29_009": null }, "geometry": { "type": "Point", "coordinates": [ 140.233296288410514, 38.706103982014248 ] } },
{ "type": "Feature", "properties": { "P29_001": "06366", "P29_002": "C106236630014", "P29_003": "16002", "P29_004": "鮭川村立鮭川中学校", "P29_005": "山形県最上郡鮭川村大字庭月2510-1", "P29_006": "3", "P29_007": "1", "P29_008": "00", "P29_009": null }, "geometry": { "type": "Point", "coordinates": [ 140.229101363914509, 38.831196170410813 ] } },
{ "type": "Feature", "properties": { "P29_001": "06381", "P29_002": "C106238130015", "P29_003": "16002", "P29_004": "高畠町立高畠中学校", "P29_005": "山形県東置賜郡高畠町大字相森550", "P29_006": "3", "P29_007": "1", "P29_008": "00", "P29_009": null }, "geometry": { "type": "Point", "coordinates": [ 140.179089996208916, 37.998077997329844 ] } },
{ "type": "Feature", "properties": { "P29_001": "06382", "P29_002": "C106238230014", "P29_003": "16002", "P29_004": "川西町立川西中学校", "P29_005": "山形県東置賜郡川西町中小松2493", "P29_006": "3", "P29_007": "1", "P29_008": "00", "P29_009": null }, "geometry": { "type": "Point", "coordinates": [ 140.055674562758043, 38.011579271361043 ] } },
{ "type": "Feature", "properties": { "P29_001": "06401", "P29_002": "C106240130011", "P29_003": "16002", "P29_004": "小国町立叶水中学校", "P29_005": "山形県西置賜郡小国町大字叶水301", "P29_006": "3", "P29_007": "1", "P29_008": "00", "P29_009": null }, "geometry": { "type": "Point", "coordinates": [ 139.801819497522729, 37.989096982898829 ] } },
{ "type": "Feature", "properties": { "P29_001": "06401", "P29_002": "C106240130020", "P29_003": "16002", "P29_004": "小国町立小国中学校", "P29_005": "山形県西置賜郡小国町岩井沢719", "P29_006": "3", "P29_007": "1", "P29_008": "00", "P29_009": null }, "geometry": { "type": "Point", "coordinates": [ 139.74930513291352, 38.055425614242147 ] } },
{ "type": "Feature", "properties": { "P29_001": "06402", "P29_002": "C106240230010", "P29_003": "16002", "P29_004": "白鷹町立白鷹中学校", "P29_005": "山形県西置賜郡白鷹町大字荒砥乙1158", "P29_006": "3", "P29_007": "1", "P29_008": "00", "P29_009": null }, "geometry": { "type": "Point", "coordinates": [ 140.100644389321587, 38.178344295893652 ] } },
{ "type": "Feature", "properties": { "P29_001": "06403", "P29_002": "C106240330019", "P29_003": "16002", "P29_004": "飯豊町立飯豊中学校", "P29_005": "山形県西置賜郡飯豊町椿1862", "P29_006": "3", "P29_007": "1", "P29_008": "00", "P29_009": null }, "geometry": { "type": "Point", "coordinates": [ 139.987764009172338, 38.04267458507973 ] } },
{ "type": "Feature", "properties": { "P29_001": "06426", "P29_002": "C106242630012", "P29_003": "16002", "P29_004": "三川町立三川中学校", "P29_005": "山形県東田川郡三川町大字横山字堤105", "P29_006": "3", "P29_007": "1", "P29_008": "00", "P29_009": null }, "geometry": { "type": "Point", "coordinates": [ 139.846991614199197, 38.786368204441501 ] } },
{ "type": "Feature", "properties": { "P29_001": "06428", "P29_002": "C106242830010", "P29_003": "16002", "P29_004": "庄内町立立川中学校", "P29_005": "山形県東田川郡庄内町狩川字松葉1-1", "P29_006": "3", "P29_007": "1", "P29_008": "00", "P29_009": null }, "geometry": { "type": "Point", "coordinates": [ 139.966979117268124, 38.788438096287436 ] } },
{ "type": "Feature", "properties": { "P29_001": "06428", "P29_002": "C106242830029", "P29_003": "16002", "P29_004": "庄内町立余目中学校", "P29_005": "山形県東田川郡庄内町余目字猿田30", "P29_006": "3", "P29_007": "1", "P29_008": "00", "P29_009": null }, "geometry": { "type": "Point", "coordinates": [ 139.902881691251878, 38.846621577586355 ] } },
{ "type": "Feature", "properties": { "P29_001": "06461", "P29_002": "C106246130018", "P29_003": "16002", "P29_004": "遊佐町立遊佐中学校", "P29_005": "山形県飽海郡遊佐町小原田字上川原18-1", "P29_006": "3", "P29_007": "1", "P29_008": "00", "P29_009": null }, "geometry": { "type": "Point", "coordinates": [ 139.929374324656322, 39.014623774074394 ] } }
]
}
