{
"type": "FeatureCollection",
"name": "geo_06_特別支援学校",
"crs": { "type": "name", "properties": { "name": "urn:ogc:def:crs:EPSG::6668" } },
"features": [
{ "type": "Feature", "properties": { "P29_001": "06201", "P29_002": "E106110000018", "P29_003": "16012", "P29_004": "山形大学附属特別支援学校", "P29_005": "山形県山形市飯田西3-2-55", "P29_006": "1", "P29_007": "0", "P29_008": "00", "P29_009": null }, "geometry": { "type": "Point", "coordinates": [ 140.318078800399832, 38.213277078118658 ] } },
{ "type": "Feature", "properties": { "P29_001": "06201", "P29_002": "E106220160011", "P29_003": "16012", "P29_004": "山形県立山形聾学校", "P29_005": "山形県山形市谷柏20", "P29_006": "2", "P29_007": "0", "P29_008": "00", "P29_009": null }, "geometry": { "type": "Point", "coordinates": [ 140.295758161190406, 38.212401478954931 ] } },
{ "type": "Feature", "properties": { "P29_001": "06201", "P29_002": "E106220160020", "P29_003": "16012", "P29_004": "山形県立山形養護学校", "P29_005": "山形県山形市行才116", "P29_006": "2", "P29_007": "0", "P29_008": "00", "P29_009": null }, "geometry": { "type": "Point", "coordinates": [ 140.309777539410788, 38.289386371423646 ] } },
{ "type": "Feature", "properties": { "P29_001": "06201", "P29_002": "E106220160039", "P29_003": "16012", "P29_004": "山形県立村山特別支援学校", "P29_005": "山形県山形市大字谷柏元下谷柏43", "P29_006": "2", "P29_007": "0", "P29_008": "00", "P29_009": null }, "geometry": { "type": "Point", "coordinates": [ 140.296813501758237, 38.212943405765081 ] } },
{ "type": "Feature", "properties": { "P29_001": "06201", "P29_002": "E106220160048", "P29_003": "16012", "P29_004": "山形県立村山特別支援学校山形校", "P29_005": "山形県山形市東原町1-1-9", "P29_006": "2", "P29_007": "0", "P29_008": "00", "P29_009": null }, "geometry": { "type": "Point", "coordinates": [ 140.345640336215808, 38.247081931069836 ] } },
{ "type": "Feature", "properties": { "P29_001": "06202", "P29_002": "E106220260010", "P29_003": "16012", "P29_004": "山形県立米沢養護学校", "P29_005": "山形県米沢市太田町4-1-102", "P29_006": "2", "P29_007": "0", "P29_008": "00", "P29_009": null }, "geometry": { "type": "Point", "coordinates": [ 140.109240872965643, 37.892763269046974 ] } },
{ "type": "Feature", "properties": { "P29_001": "06203", "P29_002": "E106220360019", "P29_003": "16012", "P29_004": "山形県立鶴岡養護学校", "P29_005": "山形県鶴岡市大塚町5-44", "P29_006": "2", "P29_007": "0", "P29_008": "00", "P29_009": null }, "geometry": { "type": "Point", "coordinates": [ 139.810167438157862, 38.739048113847048 ] } },
{ "type": "Feature", "properties": { "P29_001": "06203", "P29_002": "E106220360028", "P29_003": "16012", "P29_004": "山形県立鶴岡高等養護学校", "P29_005": "山形県鶴岡市稲生1-20-33", "P29_006": "2", "P29_007": "0", "P29_008": "00", "P29_009": null }, "geometry": { "type": "Point", "coordinates": [ 139.807102012657538, 38.714261965873305 ] } },
{ "type": "Feature", "properties": { "P29_001": "06207", "P29_002": "E106220370035", "P29_003": "16012", "P29_004": "山形県立上山高等養護学校", "P29_005": "山形県上山市宮脇600", "P29_006": "2", "P29_007": "0", "P29_008": "00", "P29_009": null }, "geometry": { "type": "Point", "coordinates": [ 140.281597930311818, 38.140102869310809 ] } },
{ "type": "Feature", "properties": { "P29_001": "06204", "P29_002": "E106220460018", "P29_003": "16012", "P29_004": "山形県立酒田特別支援学校", "P29_005": "山形県酒田市宮海字新林307", "P29_006": "2", "P29_007": "0", "P29_008": "00", "P29_009": null }, "geometry": { "type": "Point", "coordinates": [ 139.844312245796033, 38.954193362947656 ] } },
{ "type": "Feature", "properties": { "P29_001": "06205", "P29_002": "E106220560017", "P29_003": "16012", "P29_004": "山形県立新庄養護学校", "P29_005": "山形県新庄市金沢字金沢山1894-4", "P29_006": "2", "P29_007": "0", "P29_008": "00", "P29_009": null }, "geometry": { "type": "Point", "coordinates": [ 140.317258966637496, 38.750423147089975 ] } },
{ "type": "Feature", "properties": { "P29_001": "06206", "P29_002": "E106220660016", "P29_003": "16012", "P29_004": "山形県立楯岡特別支援学校寒河江校", "P29_005": "山形県寒河江市大字米沢643-2", "P29_006": "2", "P29_007": "0", "P29_008": "00", "P29_009": null }, "geometry": { "type": "Point", "coordinates": [ 140.242327397056272, 38.401330301573246 ] } },
{ "type": "Feature", "properties": { "P29_001": "06207", "P29_002": "E106220760015", "P29_003": "16012", "P29_004": "山形県立山形盲学校", "P29_005": "山形県上山市金谷字金ヶ瀬1111", "P29_006": "2", "P29_007": "0", "P29_008": "00", "P29_009": null }, "geometry": { "type": "Point", "coordinates": [ 140.300793089682884, 38.170322451669286 ] } },
{ "type": "Feature", "properties": { "P29_001": "06207", "P29_002": "E106220760024", "P29_003": "16012", "P29_004": "山形県立ゆきわり養護学校", "P29_005": "山形県上山市河崎3-7-1", "P29_006": "2", "P29_007": "0", "P29_008": "00", "P29_009": null }, "geometry": { "type": "Point", "coordinates": [ 140.262982129996061, 38.151185182456643 ] } },
{ "type": "Feature", "properties": { "P29_001": "06208", "P29_002": "E106220860014", "P29_003": "16012", "P29_004": "山形県立楯岡特別支援学校", "P29_005": "山形県村山市楯岡北町1-8-1", "P29_006": "2", "P29_007": "0", "P29_008": "00", "P29_009": null }, "geometry": { "type": "Point", "coordinates": [ 140.393638757219549, 38.500469971373697 ] } },
{ "type": "Feature", "properties": { "P29_001": "06209", "P29_002": "E106220960013", "P29_003": "16012", "P29_004": "山形県立米沢養護学校長井校", "P29_005": "山形県長井市歌丸976", "P29_006": "2", "P29_007": "0", "P29_008": "00", "P29_009": null }, "geometry": { "type": "Point", "coordinates": [ 140.042237801586481, 38.069301958135831 ] } },
{ "type": "Feature", "properties": { "P29_001": "06209", "P29_002": "E106220960022", "P29_003": "16012", "P29_004": "山形県立米沢養護学校西置賜校", "P29_005": "山形県長井市小出3770-1", "P29_006": "2", "P29_007": "0", "P29_008": "00", "P29_009": null }, "geometry": { "type": "Point", "coordinates": [ 140.035858928647428, 38.089354938770583 ] } },
{ "type": "Feature", "properties": { "P29_001": "06210", "P29_002": "E106221060010", "P29_003": "16012", "P29_004": "山形県立村山特別支援学校天童校", "P29_005": "山形県天童市貫津591", "P29_006": "2", "P29_007": "0", "P29_008": "00", "P29_009": null }, "geometry": { "type": "Point", "coordinates": [ 140.39152239954322, 38.354810118245325 ] } },
{ "type": "Feature", "properties": { "P29_001": "06324", "P29_002": "E106232460013", "P29_003": "16012", "P29_004": "山形県立楯岡特別支援学校大江校", "P29_005": "山形県西村山郡大江町大字三郷丙1403-1", "P29_006": "2", "P29_007": "0", "P29_008": "00", "P29_009": null }, "geometry": { "type": "Point", "coordinates": [ 140.211050600171291, 38.352882687025826 ] } }
]
}
