{
"type": "FeatureCollection",
"name": "geo_06_専修学校",
"crs": { "type": "name", "properties": { "name": "urn:ogc:def:crs:EPSG::6668" } },
"features": [
{ "type": "Feature", "properties": { "P29_001": "06201", "P29_002": "H106220170013", "P29_003": "16016", "P29_004": "山形市立病院済生館高等看護学院", "P29_005": "山形県山形市七日町1-3-26", "P29_006": "3", "P29_007": "0", "P29_008": "00", "P29_009": null }, "geometry": { "type": "Point", "coordinates": [ 140.33739404738651, 38.253246417272578 ] } },
{ "type": "Feature", "properties": { "P29_001": "06203", "P29_002": "H106220370011", "P29_003": "16016", "P29_004": "鶴岡市立荘内看護専門学校", "P29_005": "山形県鶴岡市馬場町2-1", "P29_006": "3", "P29_007": "0", "P29_008": "00", "P29_009": null }, "geometry": { "type": "Point", "coordinates": [ 139.828547060396176, 38.729237750965616 ] } },
{ "type": "Feature", "properties": { "P29_001": "06204", "P29_002": "H106220470010", "P29_003": "16016", "P29_004": "酒田市立酒田看護専門学校", "P29_005": "山形県酒田市中町3-7-16", "P29_006": "3", "P29_007": "0", "P29_008": "00", "P29_009": null }, "geometry": { "type": "Point", "coordinates": [ 139.833038245198281, 38.916632951572602 ] } },
{ "type": "Feature", "properties": { "P29_001": "06205", "P29_002": "H106220570019", "P29_003": "16016", "P29_004": "山形県立農林大学校", "P29_005": "山形県新庄市大字角沢1366", "P29_006": "2", "P29_007": "0", "P29_008": "00", "P29_009": null }, "geometry": { "type": "Point", "coordinates": [ 140.295952667756637, 38.729137303356396 ] } },
{ "type": "Feature", "properties": { "P29_001": "06201", "P29_002": "H106320171010", "P29_003": "16016", "P29_004": "山形デザイン専門学校", "P29_005": "山形県山形市六日町5-26", "P29_006": "4", "P29_007": "0", "P29_008": "00", "P29_009": null }, "geometry": { "type": "Point", "coordinates": [ 140.343000403425407, 38.260297050959785 ] } },
{ "type": "Feature", "properties": { "P29_001": "06201", "P29_002": "H106320171029", "P29_003": "16016", "P29_004": "山形歯科専門学校", "P29_005": "山形県山形市十日町2-4-35", "P29_006": "4", "P29_007": "0", "P29_008": "00", "P29_009": null }, "geometry": { "type": "Point", "coordinates": [ 140.337384405051182, 38.248090582700264 ] } },
{ "type": "Feature", "properties": { "P29_001": "06201", "P29_002": "H106320171038", "P29_003": "16016", "P29_004": "山形調理師専門学校", "P29_005": "山形県山形市六日町7-42", "P29_006": "4", "P29_007": "0", "P29_008": "00", "P29_009": null }, "geometry": { "type": "Point", "coordinates": [ 140.343045234067944, 38.256955879204682 ] } },
{ "type": "Feature", "properties": { "P29_001": "06201", "P29_002": "H106320171047", "P29_003": "16016", "P29_004": "山形美容専門学校", "P29_005": "山形県山形市薬師町1-4-25", "P29_006": "4", "P29_007": "0", "P29_008": "00", "P29_009": null }, "geometry": { "type": "Point", "coordinates": [ 140.343537213112768, 38.261232923135836 ] } },
{ "type": "Feature", "properties": { "P29_001": "06201", "P29_002": "H106320171056", "P29_003": "16016", "P29_004": "専門学校山形Ｖ．カレッジ", "P29_005": "山形県山形市清住町1-4-41", "P29_006": "4", "P29_007": "0", "P29_008": "00", "P29_009": null }, "geometry": { "type": "Point", "coordinates": [ 140.316794545129795, 38.255005423116138 ] } },
{ "type": "Feature", "properties": { "P29_001": "06201", "P29_002": "H106320171074", "P29_003": "16016", "P29_004": "山形厚生看護学校", "P29_005": "山形県山形市蔵王半郷字八森959", "P29_006": "4", "P29_007": "0", "P29_008": "00", "P29_009": null }, "geometry": { "type": "Point", "coordinates": [ 140.320809121440249, 38.194314218799441 ] } },
{ "type": "Feature", "properties": { "P29_001": "06201", "P29_002": "H106320171083", "P29_003": "16016", "P29_004": "山形医療技術専門学校", "P29_005": "山形県山形市前明石字水下367", "P29_006": "4", "P29_007": "0", "P29_008": "00", "P29_009": null }, "geometry": { "type": "Point", "coordinates": [ 140.29614909302515, 38.228989384472825 ] } },
{ "type": "Feature", "properties": { "P29_001": "06201", "P29_002": "H106320171092", "P29_003": "16016", "P29_004": "独立行政法人国立病院機構山形病院附属看護学校", "P29_005": "山形県山形市行才126-2", "P29_006": "0", "P29_007": "0", "P29_008": "00", "P29_009": null }, "geometry": { "type": "Point", "coordinates": [ 140.309025488062048, 38.287586663299948 ] } },
{ "type": "Feature", "properties": { "P29_001": "06201", "P29_002": "H106320171109", "P29_003": "16016", "P29_004": "明徳福祉専門学校", "P29_005": "山形県山形市旅篭町3-2-14", "P29_006": "4", "P29_007": "0", "P29_008": "00", "P29_009": null }, "geometry": { "type": "Point", "coordinates": [ 140.339745692152007, 38.258833190225268 ] } },
{ "type": "Feature", "properties": { "P29_001": "06201", "P29_002": "H106320171118", "P29_003": "16016", "P29_004": "大原簿記情報ビジネス医療福祉専門学校山形校", "P29_005": "山形県山形市城南町1-18-10", "P29_006": "4", "P29_007": "0", "P29_008": "00", "P29_009": null }, "geometry": { "type": "Point", "coordinates": [ 140.32411900437728, 38.250284996822657 ] } },
{ "type": "Feature", "properties": { "P29_001": "06201", "P29_002": "H106320171127", "P29_003": "16016", "P29_004": "大原スポーツ公務員専門学校山形校", "P29_005": "山形県山形市城南町1-18-10", "P29_006": "4", "P29_007": "0", "P29_008": "00", "P29_009": null }, "geometry": { "type": "Point", "coordinates": [ 140.324118245345232, 38.250356509006863 ] } },
{ "type": "Feature", "properties": { "P29_001": "06202", "P29_002": "H106320271019", "P29_003": "16016", "P29_004": "三友堂看護専門学校", "P29_005": "山形県米沢市中央7-5-3-1", "P29_006": "4", "P29_007": "0", "P29_008": "00", "P29_009": null }, "geometry": { "type": "Point", "coordinates": [ 140.105981810647535, 37.920855929573136 ] } },
{ "type": "Feature", "properties": { "P29_001": "06204", "P29_002": "H106320471017", "P29_003": "16016", "P29_004": "酒田調理師専門学校", "P29_005": "山形県酒田市幸町2-10-12", "P29_006": "4", "P29_007": "0", "P29_008": "00", "P29_009": null }, "geometry": { "type": "Point", "coordinates": [ 139.84363468395162, 38.923935066959046 ] } },
{ "type": "Feature", "properties": { "P29_001": "06204", "P29_002": "H106320471026", "P29_003": "16016", "P29_004": "山形科学技術専門学校", "P29_005": "山形県酒田市駅東2-18-11", "P29_006": "4", "P29_007": "0", "P29_008": "00", "P29_009": null }, "geometry": { "type": "Point", "coordinates": [ 139.848923996249312, 38.926317002261179 ] } },
{ "type": "Feature", "properties": { "P29_001": "06205", "P29_002": "H106320571025", "P29_003": "16016", "P29_004": "新庄コアカレッジ", "P29_005": "山形県新庄市十日町6162-11", "P29_006": "4", "P29_007": "0", "P29_008": "00", "P29_009": null }, "geometry": { "type": "Point", "coordinates": [ 140.303058244923733, 38.789372766819803 ] } },
{ "type": "Feature", "properties": { "P29_001": "06402", "P29_002": "H106340271017", "P29_003": "16016", "P29_004": "白鷹高等専修学校", "P29_005": "山形県西置賜郡白鷹町大字鮎貝3446", "P29_006": "4", "P29_007": "0", "P29_008": "00", "P29_009": null }, "geometry": { "type": "Point", "coordinates": [ 140.072013800080953, 38.189194903185481 ] } }
]
}
